<?xml version="1.0" encoding="UTF-8"?>
<gpx version="1.1" creator="Xarxa de Corriols d'Alàs i Cerc - Punt 4" xmlns="http://www.topografix.com/GPX/1/1">
<metadata><name>Volta 10 - 20 km - Punt 4 - E</name></metadata><trk><name>Volta 10 - 20 km - Punt 4 - E</name><trkseg>
<trkpt lat="42.35133841" lon="1.50832496"><ele>768.5</ele></trkpt>
<trkpt lat="42.35104000" lon="1.50867000"><ele>770.8</ele></trkpt>
<trkpt lat="42.35074000" lon="1.50920000"><ele>772.9</ele></trkpt>
<trkpt lat="42.35072000" lon="1.50928000"><ele>772.9</ele></trkpt>
<trkpt lat="42.35082000" lon="1.50960000"><ele>778.0</ele></trkpt>
<trkpt lat="42.35082000" lon="1.50975000"><ele>778.0</ele></trkpt>
<trkpt lat="42.35076000" lon="1.50988000"><ele>779.0</ele></trkpt>
<trkpt lat="42.35066000" lon="1.51010000"><ele>780.1</ele></trkpt>
<trkpt lat="42.35053000" lon="1.51064000"><ele>782.8</ele></trkpt>
<trkpt lat="42.35042000" lon="1.51087000"><ele>784.4</ele></trkpt>
<trkpt lat="42.35013000" lon="1.51114000"><ele>788.5</ele></trkpt>
<trkpt lat="42.35010005" lon="1.51121986"><ele>788.5</ele></trkpt>
<trkpt lat="42.35009000" lon="1.51138000"><ele>788.5</ele></trkpt>
<trkpt lat="42.34999000" lon="1.51147000"><ele>789.3</ele></trkpt>
<trkpt lat="42.34987000" lon="1.51151000"><ele>790.5</ele></trkpt>
<trkpt lat="42.34983000" lon="1.51146000"><ele>791.2</ele></trkpt>
<trkpt lat="42.34982000" lon="1.51138000"><ele>791.4</ele></trkpt>
<trkpt lat="42.35002000" lon="1.51082000"><ele>792.7</ele></trkpt>
<trkpt lat="42.35031000" lon="1.51023000"><ele>788.6</ele></trkpt>
<trkpt lat="42.35037000" lon="1.50987000"><ele>787.6</ele></trkpt>
<trkpt lat="42.35033003" lon="1.50969012"><ele>790.0</ele></trkpt>
<trkpt lat="42.35033000" lon="1.50969000"><ele>790.0</ele></trkpt>
<trkpt lat="42.35027000" lon="1.50964000"><ele>791.4</ele></trkpt>
<trkpt lat="42.34997000" lon="1.50959000"><ele>795.5</ele></trkpt>
<trkpt lat="42.34990000" lon="1.50960000"><ele>795.5</ele></trkpt>
<trkpt lat="42.34985000" lon="1.50965000"><ele>799.4</ele></trkpt>
<trkpt lat="42.34983000" lon="1.50974000"><ele>800.4</ele></trkpt>
<trkpt lat="42.34969000" lon="1.50982000"><ele>802.8</ele></trkpt>
<trkpt lat="42.34966000" lon="1.50987000"><ele>803.4</ele></trkpt>
<trkpt lat="42.34968000" lon="1.50996000"><ele>804.2</ele></trkpt>
<trkpt lat="42.34965000" lon="1.51003000"><ele>804.4</ele></trkpt>
<trkpt lat="42.34950000" lon="1.51009000"><ele>805.1</ele></trkpt>
<trkpt lat="42.34943000" lon="1.51010000"><ele>805.3</ele></trkpt>
<trkpt lat="42.34936000" lon="1.51006000"><ele>805.9</ele></trkpt>
<trkpt lat="42.34924000" lon="1.51009000"><ele>806.8</ele></trkpt>
<trkpt lat="42.34917000" lon="1.51009000"><ele>808.0</ele></trkpt>
<trkpt lat="42.34911000" lon="1.51016000"><ele>808.7</ele></trkpt>
<trkpt lat="42.34910000" lon="1.51026000"><ele>811.0</ele></trkpt>
<trkpt lat="42.34899000" lon="1.51034000"><ele>813.2</ele></trkpt>
<trkpt lat="42.34883000" lon="1.51037000"><ele>814.8</ele></trkpt>
<trkpt lat="42.34859000" lon="1.51030000"><ele>823.8</ele></trkpt>
<trkpt lat="42.34854000" lon="1.51037000"><ele>823.8</ele></trkpt>
<trkpt lat="42.34842000" lon="1.51044000"><ele>823.8</ele></trkpt>
<trkpt lat="42.34839000" lon="1.51056000"><ele>826.6</ele></trkpt>
<trkpt lat="42.34840001" lon="1.51074983"><ele>828.8</ele></trkpt>
<trkpt lat="42.34840000" lon="1.51075000"><ele>828.8</ele></trkpt>
<trkpt lat="42.34835000" lon="1.51082000"><ele>829.6</ele></trkpt>
<trkpt lat="42.34812000" lon="1.51105000"><ele>835.7</ele></trkpt>
<trkpt lat="42.34805000" lon="1.51121000"><ele>838.0</ele></trkpt>
<trkpt lat="42.34789000" lon="1.51147000"><ele>841.2</ele></trkpt>
<trkpt lat="42.34762000" lon="1.51217000"><ele>846.6</ele></trkpt>
<trkpt lat="42.34742000" lon="1.51282000"><ele>854.0</ele></trkpt>
<trkpt lat="42.34730000" lon="1.51315000"><ele>857.3</ele></trkpt>
<trkpt lat="42.34724000" lon="1.51344000"><ele>860.1</ele></trkpt>
<trkpt lat="42.34723000" lon="1.51397000"><ele>866.1</ele></trkpt>
<trkpt lat="42.34705000" lon="1.51449000"><ele>872.4</ele></trkpt>
<trkpt lat="42.34685000" lon="1.51469000"><ele>876.4</ele></trkpt>
<trkpt lat="42.34671000" lon="1.51487000"><ele>878.1</ele></trkpt>
<trkpt lat="42.34648000" lon="1.51536000"><ele>886.3</ele></trkpt>
<trkpt lat="42.34639000" lon="1.51562000"><ele>893.9</ele></trkpt>
<trkpt lat="42.34635000" lon="1.51629000"><ele>903.7</ele></trkpt>
<trkpt lat="42.34626000" lon="1.51640000"><ele>905.6</ele></trkpt>
<trkpt lat="42.34605000" lon="1.51659000"><ele>909.6</ele></trkpt>
<trkpt lat="42.34595000" lon="1.51674000"><ele>912.3</ele></trkpt>
<trkpt lat="42.34594000" lon="1.51693000"><ele>912.3</ele></trkpt>
<trkpt lat="42.34597000" lon="1.51709000"><ele>916.0</ele></trkpt>
<trkpt lat="42.34602000" lon="1.51721000"><ele>916.0</ele></trkpt>
<trkpt lat="42.34606000" lon="1.51726000"><ele>918.3</ele></trkpt>
<trkpt lat="42.34614000" lon="1.51730000"><ele>918.9</ele></trkpt>
<trkpt lat="42.34636000" lon="1.51734000"><ele>921.2</ele></trkpt>
<trkpt lat="42.34663000" lon="1.51749000"><ele>924.2</ele></trkpt>
<trkpt lat="42.34670000" lon="1.51746000"><ele>924.2</ele></trkpt>
<trkpt lat="42.34679000" lon="1.51734000"><ele>925.1</ele></trkpt>
<trkpt lat="42.34684996" lon="1.51727005"><ele>925.5</ele></trkpt>
<trkpt lat="42.34685000" lon="1.51727000"><ele>925.5</ele></trkpt>
<trkpt lat="42.34706000" lon="1.51717000"><ele>928.0</ele></trkpt>
<trkpt lat="42.34714000" lon="1.51715000"><ele>928.0</ele></trkpt>
<trkpt lat="42.34730436" lon="1.51722305"><ele>930.1</ele></trkpt>
<trkpt lat="42.34749000" lon="1.51710000"><ele>921.6</ele></trkpt>
<trkpt lat="42.34764000" lon="1.51724000"><ele>924.7</ele></trkpt>
<trkpt lat="42.34783000" lon="1.51734000"><ele>926.3</ele></trkpt>
<trkpt lat="42.34797000" lon="1.51718000"><ele>922.8</ele></trkpt>
<trkpt lat="42.34812000" lon="1.51714000"><ele>921.9</ele></trkpt>
<trkpt lat="42.34835000" lon="1.51708000"><ele>921.1</ele></trkpt>
<trkpt lat="42.34841000" lon="1.51683000"><ele>915.2</ele></trkpt>
<trkpt lat="42.34849000" lon="1.51644000"><ele>907.4</ele></trkpt>
<trkpt lat="42.34859000" lon="1.51609000"><ele>899.3</ele></trkpt>
<trkpt lat="42.34862000" lon="1.51574000"><ele>891.2</ele></trkpt>
<trkpt lat="42.34868000" lon="1.51552000"><ele>885.8</ele></trkpt>
<trkpt lat="42.34855000" lon="1.51534000"><ele>880.5</ele></trkpt>
<trkpt lat="42.34860000" lon="1.51512000"><ele>875.2</ele></trkpt>
<trkpt lat="42.34875000" lon="1.51489000"><ele>869.2</ele></trkpt>
<trkpt lat="42.34889000" lon="1.51471000"><ele>864.7</ele></trkpt>
<trkpt lat="42.34895000" lon="1.51450000"><ele>859.9</ele></trkpt>
<trkpt lat="42.34895000" lon="1.51416000"><ele>853.2</ele></trkpt>
<trkpt lat="42.34896000" lon="1.51382000"><ele>846.3</ele></trkpt>
<trkpt lat="42.34900000" lon="1.51345000"><ele>838.1</ele></trkpt>
<trkpt lat="42.34923000" lon="1.51322000"><ele>830.2</ele></trkpt>
<trkpt lat="42.34982000" lon="1.51298000"><ele>822.3</ele></trkpt>
<trkpt lat="42.35021000" lon="1.51266000"><ele>811.1</ele></trkpt>
<trkpt lat="42.35042000" lon="1.51261000"><ele>808.0</ele></trkpt>
<trkpt lat="42.35038000" lon="1.51300000"><ele>817.7</ele></trkpt>
<trkpt lat="42.35062000" lon="1.51283000"><ele>811.2</ele></trkpt>
<trkpt lat="42.35063000" lon="1.51290000"><ele>806.4</ele></trkpt>
<trkpt lat="42.35069000" lon="1.51297000"><ele>807.8</ele></trkpt>
<trkpt lat="42.35154000" lon="1.51314000"><ele>814.4</ele></trkpt>
<trkpt lat="42.35211000" lon="1.51312000"><ele>818.9</ele></trkpt>
<trkpt lat="42.35225000" lon="1.51315000"><ele>819.6</ele></trkpt>
<trkpt lat="42.35248000" lon="1.51330000"><ele>821.8</ele></trkpt>
<trkpt lat="42.35262000" lon="1.51346000"><ele>823.7</ele></trkpt>
<trkpt lat="42.35282000" lon="1.51386000"><ele>828.5</ele></trkpt>
<trkpt lat="42.35290000" lon="1.51394000"><ele>828.5</ele></trkpt>
<trkpt lat="42.35296000" lon="1.51405000"><ele>829.5</ele></trkpt>
<trkpt lat="42.35297000" lon="1.51417000"><ele>830.4</ele></trkpt>
<trkpt lat="42.35291000" lon="1.51423000"><ele>831.2</ele></trkpt>
<trkpt lat="42.35289000" lon="1.51426000"><ele>831.2</ele></trkpt>
<trkpt lat="42.35283000" lon="1.51427000"><ele>832.8</ele></trkpt>
<trkpt lat="42.35276000" lon="1.51424000"><ele>832.8</ele></trkpt>
<trkpt lat="42.35260000" lon="1.51404000"><ele>834.6</ele></trkpt>
<trkpt lat="42.35232000" lon="1.51385000"><ele>836.1</ele></trkpt>
<trkpt lat="42.35208000" lon="1.51373000"><ele>838.9</ele></trkpt>
<trkpt lat="42.35190000" lon="1.51372000"><ele>839.6</ele></trkpt>
<trkpt lat="42.35166000" lon="1.51386000"><ele>841.6</ele></trkpt>
<trkpt lat="42.35108000" lon="1.51391000"><ele>846.1</ele></trkpt>
<trkpt lat="42.35049000" lon="1.51402000"><ele>851.5</ele></trkpt>
<trkpt lat="42.35047000" lon="1.51405000"><ele>851.5</ele></trkpt>
<trkpt lat="42.35025000" lon="1.51433000"><ele>853.9</ele></trkpt>
<trkpt lat="42.35010000" lon="1.51437000"><ele>855.2</ele></trkpt>
<trkpt lat="42.35007000" lon="1.51442000"><ele>856.5</ele></trkpt>
<trkpt lat="42.35008000" lon="1.51450000"><ele>856.5</ele></trkpt>
<trkpt lat="42.35013000" lon="1.51454000"><ele>857.4</ele></trkpt>
<trkpt lat="42.35034000" lon="1.51449000"><ele>858.8</ele></trkpt>
<trkpt lat="42.35048000" lon="1.51451000"><ele>860.0</ele></trkpt>
<trkpt lat="42.35101000" lon="1.51471000"><ele>863.9</ele></trkpt>
<trkpt lat="42.35111000" lon="1.51485000"><ele>865.9</ele></trkpt>
<trkpt lat="42.35121000" lon="1.51522000"><ele>868.0</ele></trkpt>
<trkpt lat="42.35113000" lon="1.51558000"><ele>869.8</ele></trkpt>
<trkpt lat="42.35122000" lon="1.51622000"><ele>872.6</ele></trkpt>
<trkpt lat="42.35125000" lon="1.51674000"><ele>877.3</ele></trkpt>
<trkpt lat="42.35134000" lon="1.51679000"><ele>878.0</ele></trkpt>
<trkpt lat="42.35161000" lon="1.51671000"><ele>881.7</ele></trkpt>
<trkpt lat="42.35200000" lon="1.51703000"><ele>883.3</ele></trkpt>
<trkpt lat="42.35222000" lon="1.51720000"><ele>885.0</ele></trkpt>
<trkpt lat="42.35260000" lon="1.51733000"><ele>889.3</ele></trkpt>
<trkpt lat="42.35314000" lon="1.51739000"><ele>894.7</ele></trkpt>
<trkpt lat="42.35319000" lon="1.51748000"><ele>894.7</ele></trkpt>
<trkpt lat="42.35318000" lon="1.51750000"><ele>894.7</ele></trkpt>
<trkpt lat="42.35317000" lon="1.51757000"><ele>895.6</ele></trkpt>
<trkpt lat="42.35239000" lon="1.51777000"><ele>899.9</ele></trkpt>
<trkpt lat="42.35203000" lon="1.51780000"><ele>902.1</ele></trkpt>
<trkpt lat="42.35202996" lon="1.51780001"><ele>902.1</ele></trkpt>
<trkpt lat="42.35190000" lon="1.51784000"><ele>903.2</ele></trkpt>
<trkpt lat="42.35159000" lon="1.51791000"><ele>904.3</ele></trkpt>
<trkpt lat="42.35126000" lon="1.51815000"><ele>905.8</ele></trkpt>
<trkpt lat="42.35079000" lon="1.51817000"><ele>908.7</ele></trkpt>
<trkpt lat="42.35071000" lon="1.51818000"><ele>909.0</ele></trkpt>
<trkpt lat="42.35043000" lon="1.51805000"><ele>912.1</ele></trkpt>
<trkpt lat="42.35032000" lon="1.51790000"><ele>912.1</ele></trkpt>
<trkpt lat="42.35013000" lon="1.51743000"><ele>916.5</ele></trkpt>
<trkpt lat="42.34991000" lon="1.51718000"><ele>917.8</ele></trkpt>
<trkpt lat="42.34959000" lon="1.51698000"><ele>920.7</ele></trkpt>
<trkpt lat="42.34930000" lon="1.51696000"><ele>922.4</ele></trkpt>
<trkpt lat="42.34911000" lon="1.51710000"><ele>923.5</ele></trkpt>
<trkpt lat="42.34888000" lon="1.51741000"><ele>925.2</ele></trkpt>
<trkpt lat="42.34844000" lon="1.51763500"><ele>928.6</ele></trkpt>
<trkpt lat="42.34800000" lon="1.51786000"><ele>930.8</ele></trkpt>
<trkpt lat="42.34759000" lon="1.51794000"><ele>934.7</ele></trkpt>
<trkpt lat="42.34749000" lon="1.51795000"><ele>935.6</ele></trkpt>
<trkpt lat="42.34725000" lon="1.51806000"><ele>936.8</ele></trkpt>
<trkpt lat="42.34705000" lon="1.51847000"><ele>941.7</ele></trkpt>
<trkpt lat="42.34699000" lon="1.51879000"><ele>943.5</ele></trkpt>
<trkpt lat="42.34682000" lon="1.51906000"><ele>946.0</ele></trkpt>
<trkpt lat="42.34671003" lon="1.51925006"><ele>948.0</ele></trkpt>
<trkpt lat="42.34681000" lon="1.51944000"><ele>949.9</ele></trkpt>
<trkpt lat="42.34716000" lon="1.51938000"><ele>953.9</ele></trkpt>
<trkpt lat="42.34764000" lon="1.51920000"><ele>958.8</ele></trkpt>
<trkpt lat="42.34789000" lon="1.51935000"><ele>961.7</ele></trkpt>
<trkpt lat="42.34800000" lon="1.51945000"><ele>965.2</ele></trkpt>
<trkpt lat="42.34812000" lon="1.51951000"><ele>965.2</ele></trkpt>
<trkpt lat="42.34812000" lon="1.51956000"><ele>965.9</ele></trkpt>
<trkpt lat="42.34799998" lon="1.51965003"><ele>966.9</ele></trkpt>
<trkpt lat="42.34767000" lon="1.52017000"><ele>975.0</ele></trkpt>
<trkpt lat="42.34740000" lon="1.52045000"><ele>976.9</ele></trkpt>
<trkpt lat="42.34734000" lon="1.52048000"><ele>976.9</ele></trkpt>
<trkpt lat="42.34665000" lon="1.52097000"><ele>983.3</ele></trkpt>
<trkpt lat="42.34640000" lon="1.52085000"><ele>985.6</ele></trkpt>
<trkpt lat="42.34582000" lon="1.52116000"><ele>988.2</ele></trkpt>
<trkpt lat="42.34541000" lon="1.52148000"><ele>993.1</ele></trkpt>
<trkpt lat="42.34530000" lon="1.52104000"><ele>996.6</ele></trkpt>
<trkpt lat="42.34460000" lon="1.52080000"><ele>1004.7</ele></trkpt>
<trkpt lat="42.34399000" lon="1.52168000"><ele>1014.5</ele></trkpt>
<trkpt lat="42.34405000" lon="1.52214000"><ele>1017.0</ele></trkpt>
<trkpt lat="42.34391000" lon="1.52307000"><ele>1025.1</ele></trkpt>
<trkpt lat="42.34412000" lon="1.52328000"><ele>1026.9</ele></trkpt>
<trkpt lat="42.34435000" lon="1.52324000"><ele>1027.8</ele></trkpt>
<trkpt lat="42.34465000" lon="1.52335000"><ele>1028.4</ele></trkpt>
<trkpt lat="42.34509000" lon="1.52332000"><ele>1031.3</ele></trkpt>
<trkpt lat="42.34517000" lon="1.52336000"><ele>1031.8</ele></trkpt>
<trkpt lat="42.34518000" lon="1.52336000"><ele>1031.8</ele></trkpt>
<trkpt lat="42.34537000" lon="1.52345000"><ele>1033.6</ele></trkpt>
<trkpt lat="42.34550000" lon="1.52363000"><ele>1034.2</ele></trkpt>
<trkpt lat="42.34580000" lon="1.52382000"><ele>1036.1</ele></trkpt>
<trkpt lat="42.34595000" lon="1.52398000"><ele>1037.4</ele></trkpt>
<trkpt lat="42.34641000" lon="1.52404000"><ele>1040.6</ele></trkpt>
<trkpt lat="42.34688000" lon="1.52429000"><ele>1044.4</ele></trkpt>
<trkpt lat="42.34699000" lon="1.52442000"><ele>1046.0</ele></trkpt>
<trkpt lat="42.34695000" lon="1.52451000"><ele>1046.0</ele></trkpt>
<trkpt lat="42.34650000" lon="1.52437000"><ele>1051.2</ele></trkpt>
<trkpt lat="42.34575000" lon="1.52475500"><ele>1056.2</ele></trkpt>
<trkpt lat="42.34500000" lon="1.52514000"><ele>1060.5</ele></trkpt>
<trkpt lat="42.34453000" lon="1.52514000"><ele>1062.5</ele></trkpt>
<trkpt lat="42.34438000" lon="1.52511000"><ele>1063.5</ele></trkpt>
<trkpt lat="42.34414000" lon="1.52516000"><ele>1064.6</ele></trkpt>
<trkpt lat="42.34402000" lon="1.52514000"><ele>1065.7</ele></trkpt>
<trkpt lat="42.34399000" lon="1.52521000"><ele>1066.6</ele></trkpt>
<trkpt lat="42.34403000" lon="1.52532000"><ele>1066.6</ele></trkpt>
<trkpt lat="42.34448000" lon="1.52545000"><ele>1073.2</ele></trkpt>
<trkpt lat="42.34499000" lon="1.52579000"><ele>1076.5</ele></trkpt>
<trkpt lat="42.34543000" lon="1.52570000"><ele>1082.4</ele></trkpt>
<trkpt lat="42.34588000" lon="1.52570000"><ele>1086.8</ele></trkpt>
<trkpt lat="42.34600000" lon="1.52577000"><ele>1087.9</ele></trkpt>
<trkpt lat="42.34600000" lon="1.52585000"><ele>1088.3</ele></trkpt>
<trkpt lat="42.34587000" lon="1.52600000"><ele>1091.3</ele></trkpt>
<trkpt lat="42.34576000" lon="1.52601000"><ele>1091.3</ele></trkpt>
<trkpt lat="42.34562000" lon="1.52611000"><ele>1093.0</ele></trkpt>
<trkpt lat="42.34544000" lon="1.52609000"><ele>1093.9</ele></trkpt>
<trkpt lat="42.34481000" lon="1.52659000"><ele>1104.5</ele></trkpt>
<trkpt lat="42.34533000" lon="1.52618000"><ele>1095.8</ele></trkpt>
<trkpt lat="42.34546000" lon="1.52622000"><ele>1094.7</ele></trkpt>
<trkpt lat="42.34561000" lon="1.52629000"><ele>1093.0</ele></trkpt>
<trkpt lat="42.34583000" lon="1.52616000"><ele>1089.5</ele></trkpt>
<trkpt lat="42.34598000" lon="1.52603000"><ele>1086.3</ele></trkpt>
<trkpt lat="42.34618000" lon="1.52580000"><ele>1083.3</ele></trkpt>
<trkpt lat="42.34627000" lon="1.52562000"><ele>1081.0</ele></trkpt>
<trkpt lat="42.34626000" lon="1.52547000"><ele>1078.0</ele></trkpt>
<trkpt lat="42.34620000" lon="1.52539000"><ele>1074.8</ele></trkpt>
<trkpt lat="42.34627000" lon="1.52537000"><ele>1074.8</ele></trkpt>
<trkpt lat="42.34646000" lon="1.52539000"><ele>1070.1</ele></trkpt>
<trkpt lat="42.34659000" lon="1.52549000"><ele>1065.9</ele></trkpt>
<trkpt lat="42.34664000" lon="1.52549000"><ele>1065.9</ele></trkpt>
<trkpt lat="42.34670000" lon="1.52541000"><ele>1065.9</ele></trkpt>
<trkpt lat="42.34675000" lon="1.52540000"><ele>1065.9</ele></trkpt>
<trkpt lat="42.34682000" lon="1.52547000"><ele>1061.4</ele></trkpt>
<trkpt lat="42.34696000" lon="1.52547000"><ele>1059.7</ele></trkpt>
<trkpt lat="42.34706000" lon="1.52536000"><ele>1057.5</ele></trkpt>
<trkpt lat="42.34715000" lon="1.52493000"><ele>1051.5</ele></trkpt>
<trkpt lat="42.34730000" lon="1.52450000"><ele>1043.6</ele></trkpt>
<trkpt lat="42.34726000" lon="1.52428000"><ele>1039.6</ele></trkpt>
<trkpt lat="42.34731000" lon="1.52388000"><ele>1035.5</ele></trkpt>
<trkpt lat="42.34728000" lon="1.52373000"><ele>1029.6</ele></trkpt>
<trkpt lat="42.34729000" lon="1.52367000"><ele>1029.6</ele></trkpt>
<trkpt lat="42.34737000" lon="1.52366000"><ele>1029.6</ele></trkpt>
<trkpt lat="42.34746000" lon="1.52372000"><ele>1027.7</ele></trkpt>
<trkpt lat="42.34753000" lon="1.52368000"><ele>1027.7</ele></trkpt>
<trkpt lat="42.34746000" lon="1.52349000"><ele>1021.7</ele></trkpt>
<trkpt lat="42.34746000" lon="1.52343000"><ele>1021.7</ele></trkpt>
<trkpt lat="42.34749000" lon="1.52338000"><ele>1019.9</ele></trkpt>
<trkpt lat="42.34756000" lon="1.52344000"><ele>1019.9</ele></trkpt>
<trkpt lat="42.34762000" lon="1.52345000"><ele>1018.0</ele></trkpt>
<trkpt lat="42.34763000" lon="1.52334000"><ele>1015.1</ele></trkpt>
<trkpt lat="42.34754000" lon="1.52303000"><ele>1010.0</ele></trkpt>
<trkpt lat="42.34748000" lon="1.52299000"><ele>1010.0</ele></trkpt>
<trkpt lat="42.34749000" lon="1.52291000"><ele>1009.1</ele></trkpt>
<trkpt lat="42.34763000" lon="1.52283000"><ele>1006.3</ele></trkpt>
<trkpt lat="42.34763002" lon="1.52282969"><ele>1006.2</ele></trkpt>
<trkpt lat="42.34760000" lon="1.52284000"><ele>1004.2</ele></trkpt>
<trkpt lat="42.34770000" lon="1.52288000"><ele>1002.6</ele></trkpt>
<trkpt lat="42.34778000" lon="1.52288000"><ele>1000.8</ele></trkpt>
<trkpt lat="42.34789000" lon="1.52302000"><ele>998.4</ele></trkpt>
<trkpt lat="42.34798000" lon="1.52310000"><ele>995.9</ele></trkpt>
<trkpt lat="42.34805000" lon="1.52313000"><ele>993.7</ele></trkpt>
<trkpt lat="42.34815000" lon="1.52304000"><ele>989.9</ele></trkpt>
<trkpt lat="42.34829000" lon="1.52301000"><ele>985.3</ele></trkpt>
<trkpt lat="42.34841000" lon="1.52292000"><ele>980.6</ele></trkpt>
<trkpt lat="42.34841009" lon="1.52291998"><ele>980.6</ele></trkpt>
<trkpt lat="42.34836000" lon="1.52296000"><ele>982.9</ele></trkpt>
<trkpt lat="42.34839000" lon="1.52259000"><ele>979.1</ele></trkpt>
<trkpt lat="42.34841000" lon="1.52217000"><ele>975.4</ele></trkpt>
<trkpt lat="42.34839000" lon="1.52186000"><ele>972.1</ele></trkpt>
<trkpt lat="42.34850000" lon="1.52162000"><ele>966.0</ele></trkpt>
<trkpt lat="42.34864000" lon="1.52150000"><ele>960.9</ele></trkpt>
<trkpt lat="42.34867000" lon="1.52112000"><ele>957.0</ele></trkpt>
<trkpt lat="42.34888000" lon="1.52111000"><ele>950.8</ele></trkpt>
<trkpt lat="42.34921000" lon="1.52089000"><ele>942.0</ele></trkpt>
<trkpt lat="42.34935000" lon="1.52075000"><ele>938.8</ele></trkpt>
<trkpt lat="42.34943000" lon="1.52061000"><ele>937.1</ele></trkpt>
<trkpt lat="42.34954000" lon="1.52090000"><ele>936.3</ele></trkpt>
<trkpt lat="42.34961000" lon="1.52113000"><ele>936.1</ele></trkpt>
<trkpt lat="42.34968000" lon="1.52095000"><ele>934.6</ele></trkpt>
<trkpt lat="42.34969000" lon="1.52072000"><ele>933.7</ele></trkpt>
<trkpt lat="42.34972000" lon="1.52056000"><ele>931.9</ele></trkpt>
<trkpt lat="42.34988000" lon="1.52048000"><ele>929.3</ele></trkpt>
<trkpt lat="42.34992000" lon="1.52061000"><ele>927.9</ele></trkpt>
<trkpt lat="42.34994000" lon="1.52085000"><ele>929.7</ele></trkpt>
<trkpt lat="42.34976000" lon="1.52184000"><ele>935.9</ele></trkpt>
<trkpt lat="42.34943000" lon="1.52282000"><ele>942.0</ele></trkpt>
<trkpt lat="42.34946995" lon="1.52300976"><ele>942.9</ele></trkpt>
<trkpt lat="42.34957900" lon="1.52322270"></trkpt>
<trkpt lat="42.34963987" lon="1.52335970"><ele>944.8</ele></trkpt>
<trkpt lat="42.34956000" lon="1.52318000"><ele>943.9</ele></trkpt>
<trkpt lat="42.34964000" lon="1.52336000"><ele>944.8</ele></trkpt>
<trkpt lat="42.34936000" lon="1.52406000"><ele>945.5</ele></trkpt>
<trkpt lat="42.34921000" lon="1.52436000"><ele>945.7</ele></trkpt>
<trkpt lat="42.34906000" lon="1.52453000"><ele>946.0</ele></trkpt>
<trkpt lat="42.34899000" lon="1.52466000"><ele>946.5</ele></trkpt>
<trkpt lat="42.34929993" lon="1.52491994"><ele>949.9</ele></trkpt>
<trkpt lat="42.34937000" lon="1.52502000"><ele>950.9</ele></trkpt>
<trkpt lat="42.34925000" lon="1.52545000"><ele>956.4</ele></trkpt>
<trkpt lat="42.34930000" lon="1.52581000"><ele>960.7</ele></trkpt>
<trkpt lat="42.34922000" lon="1.52625000"><ele>965.2</ele></trkpt>
<trkpt lat="42.34920000" lon="1.52677000"><ele>975.9</ele></trkpt>
<trkpt lat="42.34927000" lon="1.52733000"><ele>982.7</ele></trkpt>
<trkpt lat="42.34939000" lon="1.52785000"><ele>994.0</ele></trkpt>
<trkpt lat="42.34942000" lon="1.52816000"><ele>1003.7</ele></trkpt>
<trkpt lat="42.34951000" lon="1.52847000"><ele>1007.7</ele></trkpt>
<trkpt lat="42.34972000" lon="1.52884000"><ele>1017.5</ele></trkpt>
<trkpt lat="42.34978000" lon="1.52913000"><ele>1024.1</ele></trkpt>
<trkpt lat="42.34975000" lon="1.52930000"><ele>1027.8</ele></trkpt>
<trkpt lat="42.34976000" lon="1.52958000"><ele>1034.8</ele></trkpt>
<trkpt lat="42.34959000" lon="1.52986000"><ele>1036.8</ele></trkpt>
<trkpt lat="42.34914000" lon="1.53021000"><ele>1050.9</ele></trkpt>
<trkpt lat="42.34913997" lon="1.53021001"><ele>1050.9</ele></trkpt>
<trkpt lat="42.34897000" lon="1.53025000"><ele>1053.3</ele></trkpt>
<trkpt lat="42.34915000" lon="1.53064000"><ele>1044.8</ele></trkpt>
<trkpt lat="42.34913000" lon="1.53068000"><ele>1043.4</ele></trkpt>
<trkpt lat="42.34898000" lon="1.53125000"><ele>1038.2</ele></trkpt>
<trkpt lat="42.34910000" lon="1.53210000"><ele>1033.0</ele></trkpt>
<trkpt lat="42.34910000" lon="1.53211000"><ele>1032.9</ele></trkpt>
<trkpt lat="42.34948000" lon="1.53241000"><ele>1023.2</ele></trkpt>
<trkpt lat="42.34986000" lon="1.53217000"><ele>1012.1</ele></trkpt>
<trkpt lat="42.34987000" lon="1.53193000"><ele>1008.4</ele></trkpt>
<trkpt lat="42.34990000" lon="1.53192000"><ele>1007.2</ele></trkpt>
<trkpt lat="42.35008000" lon="1.53191000"><ele>1000.7</ele></trkpt>
<trkpt lat="42.35012000" lon="1.53179000"><ele>999.1</ele></trkpt>
<trkpt lat="42.35051000" lon="1.53091000"><ele>986.6</ele></trkpt>
<trkpt lat="42.35097000" lon="1.53016000"><ele>977.1</ele></trkpt>
<trkpt lat="42.35111000" lon="1.52905000"><ele>966.0</ele></trkpt>
<trkpt lat="42.35111000" lon="1.52889000"><ele>962.2</ele></trkpt>
<trkpt lat="42.35113000" lon="1.52790000"><ele>949.7</ele></trkpt>
<trkpt lat="42.35130000" lon="1.52780000"><ele>945.1</ele></trkpt>
<trkpt lat="42.35142000" lon="1.52741000"><ele>940.2</ele></trkpt>
<trkpt lat="42.35148000" lon="1.52764000"></trkpt>
<trkpt lat="42.35148000" lon="1.52764000"><ele>939.6</ele></trkpt>
<trkpt lat="42.35154000" lon="1.52833000"><ele>936.0</ele></trkpt>
<trkpt lat="42.35151000" lon="1.52865000"><ele>934.5</ele></trkpt>
<trkpt lat="42.35151000" lon="1.52896000"><ele>932.9</ele></trkpt>
<trkpt lat="42.35156000" lon="1.52929000"><ele>931.9</ele></trkpt>
<trkpt lat="42.35175000" lon="1.52977000"><ele>930.7</ele></trkpt>
<trkpt lat="42.35186000" lon="1.53014000"><ele>930.1</ele></trkpt>
<trkpt lat="42.35185000" lon="1.53039000"><ele>929.5</ele></trkpt>
<trkpt lat="42.35171000" lon="1.53093000"><ele>927.8</ele></trkpt>
<trkpt lat="42.35161000" lon="1.53114000"><ele>927.4</ele></trkpt>
<trkpt lat="42.35158000" lon="1.53131000"><ele>925.9</ele></trkpt>
<trkpt lat="42.35186000" lon="1.53219000"><ele>922.8</ele></trkpt>
<trkpt lat="42.35187000" lon="1.53250000"><ele>921.0</ele></trkpt>
<trkpt lat="42.35184000" lon="1.53257000"><ele>921.0</ele></trkpt>
<trkpt lat="42.35184999" lon="1.53272990"><ele>920.5</ele></trkpt>
<trkpt lat="42.35185000" lon="1.53261000"><ele>923.5</ele></trkpt>
<trkpt lat="42.35170000" lon="1.53279000"><ele>929.8</ele></trkpt>
<trkpt lat="42.35173000" lon="1.53304000"><ele>928.1</ele></trkpt>
<trkpt lat="42.35177000" lon="1.53330000"><ele>925.5</ele></trkpt>
<trkpt lat="42.35166000" lon="1.53361000"><ele>926.6</ele></trkpt>
<trkpt lat="42.35123000" lon="1.53380000"><ele>945.8</ele></trkpt>
<trkpt lat="42.35106000" lon="1.53371000"><ele>954.6</ele></trkpt>
<trkpt lat="42.35089000" lon="1.53380000"><ele>963.6</ele></trkpt>
<trkpt lat="42.35077000" lon="1.53385000"><ele>974.8</ele></trkpt>
<trkpt lat="42.35046000" lon="1.53459000"><ele>965.9</ele></trkpt>
<trkpt lat="42.35005000" lon="1.53528500"><ele>958.1</ele></trkpt>
<trkpt lat="42.34964000" lon="1.53598000"><ele>951.5</ele></trkpt>
<trkpt lat="42.34980000" lon="1.53686000"><ele>940.9</ele></trkpt>
<trkpt lat="42.34975000" lon="1.53716000"><ele>940.9</ele></trkpt>
<trkpt lat="42.34952000" lon="1.53730000"><ele>944.7</ele></trkpt>
<trkpt lat="42.34918000" lon="1.53743000"><ele>948.1</ele></trkpt>
<trkpt lat="42.34901000" lon="1.53790000"><ele>936.1</ele></trkpt>
<trkpt lat="42.34922000" lon="1.53790000"><ele>938.5</ele></trkpt>
<trkpt lat="42.34969000" lon="1.53804000"><ele>944.8</ele></trkpt>
<trkpt lat="42.34993000" lon="1.53798000"><ele>946.8</ele></trkpt>
<trkpt lat="42.35036000" lon="1.53818000"><ele>950.3</ele></trkpt>
<trkpt lat="42.35070000" lon="1.53823000"><ele>952.3</ele></trkpt>
<trkpt lat="42.35083000" lon="1.53844000"><ele>957.3</ele></trkpt>
<trkpt lat="42.35081000" lon="1.53844000"><ele>958.4</ele></trkpt>
<trkpt lat="42.35050000" lon="1.53872000"><ele>965.4</ele></trkpt>
<trkpt lat="42.35022000" lon="1.53858000"><ele>970.2</ele></trkpt>
<trkpt lat="42.34983000" lon="1.53846000"><ele>970.1</ele></trkpt>
<trkpt lat="42.34950000" lon="1.53880000"><ele>982.5</ele></trkpt>
<trkpt lat="42.34921000" lon="1.53899000"><ele>995.0</ele></trkpt>
<trkpt lat="42.34897000" lon="1.53886000"><ele>995.4</ele></trkpt>
<trkpt lat="42.34865000" lon="1.53897000"><ele>1010.2</ele></trkpt>
<trkpt lat="42.34824000" lon="1.53886000"><ele>1025.3</ele></trkpt>
<trkpt lat="42.34796000" lon="1.53884000"><ele>1038.6</ele></trkpt>
<trkpt lat="42.34777000" lon="1.53856000"><ele>1041.4</ele></trkpt>
<trkpt lat="42.34763000" lon="1.53827000"><ele>1040.5</ele></trkpt>
<trkpt lat="42.34743000" lon="1.53809000"><ele>1046.8</ele></trkpt>
<trkpt lat="42.34752000" lon="1.53796000"><ele>1039.0</ele></trkpt>
<trkpt lat="42.34759000" lon="1.53766000"><ele>1033.4</ele></trkpt>
<trkpt lat="42.34743000" lon="1.53745000"><ele>1042.5</ele></trkpt>
<trkpt lat="42.34716000" lon="1.53718000"><ele>1059.1</ele></trkpt>
<trkpt lat="42.34697000" lon="1.53714000"><ele>1064.6</ele></trkpt>
<trkpt lat="42.34669000" lon="1.53713000"><ele>1072.3</ele></trkpt>
<trkpt lat="42.34675000" lon="1.53692000"><ele>1075.7</ele></trkpt>
<trkpt lat="42.34685000" lon="1.53685000"><ele>1077.0</ele></trkpt>
<trkpt lat="42.34676000" lon="1.53670000"><ele>1084.4</ele></trkpt>
<trkpt lat="42.34688000" lon="1.53650000"><ele>1089.3</ele></trkpt>
<trkpt lat="42.34699000" lon="1.53635000"><ele>1094.5</ele></trkpt>
<trkpt lat="42.34690000" lon="1.53619000"><ele>1101.4</ele></trkpt>
<trkpt lat="42.34679000" lon="1.53608000"><ele>1105.0</ele></trkpt>
<trkpt lat="42.34695000" lon="1.53605000"><ele>1104.7</ele></trkpt>
<trkpt lat="42.34741996" lon="1.53597001"><ele>1102.5</ele></trkpt>
<trkpt lat="42.34746000" lon="1.53591000"><ele>1095.9</ele></trkpt>
<trkpt lat="42.34778000" lon="1.53562000"><ele>1087.4</ele></trkpt>
<trkpt lat="42.34803000" lon="1.53492000"><ele>1084.3</ele></trkpt>
<trkpt lat="42.34803000" lon="1.53398000"><ele>1082.8</ele></trkpt>
<trkpt lat="42.34783000" lon="1.53336000"><ele>1081.9</ele></trkpt>
<trkpt lat="42.34804000" lon="1.53291000"><ele>1073.4</ele></trkpt>
<trkpt lat="42.34802000" lon="1.53233000"><ele>1072.3</ele></trkpt>
<trkpt lat="42.34839000" lon="1.53159000"><ele>1063.6</ele></trkpt>
<trkpt lat="42.34849999" lon="1.53086010"><ele>1065.8</ele></trkpt>
<trkpt lat="42.34859000" lon="1.53073000"><ele>1063.6</ele></trkpt>
<trkpt lat="42.34846000" lon="1.53072000"><ele>1067.8</ele></trkpt>
<trkpt lat="42.34832000" lon="1.53059000"><ele>1073.8</ele></trkpt>
<trkpt lat="42.34817000" lon="1.53053000"><ele>1078.4</ele></trkpt>
<trkpt lat="42.34799000" lon="1.53062000"><ele>1084.7</ele></trkpt>
<trkpt lat="42.34776000" lon="1.53063000"><ele>1092.3</ele></trkpt>
<trkpt lat="42.34752000" lon="1.53065000"><ele>1100.9</ele></trkpt>
<trkpt lat="42.34743000" lon="1.53036000"><ele>1105.0</ele></trkpt>
<trkpt lat="42.34716000" lon="1.53060000"><ele>1112.7</ele></trkpt>
<trkpt lat="42.34684000" lon="1.53082000"><ele>1120.3</ele></trkpt>
<trkpt lat="42.34653000" lon="1.53108000"><ele>1126.7</ele></trkpt>
<trkpt lat="42.34628000" lon="1.53144000"><ele>1132.4</ele></trkpt>
<trkpt lat="42.34616000" lon="1.53183000"><ele>1135.1</ele></trkpt>
<trkpt lat="42.34591000" lon="1.53219000"><ele>1140.1</ele></trkpt>
<trkpt lat="42.34580000" lon="1.53251000"><ele>1142.3</ele></trkpt>
<trkpt lat="42.34561000" lon="1.53273000"><ele>1145.8</ele></trkpt>
<trkpt lat="42.34564998" lon="1.53259009"><ele>1144.9</ele></trkpt>
<trkpt lat="42.34557000" lon="1.53288000"><ele>1146.7</ele></trkpt>
<trkpt lat="42.34516000" lon="1.53332000"><ele>1148.1</ele></trkpt>
<trkpt lat="42.34502982" lon="1.53342037"><ele>1148.5</ele></trkpt>
<trkpt lat="42.34498000" lon="1.53352000"><ele>1148.5</ele></trkpt>
<trkpt lat="42.34492000" lon="1.53380000"><ele>1149.4</ele></trkpt>
<trkpt lat="42.34490000" lon="1.53424000"><ele>1151.0</ele></trkpt>
<trkpt lat="42.34487000" lon="1.53433000"><ele>1151.7</ele></trkpt>
<trkpt lat="42.34465000" lon="1.53463000"><ele>1154.7</ele></trkpt>
<trkpt lat="42.34451000" lon="1.53467000"><ele>1155.8</ele></trkpt>
<trkpt lat="42.34423000" lon="1.53456000"><ele>1160.6</ele></trkpt>
<trkpt lat="42.34412000" lon="1.53455000"><ele>1162.1</ele></trkpt>
<trkpt lat="42.34372000" lon="1.53458000"><ele>1166.2</ele></trkpt>
<trkpt lat="42.34347000" lon="1.53462000"><ele>1171.6</ele></trkpt>
<trkpt lat="42.34341000" lon="1.53456000"><ele>1172.3</ele></trkpt>
<trkpt lat="42.34335000" lon="1.53446000"><ele>1173.6</ele></trkpt>
<trkpt lat="42.34332000" lon="1.53439000"><ele>1174.2</ele></trkpt>
<trkpt lat="42.34327000" lon="1.53414000"><ele>1175.2</ele></trkpt>
<trkpt lat="42.34321000" lon="1.53398000"><ele>1175.8</ele></trkpt>
<trkpt lat="42.34314000" lon="1.53391000"><ele>1176.2</ele></trkpt>
<trkpt lat="42.34303000" lon="1.53390000"><ele>1176.8</ele></trkpt>
<trkpt lat="42.34282000" lon="1.53398000"><ele>1178.5</ele></trkpt>
<trkpt lat="42.34274000" lon="1.53397000"><ele>1178.5</ele></trkpt>
<trkpt lat="42.34258000" lon="1.53390000"><ele>1183.4</ele></trkpt>
<trkpt lat="42.34250000" lon="1.53392000"><ele>1183.4</ele></trkpt>
<trkpt lat="42.34250000" lon="1.53400000"><ele>1183.9</ele></trkpt>
<trkpt lat="42.34256000" lon="1.53420000"><ele>1185.2</ele></trkpt>
<trkpt lat="42.34257000" lon="1.53431000"><ele>1185.9</ele></trkpt>
<trkpt lat="42.34254000" lon="1.53447000"><ele>1186.8</ele></trkpt>
<trkpt lat="42.34247000" lon="1.53467000"><ele>1187.6</ele></trkpt>
<trkpt lat="42.34242000" lon="1.53470000"><ele>1188.3</ele></trkpt>
<trkpt lat="42.34236000" lon="1.53463000"><ele>1188.7</ele></trkpt>
<trkpt lat="42.34228000" lon="1.53436000"><ele>1191.0</ele></trkpt>
<trkpt lat="42.34222000" lon="1.53430000"><ele>1192.0</ele></trkpt>
<trkpt lat="42.34215000" lon="1.53428000"><ele>1193.1</ele></trkpt>
<trkpt lat="42.34194000" lon="1.53435000"><ele>1195.9</ele></trkpt>
<trkpt lat="42.34174000" lon="1.53455000"><ele>1198.3</ele></trkpt>
<trkpt lat="42.34160000" lon="1.53462000"><ele>1199.1</ele></trkpt>
<trkpt lat="42.34121000" lon="1.53474000"><ele>1201.9</ele></trkpt>
<trkpt lat="42.34112000" lon="1.53481000"><ele>1202.1</ele></trkpt>
<trkpt lat="42.34101000" lon="1.53493000"><ele>1202.3</ele></trkpt>
<trkpt lat="42.34085000" lon="1.53518000"><ele>1203.5</ele></trkpt>
<trkpt lat="42.34077000" lon="1.53525000"><ele>1204.6</ele></trkpt>
<trkpt lat="42.33998000" lon="1.53534000"><ele>1210.6</ele></trkpt>
<trkpt lat="42.33955000" lon="1.53545000"><ele>1214.5</ele></trkpt>
<trkpt lat="42.33940000" lon="1.53541000"><ele>1215.6</ele></trkpt>
<trkpt lat="42.33946000" lon="1.53529000"><ele>1216.2</ele></trkpt>
<trkpt lat="42.33948000" lon="1.53516000"><ele>1216.5</ele></trkpt>
<trkpt lat="42.33938000" lon="1.53441000"><ele>1216.7</ele></trkpt>
<trkpt lat="42.33938000" lon="1.53389000"><ele>1216.6</ele></trkpt>
<trkpt lat="42.33941000" lon="1.53356000"><ele>1216.3</ele></trkpt>
<trkpt lat="42.33935000" lon="1.53309000"><ele>1215.2</ele></trkpt>
<trkpt lat="42.33935000" lon="1.53280000"><ele>1215.1</ele></trkpt>
<trkpt lat="42.33949000" lon="1.53204000"><ele>1217.4</ele></trkpt>
<trkpt lat="42.33953000" lon="1.53187000"><ele>1218.0</ele></trkpt>
<trkpt lat="42.33955000" lon="1.53163000"><ele>1218.3</ele></trkpt>
<trkpt lat="42.33952000" lon="1.53137000"><ele>1218.4</ele></trkpt>
<trkpt lat="42.33948000" lon="1.53122000"><ele>1218.2</ele></trkpt>
<trkpt lat="42.33937000" lon="1.53102000"><ele>1217.8</ele></trkpt>
<trkpt lat="42.33888000" lon="1.53033000"><ele>1213.4</ele></trkpt>
<trkpt lat="42.33880000" lon="1.53017000"><ele>1212.8</ele></trkpt>
<trkpt lat="42.33873000" lon="1.52991000"><ele>1211.8</ele></trkpt>
<trkpt lat="42.33872000" lon="1.52930000"><ele>1209.2</ele></trkpt>
<trkpt lat="42.33868000" lon="1.52855000"><ele>1208.3</ele></trkpt>
<trkpt lat="42.33870000" lon="1.52831000"><ele>1208.5</ele></trkpt>
<trkpt lat="42.33877000" lon="1.52790000"><ele>1207.9</ele></trkpt>
<trkpt lat="42.33876000" lon="1.52775000"><ele>1207.4</ele></trkpt>
<trkpt lat="42.33873000" lon="1.52763000"><ele>1206.4</ele></trkpt>
<trkpt lat="42.33868014" lon="1.52753028"><ele>1206.4</ele></trkpt>
<trkpt lat="42.33858000" lon="1.52745000"><ele>1204.8</ele></trkpt>
<trkpt lat="42.33845000" lon="1.52747000"><ele>1204.5</ele></trkpt>
<trkpt lat="42.33825000" lon="1.52737000"><ele>1204.5</ele></trkpt>
<trkpt lat="42.33812000" lon="1.52728000"><ele>1205.1</ele></trkpt>
<trkpt lat="42.33792000" lon="1.52698000"><ele>1207.3</ele></trkpt>
<trkpt lat="42.33781000" lon="1.52686000"><ele>1208.8</ele></trkpt>
<trkpt lat="42.33777000" lon="1.52677000"><ele>1208.8</ele></trkpt>
<trkpt lat="42.33774000" lon="1.52632000"><ele>1214.1</ele></trkpt>
<trkpt lat="42.33768000" lon="1.52611000"><ele>1215.6</ele></trkpt>
<trkpt lat="42.33759000" lon="1.52588000"><ele>1216.6</ele></trkpt>
<trkpt lat="42.33744000" lon="1.52566000"><ele>1218.5</ele></trkpt>
<trkpt lat="42.33686000" lon="1.52511000"><ele>1222.4</ele></trkpt>
<trkpt lat="42.33674000" lon="1.52504000"><ele>1224.8</ele></trkpt>
<trkpt lat="42.33657000" lon="1.52500000"><ele>1225.1</ele></trkpt>
<trkpt lat="42.33614000" lon="1.52503000"><ele>1228.7</ele></trkpt>
<trkpt lat="42.33534000" lon="1.52473000"><ele>1234.4</ele></trkpt>
<trkpt lat="42.33510000" lon="1.52461000"><ele>1238.5</ele></trkpt>
<trkpt lat="42.33491000" lon="1.52456000"><ele>1240.0</ele></trkpt>
<trkpt lat="42.33481000" lon="1.52457000"><ele>1241.7</ele></trkpt>
<trkpt lat="42.33471000" lon="1.52461000"><ele>1242.7</ele></trkpt>
<trkpt lat="42.33448000" lon="1.52484000"><ele>1244.4</ele></trkpt>
<trkpt lat="42.33447999" lon="1.52484003"><ele>1244.4</ele></trkpt>
<trkpt lat="42.33446999" lon="1.52488998"><ele>1238.3</ele></trkpt>
<trkpt lat="42.33432000" lon="1.52456000"><ele>1225.8</ele></trkpt>
<trkpt lat="42.33412000" lon="1.52484000"><ele>1230.8</ele></trkpt>
<trkpt lat="42.33380000" lon="1.52529000"><ele>1234.5</ele></trkpt>
<trkpt lat="42.33348000" lon="1.52552000"><ele>1230.7</ele></trkpt>
<trkpt lat="42.33303000" lon="1.52576000"><ele>1219.9</ele></trkpt>
<trkpt lat="42.33275000" lon="1.52599000"><ele>1217.0</ele></trkpt>
<trkpt lat="42.33254000" lon="1.52589000"><ele>1212.0</ele></trkpt>
<trkpt lat="42.33263000" lon="1.52534000"><ele>1208.4</ele></trkpt>
<trkpt lat="42.33261000" lon="1.52487000"><ele>1210.8</ele></trkpt>
<trkpt lat="42.33254000" lon="1.52439000"><ele>1217.9</ele></trkpt>
<trkpt lat="42.33240000" lon="1.52403000"><ele>1228.7</ele></trkpt>
<trkpt lat="42.33239000" lon="1.52367000"><ele>1230.9</ele></trkpt>
<trkpt lat="42.33253000" lon="1.52340000"><ele>1226.6</ele></trkpt>
<trkpt lat="42.33280000" lon="1.52302000"><ele>1216.4</ele></trkpt>
<trkpt lat="42.33297000" lon="1.52271000"><ele>1213.1</ele></trkpt>
<trkpt lat="42.33316000" lon="1.52195000"><ele>1207.6</ele></trkpt>
<trkpt lat="42.33333000" lon="1.52128000"><ele>1197.2</ele></trkpt>
<trkpt lat="42.33351000" lon="1.52084000"><ele>1190.9</ele></trkpt>
<trkpt lat="42.33352000" lon="1.52083000"><ele>1203.8</ele></trkpt>
<trkpt lat="42.33367000" lon="1.52060000"><ele>1201.2</ele></trkpt>
<trkpt lat="42.33390000" lon="1.52017000"><ele>1198.8</ele></trkpt>
<trkpt lat="42.33396000" lon="1.51995000"><ele>1197.0</ele></trkpt>
<trkpt lat="42.33417000" lon="1.51953000"><ele>1193.8</ele></trkpt>
<trkpt lat="42.33454000" lon="1.51903000"><ele>1186.7</ele></trkpt>
<trkpt lat="42.33471000" lon="1.51887000"><ele>1183.5</ele></trkpt>
<trkpt lat="42.33512000" lon="1.51803000"><ele>1174.3</ele></trkpt>
<trkpt lat="42.33518000" lon="1.51791000"><ele>1173.0</ele></trkpt>
<trkpt lat="42.33517000" lon="1.51711000"><ele>1166.8</ele></trkpt>
<trkpt lat="42.33533000" lon="1.51652000"><ele>1162.4</ele></trkpt>
<trkpt lat="42.33543000" lon="1.51597000"><ele>1156.5</ele></trkpt>
<trkpt lat="42.33543000" lon="1.51578000"><ele>1155.2</ele></trkpt>
<trkpt lat="42.33548000" lon="1.51538000"><ele>1153.8</ele></trkpt>
<trkpt lat="42.33552000" lon="1.51524000"><ele>1153.6</ele></trkpt>
<trkpt lat="42.33560000" lon="1.51528000"><ele>1152.5</ele></trkpt>
<trkpt lat="42.33597000" lon="1.51566000"><ele>1149.1</ele></trkpt>
<trkpt lat="42.33607000" lon="1.51574000"><ele>1148.0</ele></trkpt>
<trkpt lat="42.33621000" lon="1.51569000"><ele>1147.3</ele></trkpt>
<trkpt lat="42.33631000" lon="1.51555000"><ele>1146.2</ele></trkpt>
<trkpt lat="42.33648985" lon="1.51537015"><ele>1144.9</ele></trkpt>
<trkpt lat="42.33649000" lon="1.51531000"><ele>1144.9</ele></trkpt>
<trkpt lat="42.33687000" lon="1.51508000"><ele>1146.8</ele></trkpt>
<trkpt lat="42.33695000" lon="1.51507000"><ele>1147.5</ele></trkpt>
<trkpt lat="42.33705000" lon="1.51509000"><ele>1148.1</ele></trkpt>
<trkpt lat="42.33717000" lon="1.51515000"><ele>1150.0</ele></trkpt>
<trkpt lat="42.33729000" lon="1.51526000"><ele>1150.0</ele></trkpt>
<trkpt lat="42.33739000" lon="1.51539000"><ele>1151.0</ele></trkpt>
<trkpt lat="42.33749000" lon="1.51557000"><ele>1151.5</ele></trkpt>
<trkpt lat="42.33758000" lon="1.51594000"><ele>1150.7</ele></trkpt>
<trkpt lat="42.33761000" lon="1.51622000"><ele>1150.0</ele></trkpt>
<trkpt lat="42.33760000" lon="1.51641000"><ele>1148.9</ele></trkpt>
<trkpt lat="42.33755000" lon="1.51655000"><ele>1148.2</ele></trkpt>
<trkpt lat="42.33757982" lon="1.51661959"><ele>1147.5</ele></trkpt>
<trkpt lat="42.33758000" lon="1.51662000"><ele>1147.5</ele></trkpt>
<trkpt lat="42.33738000" lon="1.51721000"><ele>1140.0</ele></trkpt>
<trkpt lat="42.33729000" lon="1.51768000"><ele>1133.0</ele></trkpt>
<trkpt lat="42.33713000" lon="1.51812000"><ele>1127.2</ele></trkpt>
<trkpt lat="42.33707000" lon="1.51839000"><ele>1123.7</ele></trkpt>
<trkpt lat="42.33694000" lon="1.51874000"><ele>1120.9</ele></trkpt>
<trkpt lat="42.33671000" lon="1.51908000"><ele>1117.0</ele></trkpt>
<trkpt lat="42.33669000" lon="1.51916000"><ele>1115.5</ele></trkpt>
<trkpt lat="42.33662000" lon="1.51931000"><ele>1113.7</ele></trkpt>
<trkpt lat="42.33659000" lon="1.51956000"><ele>1109.4</ele></trkpt>
<trkpt lat="42.33661000" lon="1.51975000"><ele>1108.3</ele></trkpt>
<trkpt lat="42.33660000" lon="1.51974000"><ele>1108.3</ele></trkpt>
<trkpt lat="42.33680000" lon="1.51981000"><ele>1108.4</ele></trkpt>
<trkpt lat="42.33715000" lon="1.51986000"><ele>1110.3</ele></trkpt>
<trkpt lat="42.33789000" lon="1.51983000"><ele>1114.4</ele></trkpt>
<trkpt lat="42.33823000" lon="1.51979000"><ele>1116.5</ele></trkpt>
<trkpt lat="42.33851000" lon="1.51972000"><ele>1118.6</ele></trkpt>
<trkpt lat="42.33872000" lon="1.51975000"><ele>1120.7</ele></trkpt>
<trkpt lat="42.33896000" lon="1.51992000"><ele>1123.1</ele></trkpt>
<trkpt lat="42.33929000" lon="1.52030000"><ele>1124.7</ele></trkpt>
<trkpt lat="42.33948000" lon="1.52055000"><ele>1123.3</ele></trkpt>
<trkpt lat="42.33967000" lon="1.52057000"><ele>1122.5</ele></trkpt>
<trkpt lat="42.33967037" lon="1.52057040"><ele>1122.5</ele></trkpt>
<trkpt lat="42.33960000" lon="1.52035000"><ele>1121.9</ele></trkpt>
<trkpt lat="42.33992000" lon="1.52013000"><ele>1114.5</ele></trkpt>
<trkpt lat="42.34022000" lon="1.51970000"><ele>1096.9</ele></trkpt>
<trkpt lat="42.34045000" lon="1.51944000"><ele>1083.2</ele></trkpt>
<trkpt lat="42.34067000" lon="1.51951000"><ele>1077.0</ele></trkpt>
<trkpt lat="42.34083000" lon="1.51978000"><ele>1076.2</ele></trkpt>
<trkpt lat="42.34091000" lon="1.51952000"><ele>1068.1</ele></trkpt>
<trkpt lat="42.34095000" lon="1.51922000"><ele>1062.0</ele></trkpt>
<trkpt lat="42.34094000" lon="1.51882000"><ele>1053.6</ele></trkpt>
<trkpt lat="42.34126000" lon="1.51883000"><ele>1048.4</ele></trkpt>
<trkpt lat="42.34138000" lon="1.51907000"><ele>1051.5</ele></trkpt>
<trkpt lat="42.34153000" lon="1.51894000"><ele>1047.7</ele></trkpt>
<trkpt lat="42.34179000" lon="1.51876000"><ele>1041.8</ele></trkpt>
<trkpt lat="42.34204000" lon="1.51878000"><ele>1039.2</ele></trkpt>
<trkpt lat="42.34228000" lon="1.51894000"><ele>1035.6</ele></trkpt>
<trkpt lat="42.34248000" lon="1.51882000"><ele>1028.2</ele></trkpt>
<trkpt lat="42.34257000" lon="1.51822000"><ele>1015.8</ele></trkpt>
<trkpt lat="42.34254000" lon="1.51780000"><ele>1008.0</ele></trkpt>
<trkpt lat="42.34246000" lon="1.51746000"><ele>1001.3</ele></trkpt>
<trkpt lat="42.34236000" lon="1.51715000"><ele>994.4</ele></trkpt>
<trkpt lat="42.34255000" lon="1.51692000"><ele>984.5</ele></trkpt>
<trkpt lat="42.34297000" lon="1.51705000"><ele>981.2</ele></trkpt>
<trkpt lat="42.34322000" lon="1.51720000"><ele>980.4</ele></trkpt>
<trkpt lat="42.34350000" lon="1.51732000"><ele>976.7</ele></trkpt>
<trkpt lat="42.34338000" lon="1.51698000"><ele>972.5</ele></trkpt>
<trkpt lat="42.34318000" lon="1.51670000"><ele>969.6</ele></trkpt>
<trkpt lat="42.34286000" lon="1.51651000"><ele>970.3</ele></trkpt>
<trkpt lat="42.34270000" lon="1.51612000"><ele>962.8</ele></trkpt>
<trkpt lat="42.34257000" lon="1.51580000"><ele>956.4</ele></trkpt>
<trkpt lat="42.34283000" lon="1.51577000"><ele>953.2</ele></trkpt>
<trkpt lat="42.34322000" lon="1.51564000"><ele>949.2</ele></trkpt>
<trkpt lat="42.34349000" lon="1.51519000"><ele>944.6</ele></trkpt>
<trkpt lat="42.34369000" lon="1.51484000"><ele>941.7</ele></trkpt>
<trkpt lat="42.34395000" lon="1.51471000"><ele>938.2</ele></trkpt>
<trkpt lat="42.34418000" lon="1.51467000"><ele>933.9</ele></trkpt>
<trkpt lat="42.34441000" lon="1.51438000"><ele>928.6</ele></trkpt>
<trkpt lat="42.34470000" lon="1.51428000"><ele>922.0</ele></trkpt>
<trkpt lat="42.34492000" lon="1.51395000"><ele>915.3</ele></trkpt>
<trkpt lat="42.34547000" lon="1.51368000"><ele>897.6</ele></trkpt>
<trkpt lat="42.34570000" lon="1.51339000"><ele>890.0</ele></trkpt>
<trkpt lat="42.34595000" lon="1.51351000"><ele>884.1</ele></trkpt>
<trkpt lat="42.34616000" lon="1.51341000"><ele>879.2</ele></trkpt>
<trkpt lat="42.34629000" lon="1.51331000"><ele>875.6</ele></trkpt>
<trkpt lat="42.34638000" lon="1.51318000"><ele>872.5</ele></trkpt>
<trkpt lat="42.34643000" lon="1.51308000"><ele>870.6</ele></trkpt>
<trkpt lat="42.34632000" lon="1.51287000"><ele>871.6</ele></trkpt>
<trkpt lat="42.34614000" lon="1.51233000"><ele>870.7</ele></trkpt>
<trkpt lat="42.34598000" lon="1.51197000"><ele>873.1</ele></trkpt>
<trkpt lat="42.34590000" lon="1.51164000"><ele>873.3</ele></trkpt>
<trkpt lat="42.34605000" lon="1.51110000"><ele>867.7</ele></trkpt>
<trkpt lat="42.34623000" lon="1.51067000"><ele>862.5</ele></trkpt>
<trkpt lat="42.34636000" lon="1.51018000"><ele>859.6</ele></trkpt>
<trkpt lat="42.34643000" lon="1.50995000"><ele>858.6</ele></trkpt>
<trkpt lat="42.34636000" lon="1.50983000"><ele>860.6</ele></trkpt>
<trkpt lat="42.34640000" lon="1.50957000"><ele>858.6</ele></trkpt>
<trkpt lat="42.34639000" lon="1.50926000"><ele>859.0</ele></trkpt>
<trkpt lat="42.34613000" lon="1.50872000"><ele>859.0</ele></trkpt>
<trkpt lat="42.34604000" lon="1.50847000"><ele>860.1</ele></trkpt>
<trkpt lat="42.34604000" lon="1.50827000"><ele>861.9</ele></trkpt>
<trkpt lat="42.34608000" lon="1.50818000"><ele>862.2</ele></trkpt>
<trkpt lat="42.34613000" lon="1.50816000"><ele>862.2</ele></trkpt>
<trkpt lat="42.34620000" lon="1.50792000"><ele>861.4</ele></trkpt>
<trkpt lat="42.34620000" lon="1.50778000"><ele>861.2</ele></trkpt>
<trkpt lat="42.34605000" lon="1.50679000"><ele>861.8</ele></trkpt>
<trkpt lat="42.34614000" lon="1.50649000"><ele>861.1</ele></trkpt>
<trkpt lat="42.34615000" lon="1.50622000"><ele>862.4</ele></trkpt>
<trkpt lat="42.34612000" lon="1.50607000"><ele>863.0</ele></trkpt>
<trkpt lat="42.34603000" lon="1.50595000"><ele>865.8</ele></trkpt>
<trkpt lat="42.34593000" lon="1.50592000"><ele>866.9</ele></trkpt>
<trkpt lat="42.34585000" lon="1.50582000"><ele>868.3</ele></trkpt>
<trkpt lat="42.34558000" lon="1.50508000"><ele>871.8</ele></trkpt>
<trkpt lat="42.34560000" lon="1.50499000"><ele>871.8</ele></trkpt>
<trkpt lat="42.34615000" lon="1.50481000"><ele>868.7</ele></trkpt>
<trkpt lat="42.34621000" lon="1.50473000"><ele>868.0</ele></trkpt>
<trkpt lat="42.34630000" lon="1.50443000"><ele>865.7</ele></trkpt>
<trkpt lat="42.34639000" lon="1.50396000"><ele>862.3</ele></trkpt>
<trkpt lat="42.34648000" lon="1.50374000"><ele>860.6</ele></trkpt>
<trkpt lat="42.34669000" lon="1.50342000"><ele>858.1</ele></trkpt>
<trkpt lat="42.34671000" lon="1.50331000"><ele>858.1</ele></trkpt>
<trkpt lat="42.34671000" lon="1.50307000"><ele>852.8</ele></trkpt>
<trkpt lat="42.34668000" lon="1.50297000"><ele>852.8</ele></trkpt>
<trkpt lat="42.34663000" lon="1.50291000"><ele>852.8</ele></trkpt>
<trkpt lat="42.34630000" lon="1.50291000"><ele>850.0</ele></trkpt>
<trkpt lat="42.34557000" lon="1.50278000"><ele>843.3</ele></trkpt>
<trkpt lat="42.34542000" lon="1.50271000"><ele>842.3</ele></trkpt>
<trkpt lat="42.34513000" lon="1.50249000"><ele>838.4</ele></trkpt>
<trkpt lat="42.34502000" lon="1.50237000"><ele>837.5</ele></trkpt>
<trkpt lat="42.34489000" lon="1.50230000"><ele>836.5</ele></trkpt>
<trkpt lat="42.34487000" lon="1.50222000"><ele>836.1</ele></trkpt>
<trkpt lat="42.34492000" lon="1.50216000"><ele>835.0</ele></trkpt>
<trkpt lat="42.34557000" lon="1.50230000"><ele>827.5</ele></trkpt>
<trkpt lat="42.34568000" lon="1.50229000"><ele>827.1</ele></trkpt>
<trkpt lat="42.34575000" lon="1.50219000"><ele>825.0</ele></trkpt>
<trkpt lat="42.34594000" lon="1.50212000"><ele>823.5</ele></trkpt>
<trkpt lat="42.34614000" lon="1.50211000"><ele>822.8</ele></trkpt>
<trkpt lat="42.34630000" lon="1.50214000"><ele>821.5</ele></trkpt>
<trkpt lat="42.34650000" lon="1.50224000"><ele>820.8</ele></trkpt>
<trkpt lat="42.34666000" lon="1.50229000"><ele>820.2</ele></trkpt>
<trkpt lat="42.34692000" lon="1.50216000"><ele>817.0</ele></trkpt>
<trkpt lat="42.34702000" lon="1.50209000"><ele>816.4</ele></trkpt>
<trkpt lat="42.34704000" lon="1.50202000"><ele>814.3</ele></trkpt>
<trkpt lat="42.34678000" lon="1.50128000"><ele>808.0</ele></trkpt>
<trkpt lat="42.34680000" lon="1.50107000"><ele>804.9</ele></trkpt>
<trkpt lat="42.34688000" lon="1.50102000"><ele>802.7</ele></trkpt>
<trkpt lat="42.34768000" lon="1.50115000"><ele>796.6</ele></trkpt>
<trkpt lat="42.34784000" lon="1.50126000"><ele>794.4</ele></trkpt>
<trkpt lat="42.34827000" lon="1.50202000"><ele>783.2</ele></trkpt>
<trkpt lat="42.34842000" lon="1.50221000"><ele>782.3</ele></trkpt>
<trkpt lat="42.34849000" lon="1.50232000"><ele>781.0</ele></trkpt>
<trkpt lat="42.34848000" lon="1.50222000"><ele>780.4</ele></trkpt>
<trkpt lat="42.34859000" lon="1.50252000"></trkpt>
<trkpt lat="42.34859000" lon="1.50252000"><ele>780.1</ele></trkpt>
<trkpt lat="42.34872000" lon="1.50261000"><ele>779.3</ele></trkpt>
<trkpt lat="42.34893000" lon="1.50267000"><ele>776.6</ele></trkpt>
<trkpt lat="42.34905000" lon="1.50280000"><ele>775.4</ele></trkpt>
<trkpt lat="42.34926000" lon="1.50288000"><ele>771.9</ele></trkpt>
<trkpt lat="42.34989000" lon="1.50351000"><ele>765.3</ele></trkpt>
<trkpt lat="42.35013000" lon="1.50387000"><ele>765.8</ele></trkpt>
<trkpt lat="42.35029000" lon="1.50441000"><ele>766.9</ele></trkpt>
<trkpt lat="42.35039000" lon="1.50503000"><ele>766.5</ele></trkpt>
<trkpt lat="42.35040000" lon="1.50554000"><ele>766.3</ele></trkpt>
<trkpt lat="42.35047000" lon="1.50574000"><ele>765.5</ele></trkpt>
<trkpt lat="42.35075000" lon="1.50613000"><ele>765.2</ele></trkpt>
<trkpt lat="42.35075016" lon="1.50613006"><ele>765.2</ele></trkpt>
<trkpt lat="42.35071000" lon="1.50608000"><ele>765.2</ele></trkpt>
<trkpt lat="42.35075000" lon="1.50613000"><ele>765.2</ele></trkpt>
<trkpt lat="42.35089000" lon="1.50618000"><ele>764.1</ele></trkpt>
<trkpt lat="42.35112000" lon="1.50637000"><ele>761.2</ele></trkpt>
<trkpt lat="42.35128000" lon="1.50661000"><ele>759.4</ele></trkpt>
<trkpt lat="42.35134000" lon="1.50704000"><ele>765.8</ele></trkpt>
<trkpt lat="42.35136000" lon="1.50747000"><ele>766.7</ele></trkpt>
<trkpt lat="42.35154000" lon="1.50769000"><ele>765.4</ele></trkpt>
<trkpt lat="42.35176000" lon="1.50812000"><ele>763.6</ele></trkpt>
<trkpt lat="42.35173000" lon="1.50813000"><ele>765.6</ele></trkpt>
<trkpt lat="42.35142000" lon="1.50826000"><ele>768.3</ele></trkpt>
</trkseg></trk></gpx>