<?xml version="1.0" encoding="UTF-8"?>
<gpx version="1.1" creator="Xarxa de Corriols d'Alàs i Cerc - Punt 4" xmlns="http://www.topografix.com/GPX/1/1">
<metadata><name>Volta 8 - 20 km - NE - ~1000 m - candidata</name></metadata><trk><name>Volta 8 - 20 km - NE - ~1000 m - candidata</name><trkseg>
<trkpt lat="42.35133841" lon="1.50832496"><ele>768.5</ele></trkpt>
<trkpt lat="42.35104000" lon="1.50867000"><ele>770.8</ele></trkpt>
<trkpt lat="42.35074000" lon="1.50920000"><ele>772.9</ele></trkpt>
<trkpt lat="42.35072000" lon="1.50928000"><ele>772.9</ele></trkpt>
<trkpt lat="42.35082000" lon="1.50960000"><ele>778.0</ele></trkpt>
<trkpt lat="42.35082000" lon="1.50975000"><ele>778.0</ele></trkpt>
<trkpt lat="42.35076000" lon="1.50988000"><ele>779.0</ele></trkpt>
<trkpt lat="42.35063011" lon="1.50982005"><ele>781.1</ele></trkpt>
<trkpt lat="42.35063000" lon="1.50982000"><ele>781.1</ele></trkpt>
<trkpt lat="42.35047000" lon="1.50981000"><ele>784.4</ele></trkpt>
<trkpt lat="42.35037000" lon="1.50987000"><ele>787.6</ele></trkpt>
<trkpt lat="42.35033003" lon="1.50969012"><ele>790.0</ele></trkpt>
<trkpt lat="42.35037000" lon="1.50987000"><ele>787.6</ele></trkpt>
<trkpt lat="42.35031000" lon="1.51023000"><ele>788.6</ele></trkpt>
<trkpt lat="42.35002000" lon="1.51082000"><ele>792.7</ele></trkpt>
<trkpt lat="42.34982000" lon="1.51138000"><ele>791.4</ele></trkpt>
<trkpt lat="42.34983000" lon="1.51146000"><ele>791.2</ele></trkpt>
<trkpt lat="42.34987000" lon="1.51151000"><ele>790.5</ele></trkpt>
<trkpt lat="42.34999000" lon="1.51147000"><ele>789.3</ele></trkpt>
<trkpt lat="42.35009000" lon="1.51138000"><ele>788.5</ele></trkpt>
<trkpt lat="42.35010005" lon="1.51121986"><ele>788.5</ele></trkpt>
<trkpt lat="42.35010000" lon="1.51122000"><ele>788.5</ele></trkpt>
<trkpt lat="42.35010000" lon="1.51144000"><ele>788.5</ele></trkpt>
<trkpt lat="42.35021000" lon="1.51161000"><ele>789.9</ele></trkpt>
<trkpt lat="42.35033000" lon="1.51169000"><ele>791.7</ele></trkpt>
<trkpt lat="42.35094000" lon="1.51170000"><ele>795.5</ele></trkpt>
<trkpt lat="42.35108000" lon="1.51182000"><ele>796.5</ele></trkpt>
<trkpt lat="42.35119000" lon="1.51196000"><ele>797.1</ele></trkpt>
<trkpt lat="42.35121000" lon="1.51202000"><ele>797.4</ele></trkpt>
<trkpt lat="42.35120000" lon="1.51210000"><ele>798.2</ele></trkpt>
<trkpt lat="42.35111000" lon="1.51224000"><ele>799.1</ele></trkpt>
<trkpt lat="42.35078000" lon="1.51249000"><ele>803.7</ele></trkpt>
<trkpt lat="42.35065009" lon="1.51264989"><ele>804.6</ele></trkpt>
<trkpt lat="42.35063000" lon="1.51285000"><ele>806.4</ele></trkpt>
<trkpt lat="42.35063000" lon="1.51290000"><ele>806.4</ele></trkpt>
<trkpt lat="42.35069000" lon="1.51297000"><ele>807.8</ele></trkpt>
<trkpt lat="42.35154000" lon="1.51314000"><ele>814.4</ele></trkpt>
<trkpt lat="42.35211000" lon="1.51312000"><ele>818.9</ele></trkpt>
<trkpt lat="42.35225000" lon="1.51315000"><ele>819.6</ele></trkpt>
<trkpt lat="42.35248000" lon="1.51330000"><ele>821.8</ele></trkpt>
<trkpt lat="42.35262000" lon="1.51346000"><ele>823.7</ele></trkpt>
<trkpt lat="42.35282000" lon="1.51386000"><ele>828.5</ele></trkpt>
<trkpt lat="42.35290000" lon="1.51394000"><ele>828.5</ele></trkpt>
<trkpt lat="42.35296000" lon="1.51405000"><ele>829.5</ele></trkpt>
<trkpt lat="42.35297000" lon="1.51417000"><ele>830.4</ele></trkpt>
<trkpt lat="42.35291000" lon="1.51423000"><ele>831.2</ele></trkpt>
<trkpt lat="42.35289000" lon="1.51426000"><ele>831.2</ele></trkpt>
<trkpt lat="42.35283000" lon="1.51427000"><ele>832.8</ele></trkpt>
<trkpt lat="42.35276000" lon="1.51424000"><ele>832.8</ele></trkpt>
<trkpt lat="42.35260000" lon="1.51404000"><ele>834.6</ele></trkpt>
<trkpt lat="42.35232000" lon="1.51385000"><ele>836.1</ele></trkpt>
<trkpt lat="42.35238988" lon="1.51364010"><ele>828.5</ele></trkpt>
<trkpt lat="42.35233000" lon="1.51369000"><ele>836.1</ele></trkpt>
<trkpt lat="42.35232000" lon="1.51385000"><ele>836.1</ele></trkpt>
<trkpt lat="42.35235000" lon="1.51410000"><ele>839.5</ele></trkpt>
<trkpt lat="42.35234000" lon="1.51415000"><ele>840.2</ele></trkpt>
<trkpt lat="42.35239000" lon="1.51431000"><ele>842.3</ele></trkpt>
<trkpt lat="42.35236000" lon="1.51442000"><ele>843.0</ele></trkpt>
<trkpt lat="42.35221000" lon="1.51464000"><ele>847.9</ele></trkpt>
<trkpt lat="42.35210000" lon="1.51471000"><ele>850.5</ele></trkpt>
<trkpt lat="42.35207000" lon="1.51478000"><ele>851.4</ele></trkpt>
<trkpt lat="42.35204000" lon="1.51480000"><ele>851.4</ele></trkpt>
<trkpt lat="42.35192000" lon="1.51496000"><ele>854.1</ele></trkpt>
<trkpt lat="42.35181000" lon="1.51504000"><ele>856.5</ele></trkpt>
<trkpt lat="42.35189000" lon="1.51473000"><ele>859.5</ele></trkpt>
<trkpt lat="42.35185000" lon="1.51465000"><ele>860.5</ele></trkpt>
<trkpt lat="42.35180000" lon="1.51464000"><ele>860.5</ele></trkpt>
<trkpt lat="42.35153000" lon="1.51516000"><ele>864.8</ele></trkpt>
<trkpt lat="42.35141000" lon="1.51526000"><ele>865.6</ele></trkpt>
<trkpt lat="42.35126000" lon="1.51550000"><ele>867.1</ele></trkpt>
<trkpt lat="42.35125989" lon="1.51550007"><ele>867.1</ele></trkpt>
<trkpt lat="42.35113000" lon="1.51558000"><ele>869.8</ele></trkpt>
<trkpt lat="42.35122000" lon="1.51622000"><ele>872.6</ele></trkpt>
<trkpt lat="42.35125000" lon="1.51674000"><ele>877.3</ele></trkpt>
<trkpt lat="42.35134000" lon="1.51679000"><ele>878.0</ele></trkpt>
<trkpt lat="42.35161000" lon="1.51671000"><ele>881.7</ele></trkpt>
<trkpt lat="42.35200000" lon="1.51703000"><ele>883.3</ele></trkpt>
<trkpt lat="42.35208000" lon="1.51730000"><ele>890.0</ele></trkpt>
<trkpt lat="42.35190000" lon="1.51784000"><ele>903.2</ele></trkpt>
<trkpt lat="42.35159000" lon="1.51791000"><ele>904.3</ele></trkpt>
<trkpt lat="42.35126000" lon="1.51815000"><ele>905.8</ele></trkpt>
<trkpt lat="42.35079000" lon="1.51817000"><ele>908.7</ele></trkpt>
<trkpt lat="42.35071000" lon="1.51818000"><ele>909.0</ele></trkpt>
<trkpt lat="42.35047000" lon="1.51865000"><ele>913.9</ele></trkpt>
<trkpt lat="42.35025000" lon="1.51897000"><ele>916.1</ele></trkpt>
<trkpt lat="42.34978000" lon="1.51988000"><ele>922.8</ele></trkpt>
<trkpt lat="42.34978835" lon="1.52013064"><ele>924.3</ele></trkpt>
<trkpt lat="42.34997000" lon="1.52027000"><ele>926.9</ele></trkpt>
<trkpt lat="42.35001316" lon="1.52035200"><ele>926.0</ele></trkpt>
<trkpt lat="42.34988000" lon="1.52048000"><ele>929.3</ele></trkpt>
<trkpt lat="42.34972000" lon="1.52056000"><ele>931.9</ele></trkpt>
<trkpt lat="42.34969000" lon="1.52072000"><ele>933.7</ele></trkpt>
<trkpt lat="42.34968000" lon="1.52095000"><ele>934.6</ele></trkpt>
<trkpt lat="42.34961000" lon="1.52113000"><ele>936.1</ele></trkpt>
<trkpt lat="42.34954000" lon="1.52090000"><ele>936.3</ele></trkpt>
<trkpt lat="42.34943000" lon="1.52061000"><ele>937.1</ele></trkpt>
<trkpt lat="42.34935000" lon="1.52075000"><ele>938.8</ele></trkpt>
<trkpt lat="42.34921000" lon="1.52089000"><ele>942.0</ele></trkpt>
<trkpt lat="42.34888000" lon="1.52111000"><ele>950.8</ele></trkpt>
<trkpt lat="42.34867000" lon="1.52112000"><ele>957.0</ele></trkpt>
<trkpt lat="42.34864000" lon="1.52150000"><ele>960.9</ele></trkpt>
<trkpt lat="42.34850000" lon="1.52162000"><ele>966.0</ele></trkpt>
<trkpt lat="42.34839000" lon="1.52186000"><ele>972.1</ele></trkpt>
<trkpt lat="42.34841000" lon="1.52217000"><ele>975.4</ele></trkpt>
<trkpt lat="42.34839000" lon="1.52259000"><ele>979.1</ele></trkpt>
<trkpt lat="42.34836000" lon="1.52296000"><ele>982.9</ele></trkpt>
<trkpt lat="42.34841009" lon="1.52291998"><ele>980.6</ele></trkpt>
<trkpt lat="42.34865000" lon="1.52287000"><ele>971.9</ele></trkpt>
<trkpt lat="42.34883000" lon="1.52279000"><ele>966.5</ele></trkpt>
<trkpt lat="42.34890000" lon="1.52284000"><ele>963.4</ele></trkpt>
<trkpt lat="42.34901000" lon="1.52291000"><ele>960.4</ele></trkpt>
<trkpt lat="42.34910000" lon="1.52290000"><ele>957.5</ele></trkpt>
<trkpt lat="42.34914000" lon="1.52304000"><ele>956.5</ele></trkpt>
<trkpt lat="42.34922000" lon="1.52305000"><ele>952.9</ele></trkpt>
<trkpt lat="42.34928000" lon="1.52310000"><ele>952.0</ele></trkpt>
<trkpt lat="42.34937000" lon="1.52309000"><ele>947.4</ele></trkpt>
<trkpt lat="42.34947000" lon="1.52319000"><ele>943.5</ele></trkpt>
<trkpt lat="42.34952000" lon="1.52325000"><ele>942.4</ele></trkpt>
<trkpt lat="42.34957000" lon="1.52323000"><ele>939.8</ele></trkpt>
<trkpt lat="42.34963987" lon="1.52335970"><ele>944.8</ele></trkpt>
<trkpt lat="42.34956000" lon="1.52318000"><ele>943.9</ele></trkpt>
<trkpt lat="42.34964000" lon="1.52336000"><ele>944.8</ele></trkpt>
<trkpt lat="42.34936000" lon="1.52406000"><ele>945.5</ele></trkpt>
<trkpt lat="42.34921000" lon="1.52436000"><ele>945.7</ele></trkpt>
<trkpt lat="42.34906000" lon="1.52453000"><ele>946.0</ele></trkpt>
<trkpt lat="42.34899000" lon="1.52466000"><ele>946.5</ele></trkpt>
<trkpt lat="42.34929993" lon="1.52491994"><ele>949.9</ele></trkpt>
<trkpt lat="42.34937000" lon="1.52502000"><ele>950.9</ele></trkpt>
<trkpt lat="42.34925000" lon="1.52545000"><ele>956.4</ele></trkpt>
<trkpt lat="42.34930000" lon="1.52581000"><ele>960.7</ele></trkpt>
<trkpt lat="42.34922000" lon="1.52625000"><ele>965.2</ele></trkpt>
<trkpt lat="42.34920000" lon="1.52677000"><ele>975.9</ele></trkpt>
<trkpt lat="42.34927000" lon="1.52733000"><ele>982.7</ele></trkpt>
<trkpt lat="42.34939000" lon="1.52785000"><ele>994.0</ele></trkpt>
<trkpt lat="42.34942000" lon="1.52816000"><ele>1003.7</ele></trkpt>
<trkpt lat="42.34951000" lon="1.52847000"><ele>1007.7</ele></trkpt>
<trkpt lat="42.34972000" lon="1.52884000"><ele>1017.5</ele></trkpt>
<trkpt lat="42.34978000" lon="1.52913000"><ele>1024.1</ele></trkpt>
<trkpt lat="42.34975000" lon="1.52930000"><ele>1027.8</ele></trkpt>
<trkpt lat="42.34976000" lon="1.52958000"><ele>1034.8</ele></trkpt>
<trkpt lat="42.34959000" lon="1.52986000"><ele>1036.8</ele></trkpt>
<trkpt lat="42.34914000" lon="1.53021000"><ele>1050.9</ele></trkpt>
<trkpt lat="42.34913997" lon="1.53021001"><ele>1050.9</ele></trkpt>
<trkpt lat="42.34897000" lon="1.53025000"><ele>1053.3</ele></trkpt>
<trkpt lat="42.34915000" lon="1.53064000"><ele>1044.8</ele></trkpt>
<trkpt lat="42.34913000" lon="1.53068000"><ele>1043.4</ele></trkpt>
<trkpt lat="42.34898000" lon="1.53125000"><ele>1038.2</ele></trkpt>
<trkpt lat="42.34910000" lon="1.53210000"><ele>1033.0</ele></trkpt>
<trkpt lat="42.34910000" lon="1.53211000"><ele>1032.9</ele></trkpt>
<trkpt lat="42.34948000" lon="1.53241000"><ele>1023.2</ele></trkpt>
<trkpt lat="42.34920000" lon="1.53279000"><ele>1017.8</ele></trkpt>
<trkpt lat="42.34961000" lon="1.53296000"><ele>1014.0</ele></trkpt>
<trkpt lat="42.34978000" lon="1.53320000"><ele>1011.5</ele></trkpt>
<trkpt lat="42.34978000" lon="1.53319000"><ele>1011.7</ele></trkpt>
<trkpt lat="42.35012000" lon="1.53367000"><ele>1004.6</ele></trkpt>
<trkpt lat="42.35016000" lon="1.53385000"><ele>1002.7</ele></trkpt>
<trkpt lat="42.35008000" lon="1.53416000"><ele>998.9</ele></trkpt>
<trkpt lat="42.35039000" lon="1.53389000"><ele>993.5</ele></trkpt>
<trkpt lat="42.35037000" lon="1.53338000"><ele>985.6</ele></trkpt>
<trkpt lat="42.35037000" lon="1.53337000"><ele>985.7</ele></trkpt>
<trkpt lat="42.35043000" lon="1.53340000"><ele>983.8</ele></trkpt>
<trkpt lat="42.35069000" lon="1.53363000"><ele>978.4</ele></trkpt>
<trkpt lat="42.35078000" lon="1.53385000"><ele>975.3</ele></trkpt>
<trkpt lat="42.35076000" lon="1.53388000"><ele>974.2</ele></trkpt>
<trkpt lat="42.35077000" lon="1.53385000"><ele>974.8</ele></trkpt>
<trkpt lat="42.35046000" lon="1.53459000"><ele>965.9</ele></trkpt>
<trkpt lat="42.35005000" lon="1.53528500"><ele>958.1</ele></trkpt>
<trkpt lat="42.34964000" lon="1.53598000"><ele>951.5</ele></trkpt>
<trkpt lat="42.34980000" lon="1.53686000"><ele>940.9</ele></trkpt>
<trkpt lat="42.34975000" lon="1.53716000"><ele>940.9</ele></trkpt>
<trkpt lat="42.34952000" lon="1.53730000"><ele>944.7</ele></trkpt>
<trkpt lat="42.34918000" lon="1.53743000"><ele>948.1</ele></trkpt>
<trkpt lat="42.34901000" lon="1.53790000"><ele>936.1</ele></trkpt>
<trkpt lat="42.34922000" lon="1.53790000"><ele>938.5</ele></trkpt>
<trkpt lat="42.34969000" lon="1.53804000"><ele>944.8</ele></trkpt>
<trkpt lat="42.34993000" lon="1.53798000"><ele>946.8</ele></trkpt>
<trkpt lat="42.35036000" lon="1.53818000"><ele>950.3</ele></trkpt>
<trkpt lat="42.35070000" lon="1.53823000"><ele>952.3</ele></trkpt>
<trkpt lat="42.35083000" lon="1.53844000"><ele>957.3</ele></trkpt>
<trkpt lat="42.35081000" lon="1.53844000"><ele>958.4</ele></trkpt>
<trkpt lat="42.35050000" lon="1.53872000"><ele>965.4</ele></trkpt>
<trkpt lat="42.35022000" lon="1.53858000"><ele>970.2</ele></trkpt>
<trkpt lat="42.34983000" lon="1.53846000"><ele>970.1</ele></trkpt>
<trkpt lat="42.34950000" lon="1.53880000"><ele>982.5</ele></trkpt>
<trkpt lat="42.34921000" lon="1.53899000"><ele>995.0</ele></trkpt>
<trkpt lat="42.34897000" lon="1.53886000"><ele>995.4</ele></trkpt>
<trkpt lat="42.34865000" lon="1.53897000"><ele>1010.2</ele></trkpt>
<trkpt lat="42.34824000" lon="1.53886000"><ele>1025.3</ele></trkpt>
<trkpt lat="42.34796000" lon="1.53884000"><ele>1038.6</ele></trkpt>
<trkpt lat="42.34777000" lon="1.53856000"><ele>1041.4</ele></trkpt>
<trkpt lat="42.34763000" lon="1.53827000"><ele>1040.5</ele></trkpt>
<trkpt lat="42.34743000" lon="1.53809000"><ele>1046.8</ele></trkpt>
<trkpt lat="42.34752000" lon="1.53796000"><ele>1039.0</ele></trkpt>
<trkpt lat="42.34759000" lon="1.53766000"><ele>1033.4</ele></trkpt>
<trkpt lat="42.34743000" lon="1.53745000"><ele>1042.5</ele></trkpt>
<trkpt lat="42.34716000" lon="1.53718000"><ele>1059.1</ele></trkpt>
<trkpt lat="42.34697000" lon="1.53714000"><ele>1064.6</ele></trkpt>
<trkpt lat="42.34669000" lon="1.53713000"><ele>1072.3</ele></trkpt>
<trkpt lat="42.34675000" lon="1.53692000"><ele>1075.7</ele></trkpt>
<trkpt lat="42.34685000" lon="1.53685000"><ele>1077.0</ele></trkpt>
<trkpt lat="42.34676000" lon="1.53670000"><ele>1084.4</ele></trkpt>
<trkpt lat="42.34688000" lon="1.53650000"><ele>1089.3</ele></trkpt>
<trkpt lat="42.34699000" lon="1.53635000"><ele>1094.5</ele></trkpt>
<trkpt lat="42.34690000" lon="1.53619000"><ele>1101.4</ele></trkpt>
<trkpt lat="42.34679000" lon="1.53608000"><ele>1105.0</ele></trkpt>
<trkpt lat="42.34640000" lon="1.53620000"><ele>1106.7</ele></trkpt>
<trkpt lat="42.34621000" lon="1.53628000"><ele>1108.4</ele></trkpt>
<trkpt lat="42.34599000" lon="1.53640000"><ele>1110.0</ele></trkpt>
<trkpt lat="42.34574000" lon="1.53664000"><ele>1113.0</ele></trkpt>
<trkpt lat="42.34554000" lon="1.53671000"><ele>1113.8</ele></trkpt>
<trkpt lat="42.34523000" lon="1.53675000"><ele>1111.9</ele></trkpt>
<trkpt lat="42.34466000" lon="1.53675000"><ele>1104.3</ele></trkpt>
<trkpt lat="42.34431000" lon="1.53686000"><ele>1099.2</ele></trkpt>
<trkpt lat="42.34400000" lon="1.53702000"><ele>1096.0</ele></trkpt>
<trkpt lat="42.34367000" lon="1.53724000"><ele>1092.7</ele></trkpt>
<trkpt lat="42.34404000" lon="1.53673000"><ele>1104.0</ele></trkpt>
<trkpt lat="42.34448000" lon="1.53640000"><ele>1111.8</ele></trkpt>
<trkpt lat="42.34486000" lon="1.53603000"><ele>1120.6</ele></trkpt>
<trkpt lat="42.34502000" lon="1.53583000"><ele>1124.0</ele></trkpt>
<trkpt lat="42.34519000" lon="1.53572000"><ele>1125.9</ele></trkpt>
<trkpt lat="42.34545000" lon="1.53565000"><ele>1130.3</ele></trkpt>
<trkpt lat="42.34563000" lon="1.53556000"><ele>1132.5</ele></trkpt>
<trkpt lat="42.34594000" lon="1.53534000"><ele>1135.5</ele></trkpt>
<trkpt lat="42.34603000" lon="1.53519000"><ele>1138.4</ele></trkpt>
<trkpt lat="42.34602000" lon="1.53517000"><ele>1138.4</ele></trkpt>
<trkpt lat="42.34622000" lon="1.53522000"><ele>1126.6</ele></trkpt>
<trkpt lat="42.34638000" lon="1.53520000"><ele>1125.1</ele></trkpt>
<trkpt lat="42.34656000" lon="1.53502000"><ele>1124.5</ele></trkpt>
<trkpt lat="42.34678000" lon="1.53503000"><ele>1122.7</ele></trkpt>
<trkpt lat="42.34703000" lon="1.53526000"><ele>1118.5</ele></trkpt>
<trkpt lat="42.34715000" lon="1.53553000"><ele>1113.9</ele></trkpt>
<trkpt lat="42.34735000" lon="1.53554000"><ele>1107.8</ele></trkpt>
<trkpt lat="42.34754000" lon="1.53582000"><ele>1093.7</ele></trkpt>
<trkpt lat="42.34746000" lon="1.53591000"><ele>1095.9</ele></trkpt>
<trkpt lat="42.34778000" lon="1.53562000"><ele>1087.4</ele></trkpt>
<trkpt lat="42.34803000" lon="1.53492000"><ele>1084.3</ele></trkpt>
<trkpt lat="42.34803000" lon="1.53398000"><ele>1082.8</ele></trkpt>
<trkpt lat="42.34783000" lon="1.53336000"><ele>1081.9</ele></trkpt>
<trkpt lat="42.34804000" lon="1.53291000"><ele>1073.4</ele></trkpt>
<trkpt lat="42.34802000" lon="1.53233000"><ele>1072.3</ele></trkpt>
<trkpt lat="42.34839000" lon="1.53159000"><ele>1063.6</ele></trkpt>
<trkpt lat="42.34849999" lon="1.53086010"><ele>1065.8</ele></trkpt>
<trkpt lat="42.34859000" lon="1.53073000"><ele>1063.6</ele></trkpt>
<trkpt lat="42.34846000" lon="1.53072000"><ele>1067.8</ele></trkpt>
<trkpt lat="42.34832000" lon="1.53059000"><ele>1073.8</ele></trkpt>
<trkpt lat="42.34817000" lon="1.53053000"><ele>1078.4</ele></trkpt>
<trkpt lat="42.34799000" lon="1.53062000"><ele>1084.7</ele></trkpt>
<trkpt lat="42.34776000" lon="1.53063000"><ele>1092.3</ele></trkpt>
<trkpt lat="42.34752000" lon="1.53065000"><ele>1100.9</ele></trkpt>
<trkpt lat="42.34743000" lon="1.53036000"><ele>1105.0</ele></trkpt>
<trkpt lat="42.34716000" lon="1.53060000"><ele>1112.7</ele></trkpt>
<trkpt lat="42.34684000" lon="1.53082000"><ele>1120.3</ele></trkpt>
<trkpt lat="42.34653000" lon="1.53108000"><ele>1126.7</ele></trkpt>
<trkpt lat="42.34628000" lon="1.53144000"><ele>1132.4</ele></trkpt>
<trkpt lat="42.34616000" lon="1.53183000"><ele>1135.1</ele></trkpt>
<trkpt lat="42.34591000" lon="1.53219000"><ele>1140.1</ele></trkpt>
<trkpt lat="42.34580000" lon="1.53251000"><ele>1142.3</ele></trkpt>
<trkpt lat="42.34561000" lon="1.53273000"><ele>1145.8</ele></trkpt>
<trkpt lat="42.34564998" lon="1.53259009"><ele>1144.9</ele></trkpt>
<trkpt lat="42.34565000" lon="1.53259000"><ele>1144.9</ele></trkpt>
<trkpt lat="42.34574000" lon="1.53216000"><ele>1143.1</ele></trkpt>
<trkpt lat="42.34587000" lon="1.53169000"><ele>1141.4</ele></trkpt>
<trkpt lat="42.34587000" lon="1.53132000"><ele>1140.6</ele></trkpt>
<trkpt lat="42.34582000" lon="1.53074000"><ele>1138.0</ele></trkpt>
<trkpt lat="42.34573000" lon="1.53021000"><ele>1133.6</ele></trkpt>
<trkpt lat="42.34570000" lon="1.53012000"><ele>1133.6</ele></trkpt>
<trkpt lat="42.34552000" lon="1.52981000"><ele>1128.3</ele></trkpt>
<trkpt lat="42.34536000" lon="1.52959000"><ele>1125.6</ele></trkpt>
<trkpt lat="42.34526000" lon="1.52952000"><ele>1125.6</ele></trkpt>
<trkpt lat="42.34496000" lon="1.52940000"><ele>1121.4</ele></trkpt>
<trkpt lat="42.34485000" lon="1.52932000"><ele>1121.1</ele></trkpt>
<trkpt lat="42.34479000" lon="1.52924000"><ele>1120.8</ele></trkpt>
<trkpt lat="42.34475000" lon="1.52911000"><ele>1120.2</ele></trkpt>
<trkpt lat="42.34472000" lon="1.52860000"><ele>1116.6</ele></trkpt>
<trkpt lat="42.34470000" lon="1.52848000"><ele>1116.0</ele></trkpt>
<trkpt lat="42.34454000" lon="1.52814000"><ele>1112.0</ele></trkpt>
<trkpt lat="42.34453000" lon="1.52803000"><ele>1111.4</ele></trkpt>
<trkpt lat="42.34466000" lon="1.52743000"><ele>1111.9</ele></trkpt>
<trkpt lat="42.34474000" lon="1.52727000"><ele>1110.8</ele></trkpt>
<trkpt lat="42.34490000" lon="1.52710000"><ele>1107.3</ele></trkpt>
<trkpt lat="42.34493000" lon="1.52700000"><ele>1107.3</ele></trkpt>
<trkpt lat="42.34481000" lon="1.52659000"><ele>1104.5</ele></trkpt>
<trkpt lat="42.34458000" lon="1.52675000"><ele>1105.9</ele></trkpt>
<trkpt lat="42.34400000" lon="1.52690000"><ele>1106.2</ele></trkpt>
<trkpt lat="42.34377000" lon="1.52679000"><ele>1106.7</ele></trkpt>
<trkpt lat="42.34344000" lon="1.52631000"><ele>1109.0</ele></trkpt>
<trkpt lat="42.34320000" lon="1.52585000"><ele>1111.4</ele></trkpt>
<trkpt lat="42.34245000" lon="1.52558000"><ele>1117.7</ele></trkpt>
<trkpt lat="42.34244988" lon="1.52558003"><ele>1117.7</ele></trkpt>
<trkpt lat="42.34218983" lon="1.52564997"><ele>1121.2</ele></trkpt>
<trkpt lat="42.34182000" lon="1.52559000"><ele>1124.1</ele></trkpt>
<trkpt lat="42.34144000" lon="1.52563000"><ele>1127.9</ele></trkpt>
<trkpt lat="42.34078000" lon="1.52489000"><ele>1135.1</ele></trkpt>
<trkpt lat="42.34081000" lon="1.52471000"><ele>1136.2</ele></trkpt>
<trkpt lat="42.34101000" lon="1.52452000"><ele>1137.7</ele></trkpt>
<trkpt lat="42.34135000" lon="1.52399000"><ele>1141.2</ele></trkpt>
<trkpt lat="42.34131000" lon="1.52368000"><ele>1141.8</ele></trkpt>
<trkpt lat="42.34104000" lon="1.52329000"><ele>1144.3</ele></trkpt>
<trkpt lat="42.34042000" lon="1.52304000"><ele>1148.6</ele></trkpt>
<trkpt lat="42.33982000" lon="1.52299000"><ele>1151.7</ele></trkpt>
<trkpt lat="42.33900000" lon="1.52305000"><ele>1155.2</ele></trkpt>
<trkpt lat="42.33871000" lon="1.52309000"><ele>1155.8</ele></trkpt>
<trkpt lat="42.33831000" lon="1.52297000"><ele>1156.4</ele></trkpt>
<trkpt lat="42.33805000" lon="1.52267000"><ele>1156.6</ele></trkpt>
<trkpt lat="42.33797000" lon="1.52221000"><ele>1157.2</ele></trkpt>
<trkpt lat="42.33804000" lon="1.52193000"><ele>1159.0</ele></trkpt>
<trkpt lat="42.33797000" lon="1.52129000"><ele>1160.5</ele></trkpt>
<trkpt lat="42.33785000" lon="1.52116000"><ele>1160.9</ele></trkpt>
<trkpt lat="42.33720500" lon="1.52127500"><ele>1163.4</ele></trkpt>
<trkpt lat="42.33656000" lon="1.52139000"><ele>1164.7</ele></trkpt>
<trkpt lat="42.33656000" lon="1.52139000"><ele>1164.7</ele></trkpt>
<trkpt lat="42.33706000" lon="1.52146000"><ele>1167.6</ele></trkpt>
<trkpt lat="42.33744000" lon="1.52156000"><ele>1170.0</ele></trkpt>
<trkpt lat="42.33753000" lon="1.52161000"><ele>1171.6</ele></trkpt>
<trkpt lat="42.33757000" lon="1.52170000"><ele>1171.6</ele></trkpt>
<trkpt lat="42.33755000" lon="1.52183000"><ele>1171.6</ele></trkpt>
<trkpt lat="42.33751000" lon="1.52194000"><ele>1172.3</ele></trkpt>
<trkpt lat="42.33719000" lon="1.52247000"><ele>1173.8</ele></trkpt>
<trkpt lat="42.33716000" lon="1.52259000"><ele>1174.0</ele></trkpt>
<trkpt lat="42.33717000" lon="1.52274000"><ele>1174.4</ele></trkpt>
<trkpt lat="42.33717000" lon="1.52273000"><ele>1174.4</ele></trkpt>
<trkpt lat="42.33718000" lon="1.52286000"><ele>1174.7</ele></trkpt>
<trkpt lat="42.33729000" lon="1.52307000"><ele>1175.5</ele></trkpt>
<trkpt lat="42.33759000" lon="1.52341000"><ele>1177.2</ele></trkpt>
<trkpt lat="42.33771000" lon="1.52364000"><ele>1179.9</ele></trkpt>
<trkpt lat="42.33791000" lon="1.52413000"><ele>1183.6</ele></trkpt>
<trkpt lat="42.33814000" lon="1.52482000"><ele>1190.0</ele></trkpt>
<trkpt lat="42.33828000" lon="1.52552000"><ele>1194.2</ele></trkpt>
<trkpt lat="42.33831000" lon="1.52592000"><ele>1196.2</ele></trkpt>
<trkpt lat="42.33827000" lon="1.52613000"><ele>1196.8</ele></trkpt>
<trkpt lat="42.33824000" lon="1.52619000"><ele>1196.8</ele></trkpt>
<trkpt lat="42.33811000" lon="1.52652000"><ele>1199.7</ele></trkpt>
<trkpt lat="42.33810000" lon="1.52670000"><ele>1199.7</ele></trkpt>
<trkpt lat="42.33814000" lon="1.52692000"><ele>1199.7</ele></trkpt>
<trkpt lat="42.33821000" lon="1.52714000"><ele>1201.9</ele></trkpt>
<trkpt lat="42.33828000" lon="1.52726000"><ele>1201.9</ele></trkpt>
<trkpt lat="42.33836000" lon="1.52734000"><ele>1203.6</ele></trkpt>
<trkpt lat="42.33858000" lon="1.52745000"><ele>1204.8</ele></trkpt>
<trkpt lat="42.33868000" lon="1.52753000"><ele>1206.4</ele></trkpt>
<trkpt lat="42.33868014" lon="1.52753028"><ele>1206.4</ele></trkpt>
<trkpt lat="42.33858000" lon="1.52745000"><ele>1204.8</ele></trkpt>
<trkpt lat="42.33845000" lon="1.52747000"><ele>1204.5</ele></trkpt>
<trkpt lat="42.33825000" lon="1.52737000"><ele>1204.5</ele></trkpt>
<trkpt lat="42.33812000" lon="1.52728000"><ele>1205.1</ele></trkpt>
<trkpt lat="42.33792000" lon="1.52698000"><ele>1207.3</ele></trkpt>
<trkpt lat="42.33781000" lon="1.52686000"><ele>1208.8</ele></trkpt>
<trkpt lat="42.33777000" lon="1.52677000"><ele>1208.8</ele></trkpt>
<trkpt lat="42.33774000" lon="1.52632000"><ele>1214.1</ele></trkpt>
<trkpt lat="42.33768000" lon="1.52611000"><ele>1215.6</ele></trkpt>
<trkpt lat="42.33759000" lon="1.52588000"><ele>1216.6</ele></trkpt>
<trkpt lat="42.33744000" lon="1.52566000"><ele>1218.5</ele></trkpt>
<trkpt lat="42.33686000" lon="1.52511000"><ele>1222.4</ele></trkpt>
<trkpt lat="42.33674000" lon="1.52504000"><ele>1224.8</ele></trkpt>
<trkpt lat="42.33657000" lon="1.52500000"><ele>1225.1</ele></trkpt>
<trkpt lat="42.33614000" lon="1.52503000"><ele>1228.7</ele></trkpt>
<trkpt lat="42.33534000" lon="1.52473000"><ele>1234.4</ele></trkpt>
<trkpt lat="42.33510000" lon="1.52461000"><ele>1238.5</ele></trkpt>
<trkpt lat="42.33491000" lon="1.52456000"><ele>1240.0</ele></trkpt>
<trkpt lat="42.33481000" lon="1.52457000"><ele>1241.7</ele></trkpt>
<trkpt lat="42.33471000" lon="1.52461000"><ele>1242.7</ele></trkpt>
<trkpt lat="42.33448000" lon="1.52484000"><ele>1244.4</ele></trkpt>
<trkpt lat="42.33447999" lon="1.52484003"><ele>1244.4</ele></trkpt>
<trkpt lat="42.33446999" lon="1.52488998"><ele>1238.3</ele></trkpt>
<trkpt lat="42.33432000" lon="1.52456000"><ele>1225.8</ele></trkpt>
<trkpt lat="42.33412000" lon="1.52484000"><ele>1230.8</ele></trkpt>
<trkpt lat="42.33380000" lon="1.52529000"><ele>1234.5</ele></trkpt>
<trkpt lat="42.33348000" lon="1.52552000"><ele>1230.7</ele></trkpt>
<trkpt lat="42.33303000" lon="1.52576000"><ele>1219.9</ele></trkpt>
<trkpt lat="42.33275000" lon="1.52599000"><ele>1217.0</ele></trkpt>
<trkpt lat="42.33254000" lon="1.52589000"><ele>1212.0</ele></trkpt>
<trkpt lat="42.33263000" lon="1.52534000"><ele>1208.4</ele></trkpt>
<trkpt lat="42.33261000" lon="1.52487000"><ele>1210.8</ele></trkpt>
<trkpt lat="42.33254000" lon="1.52439000"><ele>1217.9</ele></trkpt>
<trkpt lat="42.33240000" lon="1.52403000"><ele>1228.7</ele></trkpt>
<trkpt lat="42.33239000" lon="1.52367000"><ele>1230.9</ele></trkpt>
<trkpt lat="42.33253000" lon="1.52340000"><ele>1226.6</ele></trkpt>
<trkpt lat="42.33280000" lon="1.52302000"><ele>1216.4</ele></trkpt>
<trkpt lat="42.33297000" lon="1.52271000"><ele>1213.1</ele></trkpt>
<trkpt lat="42.33316000" lon="1.52195000"><ele>1207.6</ele></trkpt>
<trkpt lat="42.33333000" lon="1.52128000"><ele>1197.2</ele></trkpt>
<trkpt lat="42.33351000" lon="1.52084000"><ele>1190.9</ele></trkpt>
<trkpt lat="42.33352000" lon="1.52083000"><ele>1203.8</ele></trkpt>
<trkpt lat="42.33367000" lon="1.52060000"><ele>1201.2</ele></trkpt>
<trkpt lat="42.33390000" lon="1.52017000"><ele>1198.8</ele></trkpt>
<trkpt lat="42.33396000" lon="1.51995000"><ele>1197.0</ele></trkpt>
<trkpt lat="42.33417000" lon="1.51953000"><ele>1193.8</ele></trkpt>
<trkpt lat="42.33454000" lon="1.51903000"><ele>1186.7</ele></trkpt>
<trkpt lat="42.33471000" lon="1.51887000"><ele>1183.5</ele></trkpt>
<trkpt lat="42.33512000" lon="1.51803000"><ele>1174.3</ele></trkpt>
<trkpt lat="42.33518000" lon="1.51791000"><ele>1173.0</ele></trkpt>
<trkpt lat="42.33517000" lon="1.51711000"><ele>1166.8</ele></trkpt>
<trkpt lat="42.33533000" lon="1.51652000"><ele>1162.4</ele></trkpt>
<trkpt lat="42.33543000" lon="1.51597000"><ele>1156.5</ele></trkpt>
<trkpt lat="42.33543000" lon="1.51578000"><ele>1155.2</ele></trkpt>
<trkpt lat="42.33548000" lon="1.51538000"><ele>1153.8</ele></trkpt>
<trkpt lat="42.33552000" lon="1.51524000"><ele>1153.6</ele></trkpt>
<trkpt lat="42.33560000" lon="1.51528000"><ele>1152.5</ele></trkpt>
<trkpt lat="42.33597000" lon="1.51566000"><ele>1149.1</ele></trkpt>
<trkpt lat="42.33607000" lon="1.51574000"><ele>1148.0</ele></trkpt>
<trkpt lat="42.33621000" lon="1.51569000"><ele>1147.3</ele></trkpt>
<trkpt lat="42.33631000" lon="1.51555000"><ele>1146.2</ele></trkpt>
<trkpt lat="42.33648985" lon="1.51537015"><ele>1144.9</ele></trkpt>
<trkpt lat="42.33649000" lon="1.51531000"><ele>1144.9</ele></trkpt>
<trkpt lat="42.33634000" lon="1.51530000"><ele>1144.1</ele></trkpt>
<trkpt lat="42.33622000" lon="1.51518000"><ele>1143.5</ele></trkpt>
<trkpt lat="42.33606000" lon="1.51496000"><ele>1142.2</ele></trkpt>
<trkpt lat="42.33600000" lon="1.51479000"><ele>1141.6</ele></trkpt>
<trkpt lat="42.33600000" lon="1.51471000"><ele>1141.6</ele></trkpt>
<trkpt lat="42.33614000" lon="1.51413000"><ele>1137.7</ele></trkpt>
<trkpt lat="42.33614000" lon="1.51412993"><ele>1137.7</ele></trkpt>
<trkpt lat="42.33615000" lon="1.51387000"><ele>1136.2</ele></trkpt>
<trkpt lat="42.33606000" lon="1.51364000"><ele>1136.4</ele></trkpt>
<trkpt lat="42.33602000" lon="1.51344000"><ele>1133.6</ele></trkpt>
<trkpt lat="42.33616000" lon="1.51334000"><ele>1133.6</ele></trkpt>
<trkpt lat="42.33625000" lon="1.51305000"><ele>1133.6</ele></trkpt>
<trkpt lat="42.33662000" lon="1.51221000"><ele>1126.6</ele></trkpt>
<trkpt lat="42.33678000" lon="1.51181000"><ele>1125.1</ele></trkpt>
<trkpt lat="42.33681000" lon="1.51157000"><ele>1124.1</ele></trkpt>
<trkpt lat="42.33675000" lon="1.51139000"><ele>1122.2</ele></trkpt>
<trkpt lat="42.33666000" lon="1.51136000"><ele>1121.7</ele></trkpt>
<trkpt lat="42.33649000" lon="1.51136000"><ele>1120.4</ele></trkpt>
<trkpt lat="42.33642000" lon="1.51134000"><ele>1119.0</ele></trkpt>
<trkpt lat="42.33630000" lon="1.51127000"><ele>1119.0</ele></trkpt>
<trkpt lat="42.33617000" lon="1.51115000"><ele>1116.2</ele></trkpt>
<trkpt lat="42.33588000" lon="1.51080000"><ele>1111.3</ele></trkpt>
<trkpt lat="42.33572000" lon="1.51069000"><ele>1109.5</ele></trkpt>
<trkpt lat="42.33566000" lon="1.51068000"><ele>1109.5</ele></trkpt>
<trkpt lat="42.33553000" lon="1.51068000"><ele>1108.2</ele></trkpt>
<trkpt lat="42.33542000" lon="1.51071000"><ele>1108.2</ele></trkpt>
<trkpt lat="42.33507000" lon="1.51088000"><ele>1105.3</ele></trkpt>
<trkpt lat="42.33492000" lon="1.51098000"><ele>1104.3</ele></trkpt>
<trkpt lat="42.33478000" lon="1.51115000"><ele>1103.8</ele></trkpt>
<trkpt lat="42.33475000" lon="1.51128000"><ele>1103.8</ele></trkpt>
<trkpt lat="42.33474000" lon="1.51142000"><ele>1102.3</ele></trkpt>
<trkpt lat="42.33480000" lon="1.51186000"><ele>1101.0</ele></trkpt>
<trkpt lat="42.33480000" lon="1.51208000"><ele>1101.0</ele></trkpt>
<trkpt lat="42.33476000" lon="1.51224000"><ele>1101.0</ele></trkpt>
<trkpt lat="42.33429000" lon="1.51327000"><ele>1092.8</ele></trkpt>
<trkpt lat="42.33422000" lon="1.51333000"><ele>1092.1</ele></trkpt>
<trkpt lat="42.33382000" lon="1.51355000"><ele>1089.0</ele></trkpt>
<trkpt lat="42.33339000" lon="1.51375000"><ele>1086.8</ele></trkpt>
<trkpt lat="42.33332000" lon="1.51380000"><ele>1086.2</ele></trkpt>
<trkpt lat="42.33295000" lon="1.51431000"><ele>1082.9</ele></trkpt>
<trkpt lat="42.33273000" lon="1.51450000"><ele>1082.2</ele></trkpt>
<trkpt lat="42.33255000" lon="1.51468000"><ele>1081.5</ele></trkpt>
<trkpt lat="42.33246000" lon="1.51473000"><ele>1081.5</ele></trkpt>
<trkpt lat="42.33237000" lon="1.51471000"><ele>1081.2</ele></trkpt>
<trkpt lat="42.33230000" lon="1.51464000"><ele>1081.0</ele></trkpt>
<trkpt lat="42.33213000" lon="1.51428000"><ele>1078.8</ele></trkpt>
<trkpt lat="42.33211000" lon="1.51412000"><ele>1077.3</ele></trkpt>
<trkpt lat="42.33218000" lon="1.51348000"><ele>1072.4</ele></trkpt>
<trkpt lat="42.33221000" lon="1.51254000"><ele>1068.4</ele></trkpt>
<trkpt lat="42.33220004" lon="1.51237060"><ele>1067.5</ele></trkpt>
<trkpt lat="42.33217988" lon="1.51221000"><ele>1065.9</ele></trkpt>
<trkpt lat="42.33218000" lon="1.51221000"><ele>1065.9</ele></trkpt>
<trkpt lat="42.33229000" lon="1.51244000"><ele>1065.0</ele></trkpt>
<trkpt lat="42.33237000" lon="1.51248000"><ele>1064.6</ele></trkpt>
<trkpt lat="42.33246000" lon="1.51249000"><ele>1064.5</ele></trkpt>
<trkpt lat="42.33254000" lon="1.51241000"><ele>1064.5</ele></trkpt>
<trkpt lat="42.33265000" lon="1.51216000"><ele>1064.7</ele></trkpt>
<trkpt lat="42.33280000" lon="1.51196000"><ele>1065.6</ele></trkpt>
<trkpt lat="42.33284000" lon="1.51105000"><ele>1063.7</ele></trkpt>
<trkpt lat="42.33281000" lon="1.51077000"><ele>1063.0</ele></trkpt>
<trkpt lat="42.33277000" lon="1.51066000"><ele>1062.3</ele></trkpt>
<trkpt lat="42.33268000" lon="1.51051000"><ele>1061.8</ele></trkpt>
<trkpt lat="42.33253000" lon="1.51042000"><ele>1059.3</ele></trkpt>
<trkpt lat="42.33244000" lon="1.51034000"><ele>1057.5</ele></trkpt>
<trkpt lat="42.33242000" lon="1.51027000"><ele>1057.5</ele></trkpt>
<trkpt lat="42.33243000" lon="1.51020000"><ele>1057.0</ele></trkpt>
<trkpt lat="42.33249000" lon="1.51013000"><ele>1055.9</ele></trkpt>
<trkpt lat="42.33257000" lon="1.51008000"><ele>1054.5</ele></trkpt>
<trkpt lat="42.33264017" lon="1.51026017"><ele>1050.6</ele></trkpt>
<trkpt lat="42.33264000" lon="1.51026000"><ele>1050.6</ele></trkpt>
<trkpt lat="42.33255000" lon="1.51006000"><ele>1045.0</ele></trkpt>
<trkpt lat="42.33281000" lon="1.50995000"><ele>1049.9</ele></trkpt>
<trkpt lat="42.33306000" lon="1.50981000"><ele>1051.5</ele></trkpt>
<trkpt lat="42.33311000" lon="1.50948000"><ele>1046.1</ele></trkpt>
<trkpt lat="42.33328000" lon="1.50930000"><ele>1043.3</ele></trkpt>
<trkpt lat="42.33359000" lon="1.50912000"><ele>1040.1</ele></trkpt>
<trkpt lat="42.33373000" lon="1.50897000"><ele>1035.7</ele></trkpt>
<trkpt lat="42.33387000" lon="1.50887000"><ele>1033.5</ele></trkpt>
<trkpt lat="42.33407000" lon="1.50883000"><ele>1033.2</ele></trkpt>
<trkpt lat="42.33421000" lon="1.50869000"><ele>1030.1</ele></trkpt>
<trkpt lat="42.33414000" lon="1.50851000"><ele>1024.2</ele></trkpt>
<trkpt lat="42.33400000" lon="1.50836000"><ele>1018.5</ele></trkpt>
<trkpt lat="42.33363000" lon="1.50814000"><ele>1014.8</ele></trkpt>
<trkpt lat="42.33363000" lon="1.50795000"><ele>1008.4</ele></trkpt>
<trkpt lat="42.33382000" lon="1.50803000"><ele>1009.2</ele></trkpt>
<trkpt lat="42.33417000" lon="1.50805000"><ele>1009.4</ele></trkpt>
<trkpt lat="42.33420000" lon="1.50806000"><ele>1003.1</ele></trkpt>
<trkpt lat="42.33474000" lon="1.50792000"><ele>998.3</ele></trkpt>
<trkpt lat="42.33528000" lon="1.50778000"><ele>991.9</ele></trkpt>
<trkpt lat="42.33565000" lon="1.50760000"><ele>989.2</ele></trkpt>
<trkpt lat="42.33601000" lon="1.50739000"><ele>988.1</ele></trkpt>
<trkpt lat="42.33620000" lon="1.50725000"><ele>987.3</ele></trkpt>
<trkpt lat="42.33634000" lon="1.50722000"><ele>986.8</ele></trkpt>
<trkpt lat="42.33723000" lon="1.50715000"><ele>980.3</ele></trkpt>
<trkpt lat="42.33766000" lon="1.50695000"><ele>977.5</ele></trkpt>
<trkpt lat="42.33809000" lon="1.50675000"><ele>976.2</ele></trkpt>
<trkpt lat="42.33815000" lon="1.50671000"><ele>976.2</ele></trkpt>
<trkpt lat="42.33845000" lon="1.50666000"><ele>975.4</ele></trkpt>
<trkpt lat="42.33882000" lon="1.50650000"><ele>970.4</ele></trkpt>
<trkpt lat="42.33888000" lon="1.50646000"><ele>969.9</ele></trkpt>
<trkpt lat="42.33927000" lon="1.50604000"><ele>964.4</ele></trkpt>
<trkpt lat="42.33962000" lon="1.50555000"><ele>957.6</ele></trkpt>
<trkpt lat="42.33976000" lon="1.50554000"><ele>956.0</ele></trkpt>
<trkpt lat="42.33983000" lon="1.50557000"><ele>954.8</ele></trkpt>
<trkpt lat="42.34044000" lon="1.50601000"><ele>944.7</ele></trkpt>
<trkpt lat="42.34121000" lon="1.50641000"><ele>934.1</ele></trkpt>
<trkpt lat="42.34128000" lon="1.50642000"><ele>933.1</ele></trkpt>
<trkpt lat="42.34136000" lon="1.50640000"><ele>932.6</ele></trkpt>
<trkpt lat="42.34157000" lon="1.50628000"><ele>930.4</ele></trkpt>
<trkpt lat="42.34205000" lon="1.50616000"><ele>932.6</ele></trkpt>
<trkpt lat="42.34243000" lon="1.50612000"><ele>932.9</ele></trkpt>
<trkpt lat="42.34270000" lon="1.50619000"><ele>932.5</ele></trkpt>
<trkpt lat="42.34310000" lon="1.50638000"><ele>932.3</ele></trkpt>
<trkpt lat="42.34331000" lon="1.50643000"><ele>932.1</ele></trkpt>
<trkpt lat="42.34347982" lon="1.50643000"><ele>929.6</ele></trkpt>
<trkpt lat="42.34348000" lon="1.50643000"><ele>929.6</ele></trkpt>
<trkpt lat="42.34363000" lon="1.50649000"><ele>927.9</ele></trkpt>
<trkpt lat="42.34377000" lon="1.50651000"><ele>926.7</ele></trkpt>
<trkpt lat="42.34386000" lon="1.50657000"><ele>925.9</ele></trkpt>
<trkpt lat="42.34420000" lon="1.50719000"><ele>922.6</ele></trkpt>
<trkpt lat="42.34427000" lon="1.50739000"><ele>919.8</ele></trkpt>
<trkpt lat="42.34440000" lon="1.50825000"><ele>913.9</ele></trkpt>
<trkpt lat="42.34461000" lon="1.50864000"><ele>911.9</ele></trkpt>
<trkpt lat="42.34483000" lon="1.50926000"><ele>906.7</ele></trkpt>
<trkpt lat="42.34495000" lon="1.50951000"><ele>901.9</ele></trkpt>
<trkpt lat="42.34513000" lon="1.50944000"><ele>894.6</ele></trkpt>
<trkpt lat="42.34519000" lon="1.50945000"><ele>891.9</ele></trkpt>
<trkpt lat="42.34517000" lon="1.50957000"><ele>891.9</ele></trkpt>
<trkpt lat="42.34519000" lon="1.50969000"><ele>886.7</ele></trkpt>
<trkpt lat="42.34532000" lon="1.50992000"><ele>881.3</ele></trkpt>
<trkpt lat="42.34546000" lon="1.50992000"><ele>876.7</ele></trkpt>
<trkpt lat="42.34615000" lon="1.50978000"><ele>865.6</ele></trkpt>
<trkpt lat="42.34636000" lon="1.50983000"><ele>860.6</ele></trkpt>
<trkpt lat="42.34640000" lon="1.50957000"><ele>858.6</ele></trkpt>
<trkpt lat="42.34639000" lon="1.50926000"><ele>859.0</ele></trkpt>
<trkpt lat="42.34613000" lon="1.50872000"><ele>859.0</ele></trkpt>
<trkpt lat="42.34604000" lon="1.50847000"><ele>860.1</ele></trkpt>
<trkpt lat="42.34604000" lon="1.50827000"><ele>861.9</ele></trkpt>
<trkpt lat="42.34608000" lon="1.50818000"><ele>862.2</ele></trkpt>
<trkpt lat="42.34613000" lon="1.50816000"><ele>862.2</ele></trkpt>
<trkpt lat="42.34620000" lon="1.50792000"><ele>861.4</ele></trkpt>
<trkpt lat="42.34620000" lon="1.50778000"><ele>861.2</ele></trkpt>
<trkpt lat="42.34605000" lon="1.50679000"><ele>861.8</ele></trkpt>
<trkpt lat="42.34614000" lon="1.50649000"><ele>861.1</ele></trkpt>
<trkpt lat="42.34615000" lon="1.50622000"><ele>862.4</ele></trkpt>
<trkpt lat="42.34612000" lon="1.50607000"><ele>863.0</ele></trkpt>
<trkpt lat="42.34603000" lon="1.50595000"><ele>865.8</ele></trkpt>
<trkpt lat="42.34593000" lon="1.50592000"><ele>866.9</ele></trkpt>
<trkpt lat="42.34585000" lon="1.50582000"><ele>868.3</ele></trkpt>
<trkpt lat="42.34558000" lon="1.50508000"><ele>871.8</ele></trkpt>
<trkpt lat="42.34560000" lon="1.50499000"><ele>871.8</ele></trkpt>
<trkpt lat="42.34615000" lon="1.50481000"><ele>868.7</ele></trkpt>
<trkpt lat="42.34621000" lon="1.50473000"><ele>868.0</ele></trkpt>
<trkpt lat="42.34630000" lon="1.50443000"><ele>865.7</ele></trkpt>
<trkpt lat="42.34639000" lon="1.50396000"><ele>862.3</ele></trkpt>
<trkpt lat="42.34648000" lon="1.50374000"><ele>860.6</ele></trkpt>
<trkpt lat="42.34669000" lon="1.50342000"><ele>858.1</ele></trkpt>
<trkpt lat="42.34671000" lon="1.50331000"><ele>858.1</ele></trkpt>
<trkpt lat="42.34671000" lon="1.50307000"><ele>852.8</ele></trkpt>
<trkpt lat="42.34668000" lon="1.50297000"><ele>852.8</ele></trkpt>
<trkpt lat="42.34663000" lon="1.50291000"><ele>852.8</ele></trkpt>
<trkpt lat="42.34630000" lon="1.50291000"><ele>850.0</ele></trkpt>
<trkpt lat="42.34557000" lon="1.50278000"><ele>843.3</ele></trkpt>
<trkpt lat="42.34542000" lon="1.50271000"><ele>842.3</ele></trkpt>
<trkpt lat="42.34513000" lon="1.50249000"><ele>838.4</ele></trkpt>
<trkpt lat="42.34502000" lon="1.50237000"><ele>837.5</ele></trkpt>
<trkpt lat="42.34489000" lon="1.50230000"><ele>836.5</ele></trkpt>
<trkpt lat="42.34487000" lon="1.50222000"><ele>836.1</ele></trkpt>
<trkpt lat="42.34492000" lon="1.50216000"><ele>835.0</ele></trkpt>
<trkpt lat="42.34557000" lon="1.50230000"><ele>827.5</ele></trkpt>
<trkpt lat="42.34568000" lon="1.50229000"><ele>827.1</ele></trkpt>
<trkpt lat="42.34575000" lon="1.50219000"><ele>825.0</ele></trkpt>
<trkpt lat="42.34594000" lon="1.50212000"><ele>823.5</ele></trkpt>
<trkpt lat="42.34614000" lon="1.50211000"><ele>822.8</ele></trkpt>
<trkpt lat="42.34630000" lon="1.50214000"><ele>821.5</ele></trkpt>
<trkpt lat="42.34650000" lon="1.50224000"><ele>820.8</ele></trkpt>
<trkpt lat="42.34666000" lon="1.50229000"><ele>820.2</ele></trkpt>
<trkpt lat="42.34692000" lon="1.50216000"><ele>817.0</ele></trkpt>
<trkpt lat="42.34702000" lon="1.50209000"><ele>816.4</ele></trkpt>
<trkpt lat="42.34704000" lon="1.50202000"><ele>814.3</ele></trkpt>
<trkpt lat="42.34678000" lon="1.50128000"><ele>808.0</ele></trkpt>
<trkpt lat="42.34680000" lon="1.50107000"><ele>804.9</ele></trkpt>
<trkpt lat="42.34688000" lon="1.50102000"><ele>802.7</ele></trkpt>
<trkpt lat="42.34768000" lon="1.50115000"><ele>796.6</ele></trkpt>
<trkpt lat="42.34784000" lon="1.50126000"><ele>794.4</ele></trkpt>
<trkpt lat="42.34827000" lon="1.50202000"><ele>783.2</ele></trkpt>
<trkpt lat="42.34842000" lon="1.50221000"><ele>782.3</ele></trkpt>
<trkpt lat="42.34849000" lon="1.50232000"><ele>781.0</ele></trkpt>
<trkpt lat="42.34848000" lon="1.50222000"><ele>780.4</ele></trkpt>
<trkpt lat="42.34859000" lon="1.50252000"></trkpt>
<trkpt lat="42.34859000" lon="1.50252000"><ele>780.1</ele></trkpt>
<trkpt lat="42.34872000" lon="1.50261000"><ele>779.3</ele></trkpt>
<trkpt lat="42.34893000" lon="1.50267000"><ele>776.6</ele></trkpt>
<trkpt lat="42.34905000" lon="1.50280000"><ele>775.4</ele></trkpt>
<trkpt lat="42.34926000" lon="1.50288000"><ele>771.9</ele></trkpt>
<trkpt lat="42.34989000" lon="1.50351000"><ele>765.3</ele></trkpt>
<trkpt lat="42.35013000" lon="1.50387000"><ele>765.8</ele></trkpt>
<trkpt lat="42.35029000" lon="1.50441000"><ele>766.9</ele></trkpt>
<trkpt lat="42.35039000" lon="1.50503000"><ele>766.5</ele></trkpt>
<trkpt lat="42.35040000" lon="1.50554000"><ele>766.3</ele></trkpt>
<trkpt lat="42.35047000" lon="1.50574000"><ele>765.5</ele></trkpt>
<trkpt lat="42.35075000" lon="1.50613000"><ele>765.2</ele></trkpt>
<trkpt lat="42.35075016" lon="1.50613006"><ele>765.2</ele></trkpt>
<trkpt lat="42.35071000" lon="1.50608000"><ele>765.2</ele></trkpt>
<trkpt lat="42.35075000" lon="1.50613000"><ele>765.2</ele></trkpt>
<trkpt lat="42.35089000" lon="1.50618000"><ele>764.1</ele></trkpt>
<trkpt lat="42.35112000" lon="1.50637000"><ele>761.2</ele></trkpt>
<trkpt lat="42.35128000" lon="1.50661000"><ele>759.4</ele></trkpt>
<trkpt lat="42.35134000" lon="1.50704000"><ele>765.8</ele></trkpt>
<trkpt lat="42.35136000" lon="1.50747000"><ele>766.7</ele></trkpt>
<trkpt lat="42.35154000" lon="1.50769000"><ele>765.4</ele></trkpt>
<trkpt lat="42.35176000" lon="1.50812000"><ele>763.6</ele></trkpt>
<trkpt lat="42.35172996" lon="1.50813002"><ele>765.6</ele></trkpt>
<trkpt lat="42.35142000" lon="1.50826000"><ele>768.3</ele></trkpt>
</trkseg></trk></gpx>