<?xml version="1.0" encoding="UTF-8"?>
<gpx version="1.1" creator="Xarxa de Corriols d'Alàs i Cerc - Punt 4" xmlns="http://www.topografix.com/GPX/1/1">
<metadata><name>Volta 1 - 20 km - Punt 4 - S</name></metadata><trk><name>Volta 1 - 20 km - Punt 4 - S</name><trkseg>
<trkpt lat="42.35133841" lon="1.50832496"><ele>768.5</ele></trkpt>
<trkpt lat="42.35104000" lon="1.50867000"><ele>770.8</ele></trkpt>
<trkpt lat="42.35074000" lon="1.50920000"><ele>772.9</ele></trkpt>
<trkpt lat="42.35072000" lon="1.50928000"><ele>772.9</ele></trkpt>
<trkpt lat="42.35082000" lon="1.50960000"><ele>778.0</ele></trkpt>
<trkpt lat="42.35082000" lon="1.50975000"><ele>778.0</ele></trkpt>
<trkpt lat="42.35076000" lon="1.50988000"><ele>779.0</ele></trkpt>
<trkpt lat="42.35066000" lon="1.51010000"><ele>780.1</ele></trkpt>
<trkpt lat="42.35053000" lon="1.51064000"><ele>782.8</ele></trkpt>
<trkpt lat="42.35042000" lon="1.51087000"><ele>784.4</ele></trkpt>
<trkpt lat="42.35013000" lon="1.51114000"><ele>788.5</ele></trkpt>
<trkpt lat="42.35010005" lon="1.51121986"><ele>788.5</ele></trkpt>
<trkpt lat="42.35009000" lon="1.51138000"><ele>788.5</ele></trkpt>
<trkpt lat="42.34999000" lon="1.51147000"><ele>789.3</ele></trkpt>
<trkpt lat="42.34987000" lon="1.51151000"><ele>790.5</ele></trkpt>
<trkpt lat="42.34983000" lon="1.51146000"><ele>791.2</ele></trkpt>
<trkpt lat="42.34982000" lon="1.51138000"><ele>791.4</ele></trkpt>
<trkpt lat="42.35002000" lon="1.51082000"><ele>792.7</ele></trkpt>
<trkpt lat="42.35031000" lon="1.51023000"><ele>788.6</ele></trkpt>
<trkpt lat="42.35037000" lon="1.50987000"><ele>787.6</ele></trkpt>
<trkpt lat="42.35033003" lon="1.50969016"><ele>790.0</ele></trkpt>
<trkpt lat="42.35033000" lon="1.50969000"><ele>790.0</ele></trkpt>
<trkpt lat="42.35027000" lon="1.50964000"><ele>791.4</ele></trkpt>
<trkpt lat="42.34997000" lon="1.50959000"><ele>794.2</ele></trkpt>
<trkpt lat="42.34979000" lon="1.50941000"><ele>798.6</ele></trkpt>
<trkpt lat="42.34958000" lon="1.50910000"><ele>801.8</ele></trkpt>
<trkpt lat="42.34939000" lon="1.50887000"><ele>805.2</ele></trkpt>
<trkpt lat="42.34927000" lon="1.50890000"><ele>805.2</ele></trkpt>
<trkpt lat="42.34917000" lon="1.50900000"><ele>808.3</ele></trkpt>
<trkpt lat="42.34905000" lon="1.50907000"><ele>809.6</ele></trkpt>
<trkpt lat="42.34891000" lon="1.50907000"><ele>813.3</ele></trkpt>
<trkpt lat="42.34887000" lon="1.50914000"><ele>814.0</ele></trkpt>
<trkpt lat="42.34880000" lon="1.50942000"><ele>817.3</ele></trkpt>
<trkpt lat="42.34876000" lon="1.50952000"><ele>817.3</ele></trkpt>
<trkpt lat="42.34867000" lon="1.50964000"><ele>821.1</ele></trkpt>
<trkpt lat="42.34836000" lon="1.50963000"><ele>823.8</ele></trkpt>
<trkpt lat="42.34815000" lon="1.50973000"><ele>828.0</ele></trkpt>
<trkpt lat="42.34821000" lon="1.50999000"><ele>827.6</ele></trkpt>
<trkpt lat="42.34813000" lon="1.51025000"><ele>827.2</ele></trkpt>
<trkpt lat="42.34812000" lon="1.51034000"><ele>827.1</ele></trkpt>
<trkpt lat="42.34820000" lon="1.51041000"><ele>826.7</ele></trkpt>
<trkpt lat="42.34838000" lon="1.51052000"><ele>826.6</ele></trkpt>
<trkpt lat="42.34839000" lon="1.51056000"><ele>826.6</ele></trkpt>
<trkpt lat="42.34840001" lon="1.51074983"><ele>828.8</ele></trkpt>
<trkpt lat="42.34840000" lon="1.51075000"><ele>828.8</ele></trkpt>
<trkpt lat="42.34835000" lon="1.51082000"><ele>829.6</ele></trkpt>
<trkpt lat="42.34812000" lon="1.51105000"><ele>835.7</ele></trkpt>
<trkpt lat="42.34805000" lon="1.51121000"><ele>838.0</ele></trkpt>
<trkpt lat="42.34789000" lon="1.51147000"><ele>841.2</ele></trkpt>
<trkpt lat="42.34762000" lon="1.51217000"><ele>846.6</ele></trkpt>
<trkpt lat="42.34742000" lon="1.51282000"><ele>854.0</ele></trkpt>
<trkpt lat="42.34730000" lon="1.51315000"><ele>857.3</ele></trkpt>
<trkpt lat="42.34724000" lon="1.51344000"><ele>860.1</ele></trkpt>
<trkpt lat="42.34723000" lon="1.51397000"><ele>866.1</ele></trkpt>
<trkpt lat="42.34705000" lon="1.51449000"><ele>872.4</ele></trkpt>
<trkpt lat="42.34685000" lon="1.51469000"><ele>876.4</ele></trkpt>
<trkpt lat="42.34671000" lon="1.51487000"><ele>878.1</ele></trkpt>
<trkpt lat="42.34648000" lon="1.51536000"><ele>886.3</ele></trkpt>
<trkpt lat="42.34639000" lon="1.51562000"><ele>893.9</ele></trkpt>
<trkpt lat="42.34635000" lon="1.51629000"><ele>903.7</ele></trkpt>
<trkpt lat="42.34626000" lon="1.51640000"><ele>905.6</ele></trkpt>
<trkpt lat="42.34605000" lon="1.51659000"><ele>909.6</ele></trkpt>
<trkpt lat="42.34595000" lon="1.51674000"><ele>912.3</ele></trkpt>
<trkpt lat="42.34594000" lon="1.51693000"><ele>912.3</ele></trkpt>
<trkpt lat="42.34597000" lon="1.51709000"><ele>916.0</ele></trkpt>
<trkpt lat="42.34602000" lon="1.51721000"><ele>916.0</ele></trkpt>
<trkpt lat="42.34606000" lon="1.51726000"><ele>918.3</ele></trkpt>
<trkpt lat="42.34614000" lon="1.51730000"><ele>918.9</ele></trkpt>
<trkpt lat="42.34636000" lon="1.51734000"><ele>921.2</ele></trkpt>
<trkpt lat="42.34663000" lon="1.51749000"><ele>924.2</ele></trkpt>
<trkpt lat="42.34670000" lon="1.51746000"><ele>924.2</ele></trkpt>
<trkpt lat="42.34679000" lon="1.51734000"><ele>925.1</ele></trkpt>
<trkpt lat="42.34684996" lon="1.51727005"><ele>925.5</ele></trkpt>
<trkpt lat="42.34685000" lon="1.51727000"><ele>925.5</ele></trkpt>
<trkpt lat="42.34706000" lon="1.51717000"><ele>928.0</ele></trkpt>
<trkpt lat="42.34714000" lon="1.51715000"><ele>928.0</ele></trkpt>
<trkpt lat="42.34730436" lon="1.51722305"><ele>930.1</ele></trkpt>
<trkpt lat="42.34749000" lon="1.51710000"><ele>921.6</ele></trkpt>
<trkpt lat="42.34764000" lon="1.51724000"><ele>924.7</ele></trkpt>
<trkpt lat="42.34783000" lon="1.51734000"><ele>926.3</ele></trkpt>
<trkpt lat="42.34797000" lon="1.51718000"><ele>922.8</ele></trkpt>
<trkpt lat="42.34812000" lon="1.51714000"><ele>921.9</ele></trkpt>
<trkpt lat="42.34835000" lon="1.51708000"><ele>921.1</ele></trkpt>
<trkpt lat="42.34841000" lon="1.51683000"><ele>915.2</ele></trkpt>
<trkpt lat="42.34849000" lon="1.51644000"><ele>907.4</ele></trkpt>
<trkpt lat="42.34859000" lon="1.51609000"><ele>899.3</ele></trkpt>
<trkpt lat="42.34862000" lon="1.51574000"><ele>891.2</ele></trkpt>
<trkpt lat="42.34868000" lon="1.51552000"><ele>885.8</ele></trkpt>
<trkpt lat="42.34855000" lon="1.51534000"><ele>880.5</ele></trkpt>
<trkpt lat="42.34860000" lon="1.51512000"><ele>875.2</ele></trkpt>
<trkpt lat="42.34875000" lon="1.51489000"><ele>869.2</ele></trkpt>
<trkpt lat="42.34889000" lon="1.51471000"><ele>864.7</ele></trkpt>
<trkpt lat="42.34895000" lon="1.51450000"><ele>859.9</ele></trkpt>
<trkpt lat="42.34895000" lon="1.51416000"><ele>853.2</ele></trkpt>
<trkpt lat="42.34896000" lon="1.51382000"><ele>846.3</ele></trkpt>
<trkpt lat="42.34900000" lon="1.51345000"><ele>838.1</ele></trkpt>
<trkpt lat="42.34923000" lon="1.51322000"><ele>830.2</ele></trkpt>
<trkpt lat="42.34982000" lon="1.51298000"><ele>822.3</ele></trkpt>
<trkpt lat="42.35021000" lon="1.51266000"><ele>811.1</ele></trkpt>
<trkpt lat="42.35042000" lon="1.51261000"><ele>808.0</ele></trkpt>
<trkpt lat="42.35038000" lon="1.51300000"><ele>817.7</ele></trkpt>
<trkpt lat="42.35062000" lon="1.51283000"><ele>811.2</ele></trkpt>
<trkpt lat="42.35063000" lon="1.51290000"><ele>806.4</ele></trkpt>
<trkpt lat="42.35069000" lon="1.51297000"><ele>807.8</ele></trkpt>
<trkpt lat="42.35154000" lon="1.51314000"><ele>814.4</ele></trkpt>
<trkpt lat="42.35211000" lon="1.51312000"><ele>818.9</ele></trkpt>
<trkpt lat="42.35225000" lon="1.51315000"><ele>819.6</ele></trkpt>
<trkpt lat="42.35248000" lon="1.51330000"><ele>821.8</ele></trkpt>
<trkpt lat="42.35262000" lon="1.51346000"><ele>823.7</ele></trkpt>
<trkpt lat="42.35282000" lon="1.51386000"><ele>828.5</ele></trkpt>
<trkpt lat="42.35290000" lon="1.51394000"><ele>828.5</ele></trkpt>
<trkpt lat="42.35296000" lon="1.51405000"><ele>829.5</ele></trkpt>
<trkpt lat="42.35297000" lon="1.51417000"><ele>830.4</ele></trkpt>
<trkpt lat="42.35291000" lon="1.51423000"><ele>831.2</ele></trkpt>
<trkpt lat="42.35289000" lon="1.51426000"><ele>831.2</ele></trkpt>
<trkpt lat="42.35283000" lon="1.51427000"><ele>832.8</ele></trkpt>
<trkpt lat="42.35276000" lon="1.51424000"><ele>832.8</ele></trkpt>
<trkpt lat="42.35260000" lon="1.51404000"><ele>834.6</ele></trkpt>
<trkpt lat="42.35232000" lon="1.51385000"><ele>836.1</ele></trkpt>
<trkpt lat="42.35208000" lon="1.51373000"><ele>838.9</ele></trkpt>
<trkpt lat="42.35190000" lon="1.51372000"><ele>839.6</ele></trkpt>
<trkpt lat="42.35166000" lon="1.51386000"><ele>841.6</ele></trkpt>
<trkpt lat="42.35108000" lon="1.51391000"><ele>846.1</ele></trkpt>
<trkpt lat="42.35049000" lon="1.51402000"><ele>851.5</ele></trkpt>
<trkpt lat="42.35047000" lon="1.51405000"><ele>851.5</ele></trkpt>
<trkpt lat="42.35025000" lon="1.51433000"><ele>853.9</ele></trkpt>
<trkpt lat="42.35010000" lon="1.51437000"><ele>855.2</ele></trkpt>
<trkpt lat="42.35007000" lon="1.51442000"><ele>856.5</ele></trkpt>
<trkpt lat="42.35008000" lon="1.51450000"><ele>856.5</ele></trkpt>
<trkpt lat="42.35013000" lon="1.51454000"><ele>857.4</ele></trkpt>
<trkpt lat="42.35034000" lon="1.51449000"><ele>858.8</ele></trkpt>
<trkpt lat="42.35048000" lon="1.51451000"><ele>860.0</ele></trkpt>
<trkpt lat="42.35101000" lon="1.51471000"><ele>863.9</ele></trkpt>
<trkpt lat="42.35111000" lon="1.51485000"><ele>865.9</ele></trkpt>
<trkpt lat="42.35121000" lon="1.51522000"><ele>868.0</ele></trkpt>
<trkpt lat="42.35113000" lon="1.51558000"><ele>869.8</ele></trkpt>
<trkpt lat="42.35122000" lon="1.51622000"><ele>872.6</ele></trkpt>
<trkpt lat="42.35125000" lon="1.51674000"><ele>877.3</ele></trkpt>
<trkpt lat="42.35134000" lon="1.51679000"><ele>878.0</ele></trkpt>
<trkpt lat="42.35161000" lon="1.51671000"><ele>881.7</ele></trkpt>
<trkpt lat="42.35200000" lon="1.51703000"><ele>883.3</ele></trkpt>
<trkpt lat="42.35208000" lon="1.51730000"><ele>890.0</ele></trkpt>
<trkpt lat="42.35190000" lon="1.51784000"><ele>903.2</ele></trkpt>
<trkpt lat="42.35159000" lon="1.51791000"><ele>904.3</ele></trkpt>
<trkpt lat="42.35126000" lon="1.51815000"><ele>905.8</ele></trkpt>
<trkpt lat="42.35079000" lon="1.51817000"><ele>908.7</ele></trkpt>
<trkpt lat="42.35071000" lon="1.51818000"><ele>909.0</ele></trkpt>
<trkpt lat="42.35043000" lon="1.51805000"><ele>912.1</ele></trkpt>
<trkpt lat="42.35032000" lon="1.51790000"><ele>912.1</ele></trkpt>
<trkpt lat="42.35013000" lon="1.51743000"><ele>916.5</ele></trkpt>
<trkpt lat="42.34991000" lon="1.51718000"><ele>917.8</ele></trkpt>
<trkpt lat="42.34959000" lon="1.51698000"><ele>920.7</ele></trkpt>
<trkpt lat="42.34930000" lon="1.51696000"><ele>922.4</ele></trkpt>
<trkpt lat="42.34911000" lon="1.51710000"><ele>923.5</ele></trkpt>
<trkpt lat="42.34888000" lon="1.51741000"><ele>925.2</ele></trkpt>
<trkpt lat="42.34844000" lon="1.51763500"><ele>928.6</ele></trkpt>
<trkpt lat="42.34800000" lon="1.51786000"><ele>930.8</ele></trkpt>
<trkpt lat="42.34759000" lon="1.51794000"><ele>934.7</ele></trkpt>
<trkpt lat="42.34749000" lon="1.51795000"><ele>935.6</ele></trkpt>
<trkpt lat="42.34725000" lon="1.51806000"><ele>936.8</ele></trkpt>
<trkpt lat="42.34705000" lon="1.51847000"><ele>941.7</ele></trkpt>
<trkpt lat="42.34699000" lon="1.51879000"><ele>943.5</ele></trkpt>
<trkpt lat="42.34682000" lon="1.51906000"><ele>946.0</ele></trkpt>
<trkpt lat="42.34671003" lon="1.51925006"><ele>948.0</ele></trkpt>
<trkpt lat="42.34681000" lon="1.51944000"><ele>949.9</ele></trkpt>
<trkpt lat="42.34716000" lon="1.51938000"><ele>953.9</ele></trkpt>
<trkpt lat="42.34764000" lon="1.51920000"><ele>958.8</ele></trkpt>
<trkpt lat="42.34789000" lon="1.51935000"><ele>961.7</ele></trkpt>
<trkpt lat="42.34800000" lon="1.51945000"><ele>965.2</ele></trkpt>
<trkpt lat="42.34812000" lon="1.51951000"><ele>965.2</ele></trkpt>
<trkpt lat="42.34812000" lon="1.51956000"><ele>965.9</ele></trkpt>
<trkpt lat="42.34799998" lon="1.51965003"><ele>966.9</ele></trkpt>
<trkpt lat="42.34767000" lon="1.52017000"><ele>975.0</ele></trkpt>
<trkpt lat="42.34740000" lon="1.52045000"><ele>976.9</ele></trkpt>
<trkpt lat="42.34734000" lon="1.52048000"><ele>976.9</ele></trkpt>
<trkpt lat="42.34665000" lon="1.52097000"><ele>983.3</ele></trkpt>
<trkpt lat="42.34640000" lon="1.52085000"><ele>985.6</ele></trkpt>
<trkpt lat="42.34582000" lon="1.52116000"><ele>988.2</ele></trkpt>
<trkpt lat="42.34541000" lon="1.52148000"><ele>993.1</ele></trkpt>
<trkpt lat="42.34530000" lon="1.52104000"><ele>996.6</ele></trkpt>
<trkpt lat="42.34460000" lon="1.52080000"><ele>1004.7</ele></trkpt>
<trkpt lat="42.34399000" lon="1.52168000"><ele>1014.5</ele></trkpt>
<trkpt lat="42.34405000" lon="1.52214000"><ele>1017.0</ele></trkpt>
<trkpt lat="42.34391000" lon="1.52307000"><ele>1025.1</ele></trkpt>
<trkpt lat="42.34412000" lon="1.52328000"><ele>1026.9</ele></trkpt>
<trkpt lat="42.34435000" lon="1.52324000"><ele>1027.8</ele></trkpt>
<trkpt lat="42.34465000" lon="1.52335000"><ele>1028.4</ele></trkpt>
<trkpt lat="42.34509000" lon="1.52332000"><ele>1031.3</ele></trkpt>
<trkpt lat="42.34517000" lon="1.52336000"><ele>1031.8</ele></trkpt>
<trkpt lat="42.34518000" lon="1.52336000"><ele>1031.8</ele></trkpt>
<trkpt lat="42.34537000" lon="1.52345000"><ele>1033.6</ele></trkpt>
<trkpt lat="42.34550000" lon="1.52363000"><ele>1034.2</ele></trkpt>
<trkpt lat="42.34580000" lon="1.52382000"><ele>1036.1</ele></trkpt>
<trkpt lat="42.34595000" lon="1.52398000"><ele>1037.4</ele></trkpt>
<trkpt lat="42.34641000" lon="1.52404000"><ele>1040.6</ele></trkpt>
<trkpt lat="42.34688000" lon="1.52429000"><ele>1044.4</ele></trkpt>
<trkpt lat="42.34699000" lon="1.52442000"><ele>1046.0</ele></trkpt>
<trkpt lat="42.34695000" lon="1.52451000"><ele>1046.0</ele></trkpt>
<trkpt lat="42.34650000" lon="1.52437000"><ele>1051.2</ele></trkpt>
<trkpt lat="42.34575000" lon="1.52475500"><ele>1056.2</ele></trkpt>
<trkpt lat="42.34500000" lon="1.52514000"><ele>1060.5</ele></trkpt>
<trkpt lat="42.34453000" lon="1.52514000"><ele>1062.5</ele></trkpt>
<trkpt lat="42.34438000" lon="1.52511000"><ele>1063.5</ele></trkpt>
<trkpt lat="42.34414000" lon="1.52516000"><ele>1064.6</ele></trkpt>
<trkpt lat="42.34402000" lon="1.52514000"><ele>1065.7</ele></trkpt>
<trkpt lat="42.34399000" lon="1.52521000"><ele>1066.6</ele></trkpt>
<trkpt lat="42.34403000" lon="1.52532000"><ele>1066.6</ele></trkpt>
<trkpt lat="42.34448000" lon="1.52545000"><ele>1073.2</ele></trkpt>
<trkpt lat="42.34499000" lon="1.52579000"><ele>1076.5</ele></trkpt>
<trkpt lat="42.34543000" lon="1.52570000"><ele>1082.4</ele></trkpt>
<trkpt lat="42.34588000" lon="1.52570000"><ele>1086.8</ele></trkpt>
<trkpt lat="42.34600000" lon="1.52577000"><ele>1087.9</ele></trkpt>
<trkpt lat="42.34600000" lon="1.52585000"><ele>1088.3</ele></trkpt>
<trkpt lat="42.34587000" lon="1.52600000"><ele>1091.3</ele></trkpt>
<trkpt lat="42.34576000" lon="1.52601000"><ele>1091.3</ele></trkpt>
<trkpt lat="42.34562000" lon="1.52611000"><ele>1093.0</ele></trkpt>
<trkpt lat="42.34544000" lon="1.52609000"><ele>1093.9</ele></trkpt>
<trkpt lat="42.34481000" lon="1.52659000"><ele>1104.5</ele></trkpt>
<trkpt lat="42.34458000" lon="1.52675000"><ele>1105.9</ele></trkpt>
<trkpt lat="42.34400000" lon="1.52690000"><ele>1106.2</ele></trkpt>
<trkpt lat="42.34377000" lon="1.52679000"><ele>1106.7</ele></trkpt>
<trkpt lat="42.34344000" lon="1.52631000"><ele>1109.0</ele></trkpt>
<trkpt lat="42.34320000" lon="1.52585000"><ele>1111.4</ele></trkpt>
<trkpt lat="42.34245000" lon="1.52558000"><ele>1117.7</ele></trkpt>
<trkpt lat="42.34244988" lon="1.52558003"><ele>1117.7</ele></trkpt>
<trkpt lat="42.34218983" lon="1.52564997"><ele>1121.2</ele></trkpt>
<trkpt lat="42.34182000" lon="1.52559000"><ele>1124.1</ele></trkpt>
<trkpt lat="42.34144000" lon="1.52563000"><ele>1127.9</ele></trkpt>
<trkpt lat="42.34078000" lon="1.52489000"><ele>1135.1</ele></trkpt>
<trkpt lat="42.34081000" lon="1.52471000"><ele>1136.2</ele></trkpt>
<trkpt lat="42.34101000" lon="1.52452000"><ele>1137.7</ele></trkpt>
<trkpt lat="42.34135000" lon="1.52399000"><ele>1141.2</ele></trkpt>
<trkpt lat="42.34131000" lon="1.52368000"><ele>1141.8</ele></trkpt>
<trkpt lat="42.34104000" lon="1.52329000"><ele>1144.3</ele></trkpt>
<trkpt lat="42.34042000" lon="1.52304000"><ele>1148.6</ele></trkpt>
<trkpt lat="42.33982000" lon="1.52299000"><ele>1151.7</ele></trkpt>
<trkpt lat="42.33900000" lon="1.52305000"><ele>1155.2</ele></trkpt>
<trkpt lat="42.33871000" lon="1.52309000"><ele>1155.8</ele></trkpt>
<trkpt lat="42.33831000" lon="1.52297000"><ele>1156.4</ele></trkpt>
<trkpt lat="42.33805000" lon="1.52267000"><ele>1156.6</ele></trkpt>
<trkpt lat="42.33797000" lon="1.52221000"><ele>1157.2</ele></trkpt>
<trkpt lat="42.33804000" lon="1.52193000"><ele>1159.0</ele></trkpt>
<trkpt lat="42.33797000" lon="1.52129000"><ele>1160.5</ele></trkpt>
<trkpt lat="42.33785000" lon="1.52116000"><ele>1160.9</ele></trkpt>
<trkpt lat="42.33720500" lon="1.52127500"><ele>1163.4</ele></trkpt>
<trkpt lat="42.33656000" lon="1.52139000"><ele>1164.7</ele></trkpt>
<trkpt lat="42.33656000" lon="1.52139000"><ele>1164.7</ele></trkpt>
<trkpt lat="42.33706000" lon="1.52146000"><ele>1167.6</ele></trkpt>
<trkpt lat="42.33744000" lon="1.52156000"><ele>1170.0</ele></trkpt>
<trkpt lat="42.33753000" lon="1.52161000"><ele>1171.6</ele></trkpt>
<trkpt lat="42.33757000" lon="1.52170000"><ele>1171.6</ele></trkpt>
<trkpt lat="42.33755000" lon="1.52183000"><ele>1171.6</ele></trkpt>
<trkpt lat="42.33751000" lon="1.52194000"><ele>1172.3</ele></trkpt>
<trkpt lat="42.33719000" lon="1.52247000"><ele>1173.8</ele></trkpt>
<trkpt lat="42.33716000" lon="1.52259000"><ele>1174.0</ele></trkpt>
<trkpt lat="42.33717000" lon="1.52274000"><ele>1174.4</ele></trkpt>
<trkpt lat="42.33717000" lon="1.52273000"><ele>1174.4</ele></trkpt>
<trkpt lat="42.33718000" lon="1.52286000"><ele>1174.7</ele></trkpt>
<trkpt lat="42.33729000" lon="1.52307000"><ele>1175.5</ele></trkpt>
<trkpt lat="42.33759000" lon="1.52341000"><ele>1177.2</ele></trkpt>
<trkpt lat="42.33771000" lon="1.52364000"><ele>1179.9</ele></trkpt>
<trkpt lat="42.33791000" lon="1.52413000"><ele>1183.6</ele></trkpt>
<trkpt lat="42.33814000" lon="1.52482000"><ele>1190.0</ele></trkpt>
<trkpt lat="42.33828000" lon="1.52552000"><ele>1194.2</ele></trkpt>
<trkpt lat="42.33831000" lon="1.52592000"><ele>1196.2</ele></trkpt>
<trkpt lat="42.33827000" lon="1.52613000"><ele>1196.8</ele></trkpt>
<trkpt lat="42.33824000" lon="1.52619000"><ele>1196.8</ele></trkpt>
<trkpt lat="42.33811000" lon="1.52652000"><ele>1199.7</ele></trkpt>
<trkpt lat="42.33810000" lon="1.52670000"><ele>1199.7</ele></trkpt>
<trkpt lat="42.33814000" lon="1.52692000"><ele>1199.7</ele></trkpt>
<trkpt lat="42.33821000" lon="1.52714000"><ele>1201.9</ele></trkpt>
<trkpt lat="42.33828000" lon="1.52726000"><ele>1201.9</ele></trkpt>
<trkpt lat="42.33836000" lon="1.52734000"><ele>1203.6</ele></trkpt>
<trkpt lat="42.33858000" lon="1.52745000"><ele>1204.8</ele></trkpt>
<trkpt lat="42.33868000" lon="1.52753000"><ele>1206.4</ele></trkpt>
<trkpt lat="42.33868014" lon="1.52753028"><ele>1206.4</ele></trkpt>
<trkpt lat="42.33858000" lon="1.52745000"><ele>1204.8</ele></trkpt>
<trkpt lat="42.33845000" lon="1.52747000"><ele>1204.5</ele></trkpt>
<trkpt lat="42.33825000" lon="1.52737000"><ele>1204.5</ele></trkpt>
<trkpt lat="42.33812000" lon="1.52728000"><ele>1205.1</ele></trkpt>
<trkpt lat="42.33792000" lon="1.52698000"><ele>1207.3</ele></trkpt>
<trkpt lat="42.33781000" lon="1.52686000"><ele>1208.8</ele></trkpt>
<trkpt lat="42.33777000" lon="1.52677000"><ele>1208.8</ele></trkpt>
<trkpt lat="42.33774000" lon="1.52632000"><ele>1214.1</ele></trkpt>
<trkpt lat="42.33768000" lon="1.52611000"><ele>1215.6</ele></trkpt>
<trkpt lat="42.33759000" lon="1.52588000"><ele>1216.6</ele></trkpt>
<trkpt lat="42.33744000" lon="1.52566000"><ele>1218.5</ele></trkpt>
<trkpt lat="42.33686000" lon="1.52511000"><ele>1222.4</ele></trkpt>
<trkpt lat="42.33674000" lon="1.52504000"><ele>1224.8</ele></trkpt>
<trkpt lat="42.33657000" lon="1.52500000"><ele>1225.1</ele></trkpt>
<trkpt lat="42.33614000" lon="1.52503000"><ele>1228.7</ele></trkpt>
<trkpt lat="42.33534000" lon="1.52473000"><ele>1234.4</ele></trkpt>
<trkpt lat="42.33510000" lon="1.52461000"><ele>1238.5</ele></trkpt>
<trkpt lat="42.33491000" lon="1.52456000"><ele>1240.0</ele></trkpt>
<trkpt lat="42.33481000" lon="1.52457000"><ele>1241.7</ele></trkpt>
<trkpt lat="42.33471000" lon="1.52461000"><ele>1242.7</ele></trkpt>
<trkpt lat="42.33448000" lon="1.52484000"><ele>1244.4</ele></trkpt>
<trkpt lat="42.33447999" lon="1.52484003"><ele>1244.4</ele></trkpt>
<trkpt lat="42.33446999" lon="1.52488998"><ele>1238.3</ele></trkpt>
<trkpt lat="42.33447000" lon="1.52489000"><ele>1238.3</ele></trkpt>
<trkpt lat="42.33440000" lon="1.52522000"><ele>1246.1</ele></trkpt>
<trkpt lat="42.33435000" lon="1.52500000"><ele>1240.1</ele></trkpt>
<trkpt lat="42.33465500" lon="1.52562500"><ele>1256.4</ele></trkpt>
<trkpt lat="42.33496000" lon="1.52625000"><ele>1268.7</ele></trkpt>
<trkpt lat="42.33482500" lon="1.52720000"><ele>1283.3</ele></trkpt>
<trkpt lat="42.33469000" lon="1.52815000"><ele>1299.3</ele></trkpt>
<trkpt lat="42.33442000" lon="1.52905500"><ele>1305.5</ele></trkpt>
<trkpt lat="42.33415000" lon="1.52996000"><ele>1316.6</ele></trkpt>
<trkpt lat="42.33365000" lon="1.53047500"><ele>1330.0</ele></trkpt>
<trkpt lat="42.33315000" lon="1.53099000"><ele>1343.2</ele></trkpt>
<trkpt lat="42.33245500" lon="1.53125000"><ele>1358.3</ele></trkpt>
<trkpt lat="42.33176000" lon="1.53151000"><ele>1376.5</ele></trkpt>
<trkpt lat="42.33120000" lon="1.53185000"><ele>1394.0</ele></trkpt>
<trkpt lat="42.33064000" lon="1.53219000"><ele>1407.8</ele></trkpt>
<trkpt lat="42.33016500" lon="1.53212500"><ele>1417.1</ele></trkpt>
<trkpt lat="42.32969000" lon="1.53206000"><ele>1426.8</ele></trkpt>
<trkpt lat="42.32912500" lon="1.53218500"><ele>1435.5</ele></trkpt>
<trkpt lat="42.32856000" lon="1.53231000"><ele>1440.9</ele></trkpt>
<trkpt lat="42.32811000" lon="1.53310501"><ele>1448.5</ele></trkpt>
<trkpt lat="42.32766000" lon="1.53390000"><ele>1452.6</ele></trkpt>
<trkpt lat="42.32713500" lon="1.53408000"><ele>1462.0</ele></trkpt>
<trkpt lat="42.32661000" lon="1.53426000"><ele>1471.6</ele></trkpt>
<trkpt lat="42.32607000" lon="1.53388000"><ele>1476.1</ele></trkpt>
<trkpt lat="42.32553000" lon="1.53350000"><ele>1479.4</ele></trkpt>
<trkpt lat="42.32513000" lon="1.53320500"><ele>1483.5</ele></trkpt>
<trkpt lat="42.32473000" lon="1.53291000"><ele>1488.2</ele></trkpt>
<trkpt lat="42.32426000" lon="1.53292500"><ele>1503.8</ele></trkpt>
<trkpt lat="42.32379000" lon="1.53294000"><ele>1516.5</ele></trkpt>
<trkpt lat="42.32340000" lon="1.53268000"><ele>1522.0</ele></trkpt>
<trkpt lat="42.32288000" lon="1.53261000"><ele>1520.5</ele></trkpt>
<trkpt lat="42.32251000" lon="1.53282000"><ele>1521.1</ele></trkpt>
<trkpt lat="42.32205000" lon="1.53330000"><ele>1524.7</ele></trkpt>
<trkpt lat="42.32154000" lon="1.53323000"><ele>1514.5</ele></trkpt>
<trkpt lat="42.32080000" lon="1.53339000"><ele>1511.7</ele></trkpt>
<trkpt lat="42.32042000" lon="1.53353000"><ele>1508.1</ele></trkpt>
<trkpt lat="42.32008000" lon="1.53362000"><ele>1503.8</ele></trkpt>
<trkpt lat="42.32000984" lon="1.53367040"><ele>1503.0</ele></trkpt>
<trkpt lat="42.32001000" lon="1.53367000"><ele>1503.0</ele></trkpt>
<trkpt lat="42.32036000" lon="1.53315000"><ele>1499.5</ele></trkpt>
<trkpt lat="42.32066000" lon="1.53274000"><ele>1497.4</ele></trkpt>
<trkpt lat="42.32092000" lon="1.53256000"><ele>1494.5</ele></trkpt>
<trkpt lat="42.32165000" lon="1.53235000"><ele>1486.6</ele></trkpt>
<trkpt lat="42.32208000" lon="1.53215000"><ele>1481.6</ele></trkpt>
<trkpt lat="42.32220000" lon="1.53199000"><ele>1480.5</ele></trkpt>
<trkpt lat="42.32248000" lon="1.53092000"><ele>1469.7</ele></trkpt>
<trkpt lat="42.32248000" lon="1.53067000"><ele>1467.1</ele></trkpt>
<trkpt lat="42.32260000" lon="1.53021000"><ele>1462.5</ele></trkpt>
<trkpt lat="42.32263000" lon="1.52925000"><ele>1454.7</ele></trkpt>
<trkpt lat="42.32278000" lon="1.52886000"><ele>1451.1</ele></trkpt>
<trkpt lat="42.32320000" lon="1.52837000"><ele>1445.5</ele></trkpt>
<trkpt lat="42.32330000" lon="1.52819000"><ele>1444.6</ele></trkpt>
<trkpt lat="42.32347000" lon="1.52741000"><ele>1439.9</ele></trkpt>
<trkpt lat="42.32358000" lon="1.52714000"><ele>1437.7</ele></trkpt>
<trkpt lat="42.32370000" lon="1.52708000"><ele>1436.2</ele></trkpt>
<trkpt lat="42.32396000" lon="1.52714000"><ele>1433.5</ele></trkpt>
<trkpt lat="42.32408000" lon="1.52729000"><ele>1431.1</ele></trkpt>
<trkpt lat="42.32418000" lon="1.52730000"><ele>1430.0</ele></trkpt>
<trkpt lat="42.32430000" lon="1.52718000"><ele>1429.0</ele></trkpt>
<trkpt lat="42.32491000" lon="1.52713000"><ele>1421.6</ele></trkpt>
<trkpt lat="42.32549000" lon="1.52709000"><ele>1415.7</ele></trkpt>
<trkpt lat="42.32590000" lon="1.52718000"><ele>1412.3</ele></trkpt>
<trkpt lat="42.32598000" lon="1.52724000"><ele>1410.4</ele></trkpt>
<trkpt lat="42.32607000" lon="1.52738000"><ele>1410.4</ele></trkpt>
<trkpt lat="42.32608000" lon="1.52767000"><ele>1407.8</ele></trkpt>
<trkpt lat="42.32630000" lon="1.52778000"><ele>1405.5</ele></trkpt>
<trkpt lat="42.32638000" lon="1.52791000"><ele>1403.1</ele></trkpt>
<trkpt lat="42.32651000" lon="1.52824000"><ele>1400.8</ele></trkpt>
<trkpt lat="42.32645000" lon="1.52838000"><ele>1400.8</ele></trkpt>
<trkpt lat="42.32663000" lon="1.52864000"><ele>1397.3</ele></trkpt>
<trkpt lat="42.32693000" lon="1.52871000"><ele>1394.5</ele></trkpt>
<trkpt lat="42.32731000" lon="1.52940000"><ele>1388.5</ele></trkpt>
<trkpt lat="42.32750000" lon="1.52945000"><ele>1386.5</ele></trkpt>
<trkpt lat="42.32756000" lon="1.52935000"><ele>1384.0</ele></trkpt>
<trkpt lat="42.32745000" lon="1.52918000"><ele>1382.8</ele></trkpt>
<trkpt lat="42.32742000" lon="1.52904000"><ele>1381.7</ele></trkpt>
<trkpt lat="42.32771000" lon="1.52810000"><ele>1372.2</ele></trkpt>
<trkpt lat="42.32798000" lon="1.52784000"><ele>1369.3</ele></trkpt>
<trkpt lat="42.32809000" lon="1.52740000"><ele>1365.1</ele></trkpt>
<trkpt lat="42.32832000" lon="1.52686000"><ele>1360.9</ele></trkpt>
<trkpt lat="42.32844000" lon="1.52614000"><ele>1353.8</ele></trkpt>
<trkpt lat="42.32845000" lon="1.52587000"><ele>1350.7</ele></trkpt>
<trkpt lat="42.32823000" lon="1.52514000"><ele>1346.7</ele></trkpt>
<trkpt lat="42.32828000" lon="1.52495000"><ele>1345.1</ele></trkpt>
<trkpt lat="42.32875000" lon="1.52452000"><ele>1338.4</ele></trkpt>
<trkpt lat="42.32912000" lon="1.52437000"><ele>1333.5</ele></trkpt>
<trkpt lat="42.32926000" lon="1.52443000"><ele>1332.5</ele></trkpt>
<trkpt lat="42.32992000" lon="1.52511000"><ele>1323.9</ele></trkpt>
<trkpt lat="42.33027000" lon="1.52537000"><ele>1318.0</ele></trkpt>
<trkpt lat="42.33052000" lon="1.52601000"><ele>1313.3</ele></trkpt>
<trkpt lat="42.33061000" lon="1.52607000"><ele>1312.1</ele></trkpt>
<trkpt lat="42.33085000" lon="1.52564000"><ele>1307.7</ele></trkpt>
<trkpt lat="42.33074000" lon="1.52449000"><ele>1294.7</ele></trkpt>
<trkpt lat="42.33062000" lon="1.52404000"><ele>1289.1</ele></trkpt>
<trkpt lat="42.33041000" lon="1.52370000"><ele>1284.5</ele></trkpt>
<trkpt lat="42.33006000" lon="1.52308000"><ele>1278.9</ele></trkpt>
<trkpt lat="42.32985000" lon="1.52279000"><ele>1276.7</ele></trkpt>
<trkpt lat="42.32986000" lon="1.52240000"><ele>1272.9</ele></trkpt>
<trkpt lat="42.32971000" lon="1.52165000"><ele>1266.9</ele></trkpt>
<trkpt lat="42.32955000" lon="1.52137000"><ele>1264.5</ele></trkpt>
<trkpt lat="42.32936000" lon="1.52111000"><ele>1262.3</ele></trkpt>
<trkpt lat="42.32919000" lon="1.52069000"><ele>1258.5</ele></trkpt>
<trkpt lat="42.32921000" lon="1.52008000"><ele>1254.0</ele></trkpt>
<trkpt lat="42.32941000" lon="1.51891000"><ele>1246.0</ele></trkpt>
<trkpt lat="42.32946000" lon="1.51894000"><ele>1246.0</ele></trkpt>
<trkpt lat="42.32948000" lon="1.51976000"><ele>1239.4</ele></trkpt>
<trkpt lat="42.32959000" lon="1.52008000"><ele>1235.4</ele></trkpt>
<trkpt lat="42.32978000" lon="1.52040000"><ele>1233.5</ele></trkpt>
<trkpt lat="42.33009000" lon="1.52041000"><ele>1229.7</ele></trkpt>
<trkpt lat="42.33093000" lon="1.52079000"><ele>1220.7</ele></trkpt>
<trkpt lat="42.33106000" lon="1.52114000"><ele>1217.8</ele></trkpt>
<trkpt lat="42.33156000" lon="1.52112000"><ele>1213.5</ele></trkpt>
<trkpt lat="42.33203000" lon="1.52090000"><ele>1210.0</ele></trkpt>
<trkpt lat="42.33237000" lon="1.52094000"><ele>1208.9</ele></trkpt>
<trkpt lat="42.33266000" lon="1.52081000"><ele>1207.6</ele></trkpt>
<trkpt lat="42.33330000" lon="1.52072000"><ele>1205.4</ele></trkpt>
<trkpt lat="42.33345000" lon="1.52082000"><ele>1204.4</ele></trkpt>
<trkpt lat="42.33345086" lon="1.52082000"><ele>1204.4</ele></trkpt>
<trkpt lat="42.33350000" lon="1.52082000"><ele>1203.8</ele></trkpt>
<trkpt lat="42.33352000" lon="1.52083000"><ele>1203.8</ele></trkpt>
<trkpt lat="42.33367000" lon="1.52060000"><ele>1201.2</ele></trkpt>
<trkpt lat="42.33390000" lon="1.52017000"><ele>1198.8</ele></trkpt>
<trkpt lat="42.33396000" lon="1.51995000"><ele>1197.0</ele></trkpt>
<trkpt lat="42.33417000" lon="1.51953000"><ele>1193.8</ele></trkpt>
<trkpt lat="42.33454000" lon="1.51903000"><ele>1186.7</ele></trkpt>
<trkpt lat="42.33471000" lon="1.51887000"><ele>1183.5</ele></trkpt>
<trkpt lat="42.33512000" lon="1.51803000"><ele>1174.3</ele></trkpt>
<trkpt lat="42.33518000" lon="1.51791000"><ele>1173.0</ele></trkpt>
<trkpt lat="42.33517000" lon="1.51711000"><ele>1166.8</ele></trkpt>
<trkpt lat="42.33533000" lon="1.51652000"><ele>1162.4</ele></trkpt>
<trkpt lat="42.33543000" lon="1.51597000"><ele>1156.5</ele></trkpt>
<trkpt lat="42.33543000" lon="1.51578000"><ele>1155.2</ele></trkpt>
<trkpt lat="42.33548000" lon="1.51538000"><ele>1153.8</ele></trkpt>
<trkpt lat="42.33552000" lon="1.51524000"><ele>1153.6</ele></trkpt>
<trkpt lat="42.33560000" lon="1.51528000"><ele>1152.5</ele></trkpt>
<trkpt lat="42.33597000" lon="1.51566000"><ele>1149.1</ele></trkpt>
<trkpt lat="42.33607000" lon="1.51574000"><ele>1148.0</ele></trkpt>
<trkpt lat="42.33621000" lon="1.51569000"><ele>1147.3</ele></trkpt>
<trkpt lat="42.33631000" lon="1.51555000"><ele>1146.2</ele></trkpt>
<trkpt lat="42.33648985" lon="1.51537015"><ele>1144.9</ele></trkpt>
<trkpt lat="42.33649000" lon="1.51531000"><ele>1144.9</ele></trkpt>
<trkpt lat="42.33687000" lon="1.51508000"><ele>1146.8</ele></trkpt>
<trkpt lat="42.33695000" lon="1.51507000"><ele>1147.5</ele></trkpt>
<trkpt lat="42.33705000" lon="1.51509000"><ele>1148.1</ele></trkpt>
<trkpt lat="42.33717000" lon="1.51515000"><ele>1150.0</ele></trkpt>
<trkpt lat="42.33729000" lon="1.51526000"><ele>1150.0</ele></trkpt>
<trkpt lat="42.33739000" lon="1.51539000"><ele>1151.0</ele></trkpt>
<trkpt lat="42.33749000" lon="1.51557000"><ele>1151.5</ele></trkpt>
<trkpt lat="42.33758000" lon="1.51594000"><ele>1150.7</ele></trkpt>
<trkpt lat="42.33761000" lon="1.51622000"><ele>1150.0</ele></trkpt>
<trkpt lat="42.33760000" lon="1.51641000"><ele>1148.9</ele></trkpt>
<trkpt lat="42.33755000" lon="1.51655000"><ele>1148.2</ele></trkpt>
<trkpt lat="42.33757982" lon="1.51661959"><ele>1147.5</ele></trkpt>
<trkpt lat="42.33758000" lon="1.51662000"><ele>1147.5</ele></trkpt>
<trkpt lat="42.33738000" lon="1.51721000"><ele>1140.0</ele></trkpt>
<trkpt lat="42.33729000" lon="1.51768000"><ele>1133.0</ele></trkpt>
<trkpt lat="42.33713000" lon="1.51812000"><ele>1127.2</ele></trkpt>
<trkpt lat="42.33707000" lon="1.51839000"><ele>1123.7</ele></trkpt>
<trkpt lat="42.33694000" lon="1.51874000"><ele>1120.9</ele></trkpt>
<trkpt lat="42.33671000" lon="1.51908000"><ele>1117.0</ele></trkpt>
<trkpt lat="42.33669000" lon="1.51916000"><ele>1115.5</ele></trkpt>
<trkpt lat="42.33662000" lon="1.51931000"><ele>1113.7</ele></trkpt>
<trkpt lat="42.33659000" lon="1.51956000"><ele>1109.4</ele></trkpt>
<trkpt lat="42.33661000" lon="1.51975000"><ele>1108.3</ele></trkpt>
<trkpt lat="42.33660000" lon="1.51974000"><ele>1108.3</ele></trkpt>
<trkpt lat="42.33680000" lon="1.51981000"><ele>1108.4</ele></trkpt>
<trkpt lat="42.33715000" lon="1.51986000"><ele>1110.3</ele></trkpt>
<trkpt lat="42.33789000" lon="1.51983000"><ele>1114.4</ele></trkpt>
<trkpt lat="42.33823000" lon="1.51979000"><ele>1116.5</ele></trkpt>
<trkpt lat="42.33851000" lon="1.51972000"><ele>1118.6</ele></trkpt>
<trkpt lat="42.33872000" lon="1.51975000"><ele>1120.7</ele></trkpt>
<trkpt lat="42.33896000" lon="1.51992000"><ele>1123.1</ele></trkpt>
<trkpt lat="42.33929000" lon="1.52030000"><ele>1124.7</ele></trkpt>
<trkpt lat="42.33948000" lon="1.52055000"><ele>1123.3</ele></trkpt>
<trkpt lat="42.33967000" lon="1.52057000"><ele>1122.5</ele></trkpt>
<trkpt lat="42.33967037" lon="1.52057040"><ele>1122.5</ele></trkpt>
<trkpt lat="42.33960000" lon="1.52035000"><ele>1121.9</ele></trkpt>
<trkpt lat="42.33992000" lon="1.52013000"><ele>1114.5</ele></trkpt>
<trkpt lat="42.34022000" lon="1.51970000"><ele>1096.9</ele></trkpt>
<trkpt lat="42.34045000" lon="1.51944000"><ele>1083.2</ele></trkpt>
<trkpt lat="42.34067000" lon="1.51951000"><ele>1077.0</ele></trkpt>
<trkpt lat="42.34083000" lon="1.51978000"><ele>1076.2</ele></trkpt>
<trkpt lat="42.34091000" lon="1.51952000"><ele>1068.1</ele></trkpt>
<trkpt lat="42.34095000" lon="1.51922000"><ele>1062.0</ele></trkpt>
<trkpt lat="42.34094000" lon="1.51882000"><ele>1053.6</ele></trkpt>
<trkpt lat="42.34126000" lon="1.51883000"><ele>1048.4</ele></trkpt>
<trkpt lat="42.34138000" lon="1.51907000"><ele>1051.5</ele></trkpt>
<trkpt lat="42.34153000" lon="1.51894000"><ele>1047.7</ele></trkpt>
<trkpt lat="42.34179000" lon="1.51876000"><ele>1041.8</ele></trkpt>
<trkpt lat="42.34204000" lon="1.51878000"><ele>1039.2</ele></trkpt>
<trkpt lat="42.34228000" lon="1.51894000"><ele>1035.6</ele></trkpt>
<trkpt lat="42.34248000" lon="1.51882000"><ele>1028.2</ele></trkpt>
<trkpt lat="42.34257000" lon="1.51822000"><ele>1015.8</ele></trkpt>
<trkpt lat="42.34254000" lon="1.51780000"><ele>1008.0</ele></trkpt>
<trkpt lat="42.34246000" lon="1.51746000"><ele>1001.3</ele></trkpt>
<trkpt lat="42.34236000" lon="1.51715000"><ele>994.4</ele></trkpt>
<trkpt lat="42.34255000" lon="1.51692000"><ele>984.5</ele></trkpt>
<trkpt lat="42.34297000" lon="1.51705000"><ele>981.2</ele></trkpt>
<trkpt lat="42.34322000" lon="1.51720000"><ele>980.4</ele></trkpt>
<trkpt lat="42.34350000" lon="1.51732000"><ele>976.7</ele></trkpt>
<trkpt lat="42.34338000" lon="1.51698000"><ele>972.5</ele></trkpt>
<trkpt lat="42.34318000" lon="1.51670000"><ele>969.6</ele></trkpt>
<trkpt lat="42.34286000" lon="1.51651000"><ele>970.3</ele></trkpt>
<trkpt lat="42.34270000" lon="1.51612000"><ele>962.8</ele></trkpt>
<trkpt lat="42.34257000" lon="1.51580000"><ele>956.4</ele></trkpt>
<trkpt lat="42.34283000" lon="1.51577000"><ele>953.2</ele></trkpt>
<trkpt lat="42.34322000" lon="1.51564000"><ele>949.2</ele></trkpt>
<trkpt lat="42.34349000" lon="1.51519000"><ele>944.6</ele></trkpt>
<trkpt lat="42.34369000" lon="1.51484000"><ele>941.7</ele></trkpt>
<trkpt lat="42.34395000" lon="1.51471000"><ele>938.2</ele></trkpt>
<trkpt lat="42.34418000" lon="1.51467000"><ele>933.9</ele></trkpt>
<trkpt lat="42.34441000" lon="1.51438000"><ele>928.6</ele></trkpt>
<trkpt lat="42.34470000" lon="1.51428000"><ele>922.0</ele></trkpt>
<trkpt lat="42.34492000" lon="1.51395000"><ele>915.3</ele></trkpt>
<trkpt lat="42.34547000" lon="1.51368000"><ele>897.6</ele></trkpt>
<trkpt lat="42.34570000" lon="1.51339000"><ele>890.0</ele></trkpt>
<trkpt lat="42.34595000" lon="1.51351000"><ele>884.1</ele></trkpt>
<trkpt lat="42.34616000" lon="1.51341000"><ele>879.2</ele></trkpt>
<trkpt lat="42.34629000" lon="1.51331000"><ele>875.6</ele></trkpt>
<trkpt lat="42.34638000" lon="1.51318000"><ele>872.5</ele></trkpt>
<trkpt lat="42.34643000" lon="1.51308000"><ele>870.6</ele></trkpt>
<trkpt lat="42.34632000" lon="1.51287000"><ele>871.6</ele></trkpt>
<trkpt lat="42.34614000" lon="1.51233000"><ele>870.7</ele></trkpt>
<trkpt lat="42.34598000" lon="1.51197000"><ele>873.1</ele></trkpt>
<trkpt lat="42.34590000" lon="1.51164000"><ele>873.3</ele></trkpt>
<trkpt lat="42.34605000" lon="1.51110000"><ele>867.7</ele></trkpt>
<trkpt lat="42.34623000" lon="1.51067000"><ele>862.5</ele></trkpt>
<trkpt lat="42.34636000" lon="1.51018000"><ele>859.6</ele></trkpt>
<trkpt lat="42.34643000" lon="1.50995000"><ele>858.6</ele></trkpt>
<trkpt lat="42.34636000" lon="1.50983000"><ele>860.6</ele></trkpt>
<trkpt lat="42.34640000" lon="1.50957000"><ele>858.6</ele></trkpt>
<trkpt lat="42.34639000" lon="1.50926000"><ele>859.0</ele></trkpt>
<trkpt lat="42.34613000" lon="1.50872000"><ele>859.0</ele></trkpt>
<trkpt lat="42.34604000" lon="1.50847000"><ele>860.1</ele></trkpt>
<trkpt lat="42.34604000" lon="1.50827000"><ele>861.9</ele></trkpt>
<trkpt lat="42.34608000" lon="1.50818000"><ele>862.2</ele></trkpt>
<trkpt lat="42.34613000" lon="1.50816000"><ele>862.2</ele></trkpt>
<trkpt lat="42.34620000" lon="1.50792000"><ele>861.4</ele></trkpt>
<trkpt lat="42.34620000" lon="1.50778000"><ele>861.2</ele></trkpt>
<trkpt lat="42.34605000" lon="1.50679000"><ele>861.8</ele></trkpt>
<trkpt lat="42.34614000" lon="1.50649000"><ele>861.1</ele></trkpt>
<trkpt lat="42.34615000" lon="1.50622000"><ele>862.4</ele></trkpt>
<trkpt lat="42.34612000" lon="1.50607000"><ele>863.0</ele></trkpt>
<trkpt lat="42.34603000" lon="1.50595000"><ele>865.8</ele></trkpt>
<trkpt lat="42.34593000" lon="1.50592000"><ele>866.9</ele></trkpt>
<trkpt lat="42.34585000" lon="1.50582000"><ele>868.3</ele></trkpt>
<trkpt lat="42.34558000" lon="1.50508000"><ele>871.8</ele></trkpt>
<trkpt lat="42.34560000" lon="1.50499000"><ele>871.8</ele></trkpt>
<trkpt lat="42.34615000" lon="1.50481000"><ele>868.7</ele></trkpt>
<trkpt lat="42.34621000" lon="1.50473000"><ele>868.0</ele></trkpt>
<trkpt lat="42.34630000" lon="1.50443000"><ele>865.7</ele></trkpt>
<trkpt lat="42.34639000" lon="1.50396000"><ele>862.3</ele></trkpt>
<trkpt lat="42.34648000" lon="1.50374000"><ele>860.6</ele></trkpt>
<trkpt lat="42.34669000" lon="1.50342000"><ele>858.1</ele></trkpt>
<trkpt lat="42.34671000" lon="1.50331000"><ele>858.1</ele></trkpt>
<trkpt lat="42.34671000" lon="1.50307000"><ele>852.8</ele></trkpt>
<trkpt lat="42.34668000" lon="1.50297000"><ele>852.8</ele></trkpt>
<trkpt lat="42.34663000" lon="1.50291000"><ele>852.8</ele></trkpt>
<trkpt lat="42.34630000" lon="1.50291000"><ele>850.0</ele></trkpt>
<trkpt lat="42.34557000" lon="1.50278000"><ele>843.3</ele></trkpt>
<trkpt lat="42.34542000" lon="1.50271000"><ele>842.3</ele></trkpt>
<trkpt lat="42.34513000" lon="1.50249000"><ele>838.4</ele></trkpt>
<trkpt lat="42.34502000" lon="1.50237000"><ele>837.5</ele></trkpt>
<trkpt lat="42.34489000" lon="1.50230000"><ele>836.5</ele></trkpt>
<trkpt lat="42.34487000" lon="1.50222000"><ele>836.1</ele></trkpt>
<trkpt lat="42.34492000" lon="1.50216000"><ele>835.0</ele></trkpt>
<trkpt lat="42.34557000" lon="1.50230000"><ele>827.5</ele></trkpt>
<trkpt lat="42.34568000" lon="1.50229000"><ele>827.1</ele></trkpt>
<trkpt lat="42.34575000" lon="1.50219000"><ele>825.0</ele></trkpt>
<trkpt lat="42.34594000" lon="1.50212000"><ele>823.5</ele></trkpt>
<trkpt lat="42.34614000" lon="1.50211000"><ele>822.8</ele></trkpt>
<trkpt lat="42.34630000" lon="1.50214000"><ele>821.5</ele></trkpt>
<trkpt lat="42.34650000" lon="1.50224000"><ele>820.8</ele></trkpt>
<trkpt lat="42.34666000" lon="1.50229000"><ele>820.2</ele></trkpt>
<trkpt lat="42.34692000" lon="1.50216000"><ele>817.0</ele></trkpt>
<trkpt lat="42.34702000" lon="1.50209000"><ele>816.4</ele></trkpt>
<trkpt lat="42.34704000" lon="1.50202000"><ele>814.3</ele></trkpt>
<trkpt lat="42.34678000" lon="1.50128000"><ele>808.0</ele></trkpt>
<trkpt lat="42.34680000" lon="1.50107000"><ele>804.9</ele></trkpt>
<trkpt lat="42.34688000" lon="1.50102000"><ele>802.7</ele></trkpt>
<trkpt lat="42.34768000" lon="1.50115000"><ele>796.6</ele></trkpt>
<trkpt lat="42.34784000" lon="1.50126000"><ele>794.4</ele></trkpt>
<trkpt lat="42.34827000" lon="1.50202000"><ele>783.2</ele></trkpt>
<trkpt lat="42.34842000" lon="1.50221000"><ele>782.3</ele></trkpt>
<trkpt lat="42.34849000" lon="1.50232000"><ele>781.0</ele></trkpt>
<trkpt lat="42.34848000" lon="1.50222000"><ele>780.4</ele></trkpt>
<trkpt lat="42.34859000" lon="1.50252000"></trkpt>
<trkpt lat="42.34859000" lon="1.50252000"><ele>780.1</ele></trkpt>
<trkpt lat="42.34872000" lon="1.50261000"><ele>779.3</ele></trkpt>
<trkpt lat="42.34893000" lon="1.50267000"><ele>776.6</ele></trkpt>
<trkpt lat="42.34905000" lon="1.50280000"><ele>775.4</ele></trkpt>
<trkpt lat="42.34926000" lon="1.50288000"><ele>771.9</ele></trkpt>
<trkpt lat="42.34989000" lon="1.50351000"><ele>765.3</ele></trkpt>
<trkpt lat="42.35013000" lon="1.50387000"><ele>765.8</ele></trkpt>
<trkpt lat="42.35029000" lon="1.50441000"><ele>766.9</ele></trkpt>
<trkpt lat="42.35039000" lon="1.50503000"><ele>766.5</ele></trkpt>
<trkpt lat="42.35040000" lon="1.50554000"><ele>766.3</ele></trkpt>
<trkpt lat="42.35047000" lon="1.50574000"><ele>765.5</ele></trkpt>
<trkpt lat="42.35075000" lon="1.50613000"><ele>765.2</ele></trkpt>
<trkpt lat="42.35075016" lon="1.50613006"><ele>765.2</ele></trkpt>
<trkpt lat="42.35071000" lon="1.50608000"><ele>765.2</ele></trkpt>
<trkpt lat="42.35075000" lon="1.50613000"><ele>765.2</ele></trkpt>
<trkpt lat="42.35089000" lon="1.50618000"><ele>764.1</ele></trkpt>
<trkpt lat="42.35112000" lon="1.50637000"><ele>761.2</ele></trkpt>
<trkpt lat="42.35128000" lon="1.50661000"><ele>759.4</ele></trkpt>
<trkpt lat="42.35128000" lon="1.50645000"><ele>758.9</ele></trkpt>
<trkpt lat="42.35149000" lon="1.50572000"><ele>754.5</ele></trkpt>
<trkpt lat="42.35155000" lon="1.50526000"><ele>749.3</ele></trkpt>
<trkpt lat="42.35158000" lon="1.50516000"><ele>749.0</ele></trkpt>
<trkpt lat="42.35158000" lon="1.50482000"><ele>748.7</ele></trkpt>
<trkpt lat="42.35158002" lon="1.50481991"><ele>748.7</ele></trkpt>
<trkpt lat="42.35158000" lon="1.50516000"><ele>749.0</ele></trkpt>
<trkpt lat="42.35194000" lon="1.50595000"><ele>750.6</ele></trkpt>
<trkpt lat="42.35219000" lon="1.50660000"><ele>753.3</ele></trkpt>
<trkpt lat="42.35219000" lon="1.50659000"><ele>753.3</ele></trkpt>
<trkpt lat="42.35223000" lon="1.50677000"><ele>753.7</ele></trkpt>
<trkpt lat="42.35232000" lon="1.50742000"><ele>756.2</ele></trkpt>
<trkpt lat="42.35234000" lon="1.50771000"><ele>758.3</ele></trkpt>
<trkpt lat="42.35234000" lon="1.50771000"><ele>758.3</ele></trkpt>
<trkpt lat="42.35205000" lon="1.50791000"><ele>760.4</ele></trkpt>
<trkpt lat="42.35200000" lon="1.50807000"><ele>761.7</ele></trkpt>
<trkpt lat="42.35199945" lon="1.50807035"><ele>761.7</ele></trkpt>
<trkpt lat="42.35200000" lon="1.50807000"><ele>761.7</ele></trkpt>
<trkpt lat="42.35189000" lon="1.50814000"><ele>764.2</ele></trkpt>
<trkpt lat="42.35173000" lon="1.50813000"><ele>765.6</ele></trkpt>
<trkpt lat="42.35142000" lon="1.50826000"><ele>768.3</ele></trkpt>
</trkseg></trk></gpx>