<?xml version="1.0" encoding="UTF-8"?>
<gpx version="1.1" creator="Xarxa de Corriols d'Alàs i Cerc - Punt 4" xmlns="http://www.topografix.com/GPX/1/1">
<metadata><name>Volta 1 - 10 km - Punt 4 - E</name></metadata><trk><name>Volta 1 - 10 km - Punt 4 - E</name><trkseg>
<trkpt lat="42.35133841" lon="1.50832496"><ele>768.5</ele></trkpt>
<trkpt lat="42.35104000" lon="1.50867000"><ele>770.8</ele></trkpt>
<trkpt lat="42.35074000" lon="1.50920000"><ele>772.9</ele></trkpt>
<trkpt lat="42.35072000" lon="1.50928000"><ele>772.9</ele></trkpt>
<trkpt lat="42.35082000" lon="1.50960000"><ele>778.0</ele></trkpt>
<trkpt lat="42.35082000" lon="1.50975000"><ele>778.0</ele></trkpt>
<trkpt lat="42.35076000" lon="1.50988000"><ele>779.0</ele></trkpt>
<trkpt lat="42.35063011" lon="1.50982005"><ele>781.1</ele></trkpt>
<trkpt lat="42.35063000" lon="1.50982000"><ele>781.1</ele></trkpt>
<trkpt lat="42.35047000" lon="1.50981000"><ele>784.4</ele></trkpt>
<trkpt lat="42.35037000" lon="1.50987000"><ele>787.6</ele></trkpt>
<trkpt lat="42.35033003" lon="1.50969012"><ele>790.0</ele></trkpt>
<trkpt lat="42.35033000" lon="1.50969000"><ele>790.0</ele></trkpt>
<trkpt lat="42.35027000" lon="1.50964000"><ele>791.4</ele></trkpt>
<trkpt lat="42.34997000" lon="1.50959000"><ele>794.2</ele></trkpt>
<trkpt lat="42.34979000" lon="1.50941000"><ele>798.6</ele></trkpt>
<trkpt lat="42.34958000" lon="1.50910000"><ele>801.8</ele></trkpt>
<trkpt lat="42.34939000" lon="1.50887000"><ele>805.2</ele></trkpt>
<trkpt lat="42.34927000" lon="1.50890000"><ele>805.2</ele></trkpt>
<trkpt lat="42.34917000" lon="1.50900000"><ele>808.3</ele></trkpt>
<trkpt lat="42.34905000" lon="1.50907000"><ele>809.6</ele></trkpt>
<trkpt lat="42.34891000" lon="1.50907000"><ele>813.3</ele></trkpt>
<trkpt lat="42.34887000" lon="1.50914000"><ele>814.0</ele></trkpt>
<trkpt lat="42.34880000" lon="1.50942000"><ele>817.3</ele></trkpt>
<trkpt lat="42.34876000" lon="1.50952000"><ele>817.3</ele></trkpt>
<trkpt lat="42.34867000" lon="1.50964000"><ele>821.1</ele></trkpt>
<trkpt lat="42.34836000" lon="1.50963000"><ele>823.8</ele></trkpt>
<trkpt lat="42.34815000" lon="1.50973000"><ele>828.0</ele></trkpt>
<trkpt lat="42.34821000" lon="1.50999000"><ele>827.6</ele></trkpt>
<trkpt lat="42.34813000" lon="1.51025000"><ele>827.2</ele></trkpt>
<trkpt lat="42.34812000" lon="1.51034000"><ele>827.1</ele></trkpt>
<trkpt lat="42.34820000" lon="1.51041000"><ele>826.7</ele></trkpt>
<trkpt lat="42.34838000" lon="1.51052000"><ele>826.6</ele></trkpt>
<trkpt lat="42.34839000" lon="1.51056000"><ele>826.6</ele></trkpt>
<trkpt lat="42.34840001" lon="1.51074983"><ele>828.8</ele></trkpt>
<trkpt lat="42.34840000" lon="1.51075000"><ele>828.8</ele></trkpt>
<trkpt lat="42.34835000" lon="1.51082000"><ele>829.6</ele></trkpt>
<trkpt lat="42.34812000" lon="1.51105000"><ele>835.7</ele></trkpt>
<trkpt lat="42.34805000" lon="1.51121000"><ele>838.0</ele></trkpt>
<trkpt lat="42.34789000" lon="1.51147000"><ele>841.2</ele></trkpt>
<trkpt lat="42.34762000" lon="1.51217000"><ele>846.6</ele></trkpt>
<trkpt lat="42.34742000" lon="1.51282000"><ele>854.0</ele></trkpt>
<trkpt lat="42.34730000" lon="1.51315000"><ele>857.3</ele></trkpt>
<trkpt lat="42.34724000" lon="1.51344000"><ele>860.1</ele></trkpt>
<trkpt lat="42.34723000" lon="1.51397000"><ele>866.1</ele></trkpt>
<trkpt lat="42.34705000" lon="1.51449000"><ele>872.4</ele></trkpt>
<trkpt lat="42.34685000" lon="1.51469000"><ele>876.4</ele></trkpt>
<trkpt lat="42.34671000" lon="1.51487000"><ele>878.1</ele></trkpt>
<trkpt lat="42.34648000" lon="1.51536000"><ele>886.3</ele></trkpt>
<trkpt lat="42.34639000" lon="1.51562000"><ele>893.9</ele></trkpt>
<trkpt lat="42.34635000" lon="1.51629000"><ele>903.7</ele></trkpt>
<trkpt lat="42.34626000" lon="1.51640000"><ele>905.6</ele></trkpt>
<trkpt lat="42.34605000" lon="1.51659000"><ele>909.6</ele></trkpt>
<trkpt lat="42.34595000" lon="1.51674000"><ele>912.3</ele></trkpt>
<trkpt lat="42.34594000" lon="1.51693000"><ele>912.3</ele></trkpt>
<trkpt lat="42.34597000" lon="1.51709000"><ele>916.0</ele></trkpt>
<trkpt lat="42.34602000" lon="1.51721000"><ele>916.0</ele></trkpt>
<trkpt lat="42.34606000" lon="1.51726000"><ele>918.3</ele></trkpt>
<trkpt lat="42.34614000" lon="1.51730000"><ele>918.9</ele></trkpt>
<trkpt lat="42.34636000" lon="1.51734000"><ele>921.2</ele></trkpt>
<trkpt lat="42.34663000" lon="1.51749000"><ele>924.2</ele></trkpt>
<trkpt lat="42.34670000" lon="1.51746000"><ele>924.2</ele></trkpt>
<trkpt lat="42.34679000" lon="1.51734000"><ele>925.1</ele></trkpt>
<trkpt lat="42.34684996" lon="1.51727005"><ele>925.5</ele></trkpt>
<trkpt lat="42.34685000" lon="1.51727000"><ele>925.5</ele></trkpt>
<trkpt lat="42.34706000" lon="1.51717000"><ele>928.0</ele></trkpt>
<trkpt lat="42.34714000" lon="1.51715000"><ele>928.0</ele></trkpt>
<trkpt lat="42.34730436" lon="1.51722305"><ele>930.1</ele></trkpt>
<trkpt lat="42.34749000" lon="1.51710000"><ele>921.6</ele></trkpt>
<trkpt lat="42.34764000" lon="1.51724000"><ele>924.7</ele></trkpt>
<trkpt lat="42.34783000" lon="1.51734000"><ele>926.3</ele></trkpt>
<trkpt lat="42.34797000" lon="1.51718000"><ele>922.8</ele></trkpt>
<trkpt lat="42.34812000" lon="1.51714000"><ele>921.9</ele></trkpt>
<trkpt lat="42.34835000" lon="1.51708000"><ele>921.1</ele></trkpt>
<trkpt lat="42.34841000" lon="1.51683000"><ele>915.2</ele></trkpt>
<trkpt lat="42.34849000" lon="1.51644000"><ele>907.4</ele></trkpt>
<trkpt lat="42.34859000" lon="1.51609000"><ele>899.3</ele></trkpt>
<trkpt lat="42.34862000" lon="1.51574000"><ele>891.2</ele></trkpt>
<trkpt lat="42.34868000" lon="1.51552000"><ele>885.8</ele></trkpt>
<trkpt lat="42.34855000" lon="1.51534000"><ele>880.5</ele></trkpt>
<trkpt lat="42.34860000" lon="1.51512000"><ele>875.2</ele></trkpt>
<trkpt lat="42.34875000" lon="1.51489000"><ele>869.2</ele></trkpt>
<trkpt lat="42.34889000" lon="1.51471000"><ele>864.7</ele></trkpt>
<trkpt lat="42.34895000" lon="1.51450000"><ele>859.9</ele></trkpt>
<trkpt lat="42.34895000" lon="1.51416000"><ele>853.2</ele></trkpt>
<trkpt lat="42.34896000" lon="1.51382000"><ele>846.3</ele></trkpt>
<trkpt lat="42.34900000" lon="1.51345000"><ele>838.1</ele></trkpt>
<trkpt lat="42.34923000" lon="1.51322000"><ele>830.2</ele></trkpt>
<trkpt lat="42.34982000" lon="1.51298000"><ele>822.3</ele></trkpt>
<trkpt lat="42.35021000" lon="1.51266000"><ele>811.1</ele></trkpt>
<trkpt lat="42.35042000" lon="1.51261000"><ele>808.0</ele></trkpt>
<trkpt lat="42.35038000" lon="1.51300000"><ele>817.7</ele></trkpt>
<trkpt lat="42.35062000" lon="1.51283000"><ele>811.2</ele></trkpt>
<trkpt lat="42.35063000" lon="1.51290000"><ele>806.4</ele></trkpt>
<trkpt lat="42.35069000" lon="1.51297000"><ele>807.8</ele></trkpt>
<trkpt lat="42.35154000" lon="1.51314000"><ele>814.4</ele></trkpt>
<trkpt lat="42.35211000" lon="1.51312000"><ele>818.9</ele></trkpt>
<trkpt lat="42.35225000" lon="1.51315000"><ele>819.6</ele></trkpt>
<trkpt lat="42.35248000" lon="1.51330000"><ele>821.8</ele></trkpt>
<trkpt lat="42.35262000" lon="1.51346000"><ele>823.7</ele></trkpt>
<trkpt lat="42.35282000" lon="1.51386000"><ele>828.5</ele></trkpt>
<trkpt lat="42.35290000" lon="1.51394000"><ele>828.5</ele></trkpt>
<trkpt lat="42.35296000" lon="1.51405000"><ele>829.5</ele></trkpt>
<trkpt lat="42.35297000" lon="1.51417000"><ele>830.4</ele></trkpt>
<trkpt lat="42.35291000" lon="1.51423000"><ele>831.2</ele></trkpt>
<trkpt lat="42.35289000" lon="1.51426000"><ele>831.2</ele></trkpt>
<trkpt lat="42.35283000" lon="1.51427000"><ele>832.8</ele></trkpt>
<trkpt lat="42.35276000" lon="1.51424000"><ele>832.8</ele></trkpt>
<trkpt lat="42.35260000" lon="1.51404000"><ele>834.6</ele></trkpt>
<trkpt lat="42.35232000" lon="1.51385000"><ele>836.1</ele></trkpt>
<trkpt lat="42.35238988" lon="1.51364010"><ele>828.5</ele></trkpt>
<trkpt lat="42.35233000" lon="1.51369000"><ele>836.1</ele></trkpt>
<trkpt lat="42.35232000" lon="1.51385000"><ele>836.1</ele></trkpt>
<trkpt lat="42.35235000" lon="1.51410000"><ele>839.5</ele></trkpt>
<trkpt lat="42.35234000" lon="1.51415000"><ele>840.2</ele></trkpt>
<trkpt lat="42.35239000" lon="1.51431000"><ele>842.3</ele></trkpt>
<trkpt lat="42.35236000" lon="1.51442000"><ele>843.0</ele></trkpt>
<trkpt lat="42.35221000" lon="1.51464000"><ele>847.9</ele></trkpt>
<trkpt lat="42.35210000" lon="1.51471000"><ele>850.5</ele></trkpt>
<trkpt lat="42.35207000" lon="1.51478000"><ele>851.4</ele></trkpt>
<trkpt lat="42.35204000" lon="1.51480000"><ele>851.4</ele></trkpt>
<trkpt lat="42.35192000" lon="1.51496000"><ele>854.1</ele></trkpt>
<trkpt lat="42.35181000" lon="1.51504000"><ele>856.5</ele></trkpt>
<trkpt lat="42.35189000" lon="1.51473000"><ele>859.5</ele></trkpt>
<trkpt lat="42.35185000" lon="1.51465000"><ele>860.5</ele></trkpt>
<trkpt lat="42.35180000" lon="1.51464000"><ele>860.5</ele></trkpt>
<trkpt lat="42.35153000" lon="1.51516000"><ele>864.8</ele></trkpt>
<trkpt lat="42.35141000" lon="1.51526000"><ele>865.6</ele></trkpt>
<trkpt lat="42.35126000" lon="1.51550000"><ele>867.1</ele></trkpt>
<trkpt lat="42.35125989" lon="1.51550007"><ele>867.1</ele></trkpt>
<trkpt lat="42.35113000" lon="1.51558000"><ele>869.8</ele></trkpt>
<trkpt lat="42.35122000" lon="1.51622000"><ele>872.6</ele></trkpt>
<trkpt lat="42.35125000" lon="1.51674000"><ele>877.3</ele></trkpt>
<trkpt lat="42.35134000" lon="1.51679000"><ele>878.0</ele></trkpt>
<trkpt lat="42.35161000" lon="1.51671000"><ele>881.7</ele></trkpt>
<trkpt lat="42.35200000" lon="1.51703000"><ele>883.3</ele></trkpt>
<trkpt lat="42.35222000" lon="1.51720000"><ele>885.0</ele></trkpt>
<trkpt lat="42.35260000" lon="1.51733000"><ele>889.3</ele></trkpt>
<trkpt lat="42.35314000" lon="1.51739000"><ele>894.7</ele></trkpt>
<trkpt lat="42.35319000" lon="1.51748000"><ele>894.7</ele></trkpt>
<trkpt lat="42.35318000" lon="1.51750000"><ele>894.7</ele></trkpt>
<trkpt lat="42.35317000" lon="1.51757000"><ele>895.6</ele></trkpt>
<trkpt lat="42.35239000" lon="1.51777000"><ele>899.9</ele></trkpt>
<trkpt lat="42.35203000" lon="1.51780000"><ele>902.1</ele></trkpt>
<trkpt lat="42.35202996" lon="1.51780001"><ele>902.1</ele></trkpt>
<trkpt lat="42.35190000" lon="1.51784000"><ele>903.2</ele></trkpt>
<trkpt lat="42.35159000" lon="1.51791000"><ele>904.3</ele></trkpt>
<trkpt lat="42.35126000" lon="1.51815000"><ele>905.8</ele></trkpt>
<trkpt lat="42.35079000" lon="1.51817000"><ele>908.7</ele></trkpt>
<trkpt lat="42.35071000" lon="1.51818000"><ele>909.0</ele></trkpt>
<trkpt lat="42.35047000" lon="1.51865000"><ele>913.9</ele></trkpt>
<trkpt lat="42.35025000" lon="1.51897000"><ele>916.1</ele></trkpt>
<trkpt lat="42.34978000" lon="1.51988000"><ele>922.8</ele></trkpt>
<trkpt lat="42.34978835" lon="1.52013064"><ele>924.3</ele></trkpt>
<trkpt lat="42.34997000" lon="1.52027000"><ele>926.9</ele></trkpt>
<trkpt lat="42.35001316" lon="1.52035200"><ele>926.0</ele></trkpt>
<trkpt lat="42.34988000" lon="1.52048000"><ele>929.3</ele></trkpt>
<trkpt lat="42.34972000" lon="1.52056000"><ele>931.9</ele></trkpt>
<trkpt lat="42.34969000" lon="1.52072000"><ele>933.7</ele></trkpt>
<trkpt lat="42.34968000" lon="1.52095000"><ele>934.6</ele></trkpt>
<trkpt lat="42.34961000" lon="1.52113000"><ele>936.1</ele></trkpt>
<trkpt lat="42.34954000" lon="1.52090000"><ele>936.3</ele></trkpt>
<trkpt lat="42.34943000" lon="1.52061000"><ele>937.1</ele></trkpt>
<trkpt lat="42.34935000" lon="1.52075000"><ele>938.8</ele></trkpt>
<trkpt lat="42.34921000" lon="1.52089000"><ele>942.0</ele></trkpt>
<trkpt lat="42.34888000" lon="1.52111000"><ele>950.8</ele></trkpt>
<trkpt lat="42.34867000" lon="1.52112000"><ele>957.0</ele></trkpt>
<trkpt lat="42.34864000" lon="1.52150000"><ele>960.9</ele></trkpt>
<trkpt lat="42.34850000" lon="1.52162000"><ele>966.0</ele></trkpt>
<trkpt lat="42.34839000" lon="1.52186000"><ele>972.1</ele></trkpt>
<trkpt lat="42.34841000" lon="1.52217000"><ele>975.4</ele></trkpt>
<trkpt lat="42.34839000" lon="1.52259000"><ele>979.1</ele></trkpt>
<trkpt lat="42.34836000" lon="1.52296000"><ele>982.9</ele></trkpt>
<trkpt lat="42.34841009" lon="1.52291998"><ele>980.6</ele></trkpt>
<trkpt lat="42.34841000" lon="1.52292000"><ele>980.6</ele></trkpt>
<trkpt lat="42.34829000" lon="1.52301000"><ele>985.3</ele></trkpt>
<trkpt lat="42.34815000" lon="1.52304000"><ele>989.9</ele></trkpt>
<trkpt lat="42.34805000" lon="1.52313000"><ele>993.7</ele></trkpt>
<trkpt lat="42.34798000" lon="1.52310000"><ele>995.9</ele></trkpt>
<trkpt lat="42.34789000" lon="1.52302000"><ele>998.4</ele></trkpt>
<trkpt lat="42.34778000" lon="1.52288000"><ele>1000.8</ele></trkpt>
<trkpt lat="42.34770000" lon="1.52288000"><ele>1002.6</ele></trkpt>
<trkpt lat="42.34760000" lon="1.52284000"><ele>1004.2</ele></trkpt>
<trkpt lat="42.34763002" lon="1.52282969"><ele>1006.2</ele></trkpt>
<trkpt lat="42.34763000" lon="1.52283000"><ele>1006.3</ele></trkpt>
<trkpt lat="42.34749000" lon="1.52291000"><ele>1009.1</ele></trkpt>
<trkpt lat="42.34748000" lon="1.52299000"><ele>1010.0</ele></trkpt>
<trkpt lat="42.34754000" lon="1.52303000"><ele>1010.0</ele></trkpt>
<trkpt lat="42.34763000" lon="1.52334000"><ele>1015.1</ele></trkpt>
<trkpt lat="42.34762000" lon="1.52345000"><ele>1018.0</ele></trkpt>
<trkpt lat="42.34756000" lon="1.52344000"><ele>1019.9</ele></trkpt>
<trkpt lat="42.34749000" lon="1.52338000"><ele>1019.9</ele></trkpt>
<trkpt lat="42.34746000" lon="1.52343000"><ele>1021.7</ele></trkpt>
<trkpt lat="42.34746000" lon="1.52349000"><ele>1021.7</ele></trkpt>
<trkpt lat="42.34753000" lon="1.52368000"><ele>1027.7</ele></trkpt>
<trkpt lat="42.34746000" lon="1.52372000"><ele>1027.7</ele></trkpt>
<trkpt lat="42.34737000" lon="1.52366000"><ele>1029.6</ele></trkpt>
<trkpt lat="42.34729000" lon="1.52367000"><ele>1029.6</ele></trkpt>
<trkpt lat="42.34728000" lon="1.52373000"><ele>1029.6</ele></trkpt>
<trkpt lat="42.34731000" lon="1.52388000"><ele>1035.5</ele></trkpt>
<trkpt lat="42.34726000" lon="1.52428000"><ele>1039.6</ele></trkpt>
<trkpt lat="42.34730000" lon="1.52450000"><ele>1043.6</ele></trkpt>
<trkpt lat="42.34715000" lon="1.52493000"><ele>1051.5</ele></trkpt>
<trkpt lat="42.34706000" lon="1.52536000"><ele>1057.5</ele></trkpt>
<trkpt lat="42.34696000" lon="1.52547000"><ele>1059.7</ele></trkpt>
<trkpt lat="42.34682000" lon="1.52547000"><ele>1061.4</ele></trkpt>
<trkpt lat="42.34675000" lon="1.52540000"><ele>1065.9</ele></trkpt>
<trkpt lat="42.34670000" lon="1.52541000"><ele>1065.9</ele></trkpt>
<trkpt lat="42.34664000" lon="1.52549000"><ele>1065.9</ele></trkpt>
<trkpt lat="42.34659000" lon="1.52549000"><ele>1065.9</ele></trkpt>
<trkpt lat="42.34646000" lon="1.52539000"><ele>1070.1</ele></trkpt>
<trkpt lat="42.34627000" lon="1.52537000"><ele>1074.8</ele></trkpt>
<trkpt lat="42.34620000" lon="1.52539000"><ele>1074.8</ele></trkpt>
<trkpt lat="42.34626000" lon="1.52547000"><ele>1078.0</ele></trkpt>
<trkpt lat="42.34627000" lon="1.52562000"><ele>1081.0</ele></trkpt>
<trkpt lat="42.34618000" lon="1.52580000"><ele>1083.3</ele></trkpt>
<trkpt lat="42.34598000" lon="1.52603000"><ele>1086.3</ele></trkpt>
<trkpt lat="42.34583000" lon="1.52616000"><ele>1089.5</ele></trkpt>
<trkpt lat="42.34561000" lon="1.52629000"><ele>1093.0</ele></trkpt>
<trkpt lat="42.34546000" lon="1.52622000"><ele>1094.7</ele></trkpt>
<trkpt lat="42.34533000" lon="1.52618000"><ele>1095.8</ele></trkpt>
<trkpt lat="42.34481000" lon="1.52659000"><ele>1104.5</ele></trkpt>
<trkpt lat="42.34458000" lon="1.52675000"><ele>1105.9</ele></trkpt>
<trkpt lat="42.34400000" lon="1.52690000"><ele>1106.2</ele></trkpt>
<trkpt lat="42.34377000" lon="1.52679000"><ele>1106.7</ele></trkpt>
<trkpt lat="42.34344000" lon="1.52631000"><ele>1109.0</ele></trkpt>
<trkpt lat="42.34320000" lon="1.52585000"><ele>1111.4</ele></trkpt>
<trkpt lat="42.34245000" lon="1.52558000"><ele>1117.7</ele></trkpt>
<trkpt lat="42.34244988" lon="1.52558003"><ele>1117.7</ele></trkpt>
<trkpt lat="42.34228000" lon="1.52562000"><ele>1120.3</ele></trkpt>
<trkpt lat="42.34211000" lon="1.52542000"><ele>1118.3</ele></trkpt>
<trkpt lat="42.34177000" lon="1.52521000"><ele>1114.1</ele></trkpt>
<trkpt lat="42.34170000" lon="1.52514000"><ele>1113.7</ele></trkpt>
<trkpt lat="42.34169000" lon="1.52497000"><ele>1114.1</ele></trkpt>
<trkpt lat="42.34174000" lon="1.52478000"><ele>1115.0</ele></trkpt>
<trkpt lat="42.34198000" lon="1.52430000"><ele>1119.7</ele></trkpt>
<trkpt lat="42.34204000" lon="1.52413000"><ele>1120.0</ele></trkpt>
<trkpt lat="42.34207000" lon="1.52392000"><ele>1120.7</ele></trkpt>
<trkpt lat="42.34206000" lon="1.52371000"><ele>1121.0</ele></trkpt>
<trkpt lat="42.34194000" lon="1.52352000"><ele>1121.8</ele></trkpt>
<trkpt lat="42.34178000" lon="1.52317000"><ele>1123.2</ele></trkpt>
<trkpt lat="42.34158000" lon="1.52289000"><ele>1125.0</ele></trkpt>
<trkpt lat="42.34133000" lon="1.52263000"><ele>1125.5</ele></trkpt>
<trkpt lat="42.34096000" lon="1.52231000"><ele>1124.0</ele></trkpt>
<trkpt lat="42.34069000" lon="1.52213000"><ele>1122.2</ele></trkpt>
<trkpt lat="42.33996000" lon="1.52182000"><ele>1118.8</ele></trkpt>
<trkpt lat="42.33986000" lon="1.52169000"><ele>1118.0</ele></trkpt>
<trkpt lat="42.33987000" lon="1.52169000"><ele>1118.0</ele></trkpt>
<trkpt lat="42.33982000" lon="1.52162000"><ele>1117.8</ele></trkpt>
<trkpt lat="42.33980000" lon="1.52140000"><ele>1118.2</ele></trkpt>
<trkpt lat="42.33983000" lon="1.52107000"><ele>1121.0</ele></trkpt>
<trkpt lat="42.33980000" lon="1.52071000"><ele>1122.2</ele></trkpt>
<trkpt lat="42.33967037" lon="1.52057040"><ele>1122.5</ele></trkpt>
<trkpt lat="42.33960000" lon="1.52035000"><ele>1121.9</ele></trkpt>
<trkpt lat="42.33992000" lon="1.52013000"><ele>1114.5</ele></trkpt>
<trkpt lat="42.34022000" lon="1.51970000"><ele>1096.9</ele></trkpt>
<trkpt lat="42.34045000" lon="1.51944000"><ele>1083.2</ele></trkpt>
<trkpt lat="42.34067000" lon="1.51951000"><ele>1077.0</ele></trkpt>
<trkpt lat="42.34083000" lon="1.51978000"><ele>1076.2</ele></trkpt>
<trkpt lat="42.34091000" lon="1.51952000"><ele>1068.1</ele></trkpt>
<trkpt lat="42.34095000" lon="1.51922000"><ele>1062.0</ele></trkpt>
<trkpt lat="42.34094000" lon="1.51882000"><ele>1053.6</ele></trkpt>
<trkpt lat="42.34126000" lon="1.51883000"><ele>1048.4</ele></trkpt>
<trkpt lat="42.34138000" lon="1.51907000"><ele>1051.5</ele></trkpt>
<trkpt lat="42.34153000" lon="1.51894000"><ele>1047.7</ele></trkpt>
<trkpt lat="42.34179000" lon="1.51876000"><ele>1041.8</ele></trkpt>
<trkpt lat="42.34204000" lon="1.51878000"><ele>1039.2</ele></trkpt>
<trkpt lat="42.34228000" lon="1.51894000"><ele>1035.6</ele></trkpt>
<trkpt lat="42.34248000" lon="1.51882000"><ele>1028.2</ele></trkpt>
<trkpt lat="42.34257000" lon="1.51822000"><ele>1015.8</ele></trkpt>
<trkpt lat="42.34254000" lon="1.51780000"><ele>1008.0</ele></trkpt>
<trkpt lat="42.34246000" lon="1.51746000"><ele>1001.3</ele></trkpt>
<trkpt lat="42.34236000" lon="1.51715000"><ele>994.4</ele></trkpt>
<trkpt lat="42.34255000" lon="1.51692000"><ele>984.5</ele></trkpt>
<trkpt lat="42.34297000" lon="1.51705000"><ele>981.2</ele></trkpt>
<trkpt lat="42.34322000" lon="1.51720000"><ele>980.4</ele></trkpt>
<trkpt lat="42.34350000" lon="1.51732000"><ele>976.7</ele></trkpt>
<trkpt lat="42.34338000" lon="1.51698000"><ele>972.5</ele></trkpt>
<trkpt lat="42.34318000" lon="1.51670000"><ele>969.6</ele></trkpt>
<trkpt lat="42.34286000" lon="1.51651000"><ele>970.3</ele></trkpt>
<trkpt lat="42.34270000" lon="1.51612000"><ele>962.8</ele></trkpt>
<trkpt lat="42.34257000" lon="1.51580000"><ele>956.4</ele></trkpt>
<trkpt lat="42.34283000" lon="1.51577000"><ele>953.2</ele></trkpt>
<trkpt lat="42.34322000" lon="1.51564000"><ele>949.2</ele></trkpt>
<trkpt lat="42.34349000" lon="1.51519000"><ele>944.6</ele></trkpt>
<trkpt lat="42.34369000" lon="1.51484000"><ele>941.7</ele></trkpt>
<trkpt lat="42.34395000" lon="1.51471000"><ele>938.2</ele></trkpt>
<trkpt lat="42.34418000" lon="1.51467000"><ele>933.9</ele></trkpt>
<trkpt lat="42.34441000" lon="1.51438000"><ele>928.6</ele></trkpt>
<trkpt lat="42.34470000" lon="1.51428000"><ele>922.0</ele></trkpt>
<trkpt lat="42.34492000" lon="1.51395000"><ele>915.3</ele></trkpt>
<trkpt lat="42.34547000" lon="1.51368000"><ele>897.6</ele></trkpt>
<trkpt lat="42.34570000" lon="1.51339000"><ele>890.0</ele></trkpt>
<trkpt lat="42.34595000" lon="1.51351000"><ele>884.1</ele></trkpt>
<trkpt lat="42.34616000" lon="1.51341000"><ele>879.2</ele></trkpt>
<trkpt lat="42.34629000" lon="1.51331000"><ele>875.6</ele></trkpt>
<trkpt lat="42.34638000" lon="1.51318000"><ele>872.5</ele></trkpt>
<trkpt lat="42.34643000" lon="1.51308000"><ele>870.6</ele></trkpt>
<trkpt lat="42.34632000" lon="1.51287000"><ele>871.6</ele></trkpt>
<trkpt lat="42.34614000" lon="1.51233000"><ele>870.7</ele></trkpt>
<trkpt lat="42.34598000" lon="1.51197000"><ele>873.1</ele></trkpt>
<trkpt lat="42.34590000" lon="1.51164000"><ele>873.3</ele></trkpt>
<trkpt lat="42.34605000" lon="1.51110000"><ele>867.7</ele></trkpt>
<trkpt lat="42.34623000" lon="1.51067000"><ele>862.5</ele></trkpt>
<trkpt lat="42.34636000" lon="1.51018000"><ele>859.6</ele></trkpt>
<trkpt lat="42.34643000" lon="1.50995000"><ele>858.6</ele></trkpt>
<trkpt lat="42.34636000" lon="1.50983000"><ele>860.6</ele></trkpt>
<trkpt lat="42.34640000" lon="1.50957000"><ele>858.6</ele></trkpt>
<trkpt lat="42.34639000" lon="1.50926000"><ele>859.0</ele></trkpt>
<trkpt lat="42.34613000" lon="1.50872000"><ele>859.0</ele></trkpt>
<trkpt lat="42.34604000" lon="1.50847000"><ele>860.1</ele></trkpt>
<trkpt lat="42.34604000" lon="1.50827000"><ele>861.9</ele></trkpt>
<trkpt lat="42.34608000" lon="1.50818000"><ele>862.2</ele></trkpt>
<trkpt lat="42.34613000" lon="1.50816000"><ele>862.2</ele></trkpt>
<trkpt lat="42.34620000" lon="1.50792000"><ele>861.4</ele></trkpt>
<trkpt lat="42.34620000" lon="1.50778000"><ele>861.2</ele></trkpt>
<trkpt lat="42.34605000" lon="1.50679000"><ele>861.8</ele></trkpt>
<trkpt lat="42.34614000" lon="1.50649000"><ele>861.1</ele></trkpt>
<trkpt lat="42.34615000" lon="1.50622000"><ele>862.4</ele></trkpt>
<trkpt lat="42.34612000" lon="1.50607000"><ele>863.0</ele></trkpt>
<trkpt lat="42.34603000" lon="1.50595000"><ele>865.8</ele></trkpt>
<trkpt lat="42.34593000" lon="1.50592000"><ele>866.9</ele></trkpt>
<trkpt lat="42.34585000" lon="1.50582000"><ele>868.3</ele></trkpt>
<trkpt lat="42.34558000" lon="1.50508000"><ele>871.8</ele></trkpt>
<trkpt lat="42.34560000" lon="1.50499000"><ele>871.8</ele></trkpt>
<trkpt lat="42.34615000" lon="1.50481000"><ele>868.7</ele></trkpt>
<trkpt lat="42.34621000" lon="1.50473000"><ele>868.0</ele></trkpt>
<trkpt lat="42.34630000" lon="1.50443000"><ele>865.7</ele></trkpt>
<trkpt lat="42.34639000" lon="1.50396000"><ele>862.3</ele></trkpt>
<trkpt lat="42.34648000" lon="1.50374000"><ele>860.6</ele></trkpt>
<trkpt lat="42.34669000" lon="1.50342000"><ele>858.1</ele></trkpt>
<trkpt lat="42.34671000" lon="1.50331000"><ele>858.1</ele></trkpt>
<trkpt lat="42.34671000" lon="1.50307000"><ele>852.8</ele></trkpt>
<trkpt lat="42.34668000" lon="1.50297000"><ele>852.8</ele></trkpt>
<trkpt lat="42.34663000" lon="1.50291000"><ele>852.8</ele></trkpt>
<trkpt lat="42.34630000" lon="1.50291000"><ele>850.0</ele></trkpt>
<trkpt lat="42.34557000" lon="1.50278000"><ele>843.3</ele></trkpt>
<trkpt lat="42.34542000" lon="1.50271000"><ele>842.3</ele></trkpt>
<trkpt lat="42.34513000" lon="1.50249000"><ele>838.4</ele></trkpt>
<trkpt lat="42.34502000" lon="1.50237000"><ele>837.5</ele></trkpt>
<trkpt lat="42.34489000" lon="1.50230000"><ele>836.5</ele></trkpt>
<trkpt lat="42.34487000" lon="1.50222000"><ele>836.1</ele></trkpt>
<trkpt lat="42.34492000" lon="1.50216000"><ele>835.0</ele></trkpt>
<trkpt lat="42.34557000" lon="1.50230000"><ele>827.5</ele></trkpt>
<trkpt lat="42.34568000" lon="1.50229000"><ele>827.1</ele></trkpt>
<trkpt lat="42.34575000" lon="1.50219000"><ele>825.0</ele></trkpt>
<trkpt lat="42.34594000" lon="1.50212000"><ele>823.5</ele></trkpt>
<trkpt lat="42.34614000" lon="1.50211000"><ele>822.8</ele></trkpt>
<trkpt lat="42.34630000" lon="1.50214000"><ele>821.5</ele></trkpt>
<trkpt lat="42.34650000" lon="1.50224000"><ele>820.8</ele></trkpt>
<trkpt lat="42.34666000" lon="1.50229000"><ele>820.2</ele></trkpt>
<trkpt lat="42.34692000" lon="1.50216000"><ele>817.0</ele></trkpt>
<trkpt lat="42.34702000" lon="1.50209000"><ele>816.4</ele></trkpt>
<trkpt lat="42.34704000" lon="1.50202000"><ele>814.3</ele></trkpt>
<trkpt lat="42.34678000" lon="1.50128000"><ele>808.0</ele></trkpt>
<trkpt lat="42.34680000" lon="1.50107000"><ele>804.9</ele></trkpt>
<trkpt lat="42.34688000" lon="1.50102000"><ele>802.7</ele></trkpt>
<trkpt lat="42.34768000" lon="1.50115000"><ele>796.6</ele></trkpt>
<trkpt lat="42.34784000" lon="1.50126000"><ele>794.4</ele></trkpt>
<trkpt lat="42.34827000" lon="1.50202000"><ele>783.2</ele></trkpt>
<trkpt lat="42.34842000" lon="1.50221000"><ele>782.3</ele></trkpt>
<trkpt lat="42.34849000" lon="1.50232000"><ele>781.0</ele></trkpt>
<trkpt lat="42.34848000" lon="1.50222000"><ele>780.4</ele></trkpt>
<trkpt lat="42.34859000" lon="1.50252000"></trkpt>
<trkpt lat="42.34859000" lon="1.50252000"><ele>780.1</ele></trkpt>
<trkpt lat="42.34872000" lon="1.50261000"><ele>779.3</ele></trkpt>
<trkpt lat="42.34893000" lon="1.50267000"><ele>776.6</ele></trkpt>
<trkpt lat="42.34905000" lon="1.50280000"><ele>775.4</ele></trkpt>
<trkpt lat="42.34926000" lon="1.50288000"><ele>771.9</ele></trkpt>
<trkpt lat="42.34989000" lon="1.50351000"><ele>765.3</ele></trkpt>
<trkpt lat="42.35013000" lon="1.50387000"><ele>765.8</ele></trkpt>
<trkpt lat="42.35029000" lon="1.50441000"><ele>766.9</ele></trkpt>
<trkpt lat="42.35039000" lon="1.50503000"><ele>766.5</ele></trkpt>
<trkpt lat="42.35040000" lon="1.50554000"><ele>766.3</ele></trkpt>
<trkpt lat="42.35047000" lon="1.50574000"><ele>765.5</ele></trkpt>
<trkpt lat="42.35075000" lon="1.50613000"><ele>765.2</ele></trkpt>
<trkpt lat="42.35075016" lon="1.50613006"><ele>765.2</ele></trkpt>
<trkpt lat="42.35071000" lon="1.50608000"><ele>765.2</ele></trkpt>
<trkpt lat="42.35075000" lon="1.50561000"><ele>762.7</ele></trkpt>
<trkpt lat="42.35059000" lon="1.50482000"><ele>761.6</ele></trkpt>
<trkpt lat="42.35098000" lon="1.50468000"><ele>752.4</ele></trkpt>
<trkpt lat="42.35147000" lon="1.50449000"><ele>749.0</ele></trkpt>
<trkpt lat="42.35156000" lon="1.50452000"><ele>748.7</ele></trkpt>
<trkpt lat="42.35156000" lon="1.50452001"><ele>748.7</ele></trkpt>
<trkpt lat="42.35158019" lon="1.50481929"><ele>748.7</ele></trkpt>
<trkpt lat="42.35158000" lon="1.50482000"><ele>748.7</ele></trkpt>
<trkpt lat="42.35158000" lon="1.50516000"><ele>749.0</ele></trkpt>
<trkpt lat="42.35194000" lon="1.50595000"><ele>750.8</ele></trkpt>
<trkpt lat="42.35218000" lon="1.50655000"><ele>753.7</ele></trkpt>
<trkpt lat="42.35223000" lon="1.50677000"><ele>753.7</ele></trkpt>
<trkpt lat="42.35232000" lon="1.50742000"><ele>757.6</ele></trkpt>
<trkpt lat="42.35233999" lon="1.50770986"><ele>758.3</ele></trkpt>
<trkpt lat="42.35205000" lon="1.50791000"><ele>760.4</ele></trkpt>
<trkpt lat="42.35200001" lon="1.50806997"><ele>761.7</ele></trkpt>
<trkpt lat="42.35200000" lon="1.50807000"><ele>761.7</ele></trkpt>
<trkpt lat="42.35189000" lon="1.50814000"><ele>764.2</ele></trkpt>
<trkpt lat="42.35173000" lon="1.50813000"><ele>765.6</ele></trkpt>
<trkpt lat="42.35142000" lon="1.50826000"><ele>768.3</ele></trkpt>
</trkseg></trk></gpx>