<?xml version="1.0" encoding="UTF-8"?>
<gpx version="1.1" creator="Xarxa de Corriols d'Alàs i Cerc - Punt 4" xmlns="http://www.topografix.com/GPX/1/1">
<metadata><name>Volta 8 - 10 km - EST - candidata</name></metadata><trk><name>Volta 8 - 10 km - EST - candidata</name><trkseg>
<trkpt lat="42.35133841" lon="1.50832496"><ele>768.5</ele></trkpt>
<trkpt lat="42.35104000" lon="1.50867000"><ele>770.8</ele></trkpt>
<trkpt lat="42.35074000" lon="1.50920000"><ele>772.9</ele></trkpt>
<trkpt lat="42.35072000" lon="1.50928000"><ele>772.9</ele></trkpt>
<trkpt lat="42.35082000" lon="1.50960000"><ele>778.0</ele></trkpt>
<trkpt lat="42.35082000" lon="1.50975000"><ele>778.0</ele></trkpt>
<trkpt lat="42.35076000" lon="1.50988000"><ele>779.0</ele></trkpt>
<trkpt lat="42.35063011" lon="1.50982005"><ele>781.1</ele></trkpt>
<trkpt lat="42.35063000" lon="1.50982000"><ele>781.1</ele></trkpt>
<trkpt lat="42.35047000" lon="1.50981000"><ele>784.4</ele></trkpt>
<trkpt lat="42.35037000" lon="1.50987000"><ele>787.6</ele></trkpt>
<trkpt lat="42.35033003" lon="1.50969016"><ele>790.0</ele></trkpt>
<trkpt lat="42.35037000" lon="1.50987000"><ele>787.6</ele></trkpt>
<trkpt lat="42.35031000" lon="1.51023000"><ele>788.6</ele></trkpt>
<trkpt lat="42.35002000" lon="1.51082000"><ele>792.7</ele></trkpt>
<trkpt lat="42.34982000" lon="1.51138000"><ele>791.4</ele></trkpt>
<trkpt lat="42.34983000" lon="1.51146000"><ele>791.2</ele></trkpt>
<trkpt lat="42.34987000" lon="1.51151000"><ele>790.5</ele></trkpt>
<trkpt lat="42.34999000" lon="1.51147000"><ele>789.3</ele></trkpt>
<trkpt lat="42.35009000" lon="1.51138000"><ele>788.5</ele></trkpt>
<trkpt lat="42.35010005" lon="1.51121986"><ele>788.5</ele></trkpt>
<trkpt lat="42.35013000" lon="1.51114000"><ele>788.5</ele></trkpt>
<trkpt lat="42.35042000" lon="1.51087000"><ele>784.4</ele></trkpt>
<trkpt lat="42.35046000" lon="1.51087000"><ele>784.4</ele></trkpt>
<trkpt lat="42.35054000" lon="1.51093000"><ele>782.6</ele></trkpt>
<trkpt lat="42.35061000" lon="1.51095000"><ele>782.6</ele></trkpt>
<trkpt lat="42.35140000" lon="1.51070000"><ele>771.6</ele></trkpt>
<trkpt lat="42.35152000" lon="1.51068000"><ele>770.1</ele></trkpt>
<trkpt lat="42.35191000" lon="1.51068000"><ele>766.9</ele></trkpt>
<trkpt lat="42.35256000" lon="1.51075000"><ele>763.2</ele></trkpt>
<trkpt lat="42.35277000" lon="1.51082000"><ele>759.3</ele></trkpt>
<trkpt lat="42.35288000" lon="1.51092000"><ele>759.3</ele></trkpt>
<trkpt lat="42.35294000" lon="1.51108000"><ele>757.2</ele></trkpt>
<trkpt lat="42.35295000" lon="1.51118000"><ele>756.1</ele></trkpt>
<trkpt lat="42.35294000" lon="1.51136000"><ele>754.3</ele></trkpt>
<trkpt lat="42.35297000" lon="1.51146000"><ele>754.3</ele></trkpt>
<trkpt lat="42.35303000" lon="1.51148000"><ele>754.3</ele></trkpt>
<trkpt lat="42.35309000" lon="1.51146000"><ele>749.7</ele></trkpt>
<trkpt lat="42.35367999" lon="1.51111000"><ele>744.0</ele></trkpt>
<trkpt lat="42.35375000" lon="1.51104000"><ele>742.8</ele></trkpt>
<trkpt lat="42.35421500" lon="1.51170000"><ele>742.2</ele></trkpt>
<trkpt lat="42.35468000" lon="1.51236000"><ele>743.1</ele></trkpt>
<trkpt lat="42.35454000" lon="1.51270000"><ele>745.2</ele></trkpt>
<trkpt lat="42.35450000" lon="1.51283000"><ele>746.6</ele></trkpt>
<trkpt lat="42.35483000" lon="1.51283000"><ele>752.5</ele></trkpt>
<trkpt lat="42.35516000" lon="1.51328000"><ele>761.2</ele></trkpt>
<trkpt lat="42.35549500" lon="1.51416500"><ele>778.7</ele></trkpt>
<trkpt lat="42.35583000" lon="1.51505000"><ele>794.6</ele></trkpt>
<trkpt lat="42.35623000" lon="1.51579000"><ele>804.0</ele></trkpt>
<trkpt lat="42.35628000" lon="1.51615000"><ele>810.6</ele></trkpt>
<trkpt lat="42.35585000" lon="1.51567000"><ele>812.7</ele></trkpt>
<trkpt lat="42.35535000" lon="1.51519000"><ele>816.2</ele></trkpt>
<trkpt lat="42.35495000" lon="1.51474000"><ele>818.4</ele></trkpt>
<trkpt lat="42.35476000" lon="1.51462000"><ele>819.7</ele></trkpt>
<trkpt lat="42.35459000" lon="1.51458000"><ele>820.4</ele></trkpt>
<trkpt lat="42.35411500" lon="1.51456500"><ele>821.0</ele></trkpt>
<trkpt lat="42.35364000" lon="1.51455000"><ele>820.8</ele></trkpt>
<trkpt lat="42.35323000" lon="1.51457000"><ele>821.4</ele></trkpt>
<trkpt lat="42.35317000" lon="1.51453000"><ele>821.4</ele></trkpt>
<trkpt lat="42.35314000" lon="1.51439000"><ele>822.1</ele></trkpt>
<trkpt lat="42.35317000" lon="1.51419000"><ele>822.6</ele></trkpt>
<trkpt lat="42.35316000" lon="1.51407000"><ele>822.6</ele></trkpt>
<trkpt lat="42.35312000" lon="1.51397000"><ele>824.0</ele></trkpt>
<trkpt lat="42.35304000" lon="1.51388000"><ele>824.6</ele></trkpt>
<trkpt lat="42.35278000" lon="1.51376000"><ele>826.5</ele></trkpt>
<trkpt lat="42.35262000" lon="1.51346000"><ele>823.7</ele></trkpt>
<trkpt lat="42.35282000" lon="1.51386000"><ele>828.5</ele></trkpt>
<trkpt lat="42.35290000" lon="1.51394000"><ele>828.5</ele></trkpt>
<trkpt lat="42.35296000" lon="1.51405000"><ele>829.5</ele></trkpt>
<trkpt lat="42.35297000" lon="1.51417000"><ele>830.4</ele></trkpt>
<trkpt lat="42.35291000" lon="1.51423000"><ele>831.2</ele></trkpt>
<trkpt lat="42.35289000" lon="1.51426000"><ele>831.2</ele></trkpt>
<trkpt lat="42.35283000" lon="1.51427000"><ele>832.8</ele></trkpt>
<trkpt lat="42.35276000" lon="1.51424000"><ele>832.8</ele></trkpt>
<trkpt lat="42.35260000" lon="1.51404000"><ele>834.6</ele></trkpt>
<trkpt lat="42.35232000" lon="1.51385000"><ele>836.1</ele></trkpt>
<trkpt lat="42.35208000" lon="1.51373000"><ele>838.9</ele></trkpt>
<trkpt lat="42.35190000" lon="1.51372000"><ele>839.6</ele></trkpt>
<trkpt lat="42.35166000" lon="1.51386000"><ele>841.6</ele></trkpt>
<trkpt lat="42.35108000" lon="1.51391000"><ele>846.1</ele></trkpt>
<trkpt lat="42.35049000" lon="1.51402000"><ele>851.5</ele></trkpt>
<trkpt lat="42.35047000" lon="1.51405000"><ele>851.5</ele></trkpt>
<trkpt lat="42.35025000" lon="1.51433000"><ele>853.9</ele></trkpt>
<trkpt lat="42.35010000" lon="1.51437000"><ele>855.2</ele></trkpt>
<trkpt lat="42.35007000" lon="1.51442000"><ele>856.5</ele></trkpt>
<trkpt lat="42.35008000" lon="1.51450000"><ele>856.5</ele></trkpt>
<trkpt lat="42.35013000" lon="1.51454000"><ele>857.4</ele></trkpt>
<trkpt lat="42.35034000" lon="1.51449000"><ele>858.8</ele></trkpt>
<trkpt lat="42.35048000" lon="1.51451000"><ele>860.0</ele></trkpt>
<trkpt lat="42.35101000" lon="1.51471000"><ele>863.9</ele></trkpt>
<trkpt lat="42.35111000" lon="1.51485000"><ele>865.9</ele></trkpt>
<trkpt lat="42.35121000" lon="1.51522000"><ele>868.0</ele></trkpt>
<trkpt lat="42.35113000" lon="1.51558000"><ele>869.8</ele></trkpt>
<trkpt lat="42.35122000" lon="1.51622000"><ele>872.6</ele></trkpt>
<trkpt lat="42.35125000" lon="1.51674000"><ele>877.3</ele></trkpt>
<trkpt lat="42.35134000" lon="1.51679000"><ele>878.0</ele></trkpt>
<trkpt lat="42.35161000" lon="1.51671000"><ele>881.7</ele></trkpt>
<trkpt lat="42.35200000" lon="1.51703000"><ele>883.3</ele></trkpt>
<trkpt lat="42.35208000" lon="1.51730000"><ele>890.0</ele></trkpt>
<trkpt lat="42.35190000" lon="1.51784000"><ele>903.2</ele></trkpt>
<trkpt lat="42.35159000" lon="1.51791000"><ele>904.3</ele></trkpt>
<trkpt lat="42.35126000" lon="1.51815000"><ele>905.8</ele></trkpt>
<trkpt lat="42.35079000" lon="1.51817000"><ele>908.7</ele></trkpt>
<trkpt lat="42.35071000" lon="1.51818000"><ele>909.0</ele></trkpt>
<trkpt lat="42.35047000" lon="1.51865000"><ele>913.9</ele></trkpt>
<trkpt lat="42.35025000" lon="1.51897000"><ele>916.1</ele></trkpt>
<trkpt lat="42.34978000" lon="1.51988000"><ele>922.8</ele></trkpt>
<trkpt lat="42.34978835" lon="1.52013064"><ele>924.3</ele></trkpt>
<trkpt lat="42.34997000" lon="1.52027000"><ele>926.9</ele></trkpt>
<trkpt lat="42.35001316" lon="1.52035200"><ele>926.0</ele></trkpt>
<trkpt lat="42.34988000" lon="1.52048000"><ele>929.3</ele></trkpt>
<trkpt lat="42.34972000" lon="1.52056000"><ele>931.9</ele></trkpt>
<trkpt lat="42.34969000" lon="1.52072000"><ele>933.7</ele></trkpt>
<trkpt lat="42.34968000" lon="1.52095000"><ele>934.6</ele></trkpt>
<trkpt lat="42.34961000" lon="1.52113000"><ele>936.1</ele></trkpt>
<trkpt lat="42.34954000" lon="1.52090000"><ele>936.3</ele></trkpt>
<trkpt lat="42.34943000" lon="1.52061000"><ele>937.1</ele></trkpt>
<trkpt lat="42.34935000" lon="1.52075000"><ele>938.8</ele></trkpt>
<trkpt lat="42.34921000" lon="1.52089000"><ele>942.0</ele></trkpt>
<trkpt lat="42.34888000" lon="1.52111000"><ele>950.8</ele></trkpt>
<trkpt lat="42.34867000" lon="1.52112000"><ele>957.0</ele></trkpt>
<trkpt lat="42.34864000" lon="1.52150000"><ele>960.9</ele></trkpt>
<trkpt lat="42.34850000" lon="1.52162000"><ele>966.0</ele></trkpt>
<trkpt lat="42.34839000" lon="1.52186000"><ele>972.1</ele></trkpt>
<trkpt lat="42.34841000" lon="1.52217000"><ele>975.4</ele></trkpt>
<trkpt lat="42.34839000" lon="1.52259000"><ele>979.1</ele></trkpt>
<trkpt lat="42.34836000" lon="1.52296000"><ele>982.9</ele></trkpt>
<trkpt lat="42.34841009" lon="1.52291998"><ele>980.6</ele></trkpt>
<trkpt lat="42.34841000" lon="1.52292000"><ele>980.6</ele></trkpt>
<trkpt lat="42.34829000" lon="1.52301000"><ele>985.3</ele></trkpt>
<trkpt lat="42.34815000" lon="1.52304000"><ele>989.9</ele></trkpt>
<trkpt lat="42.34805000" lon="1.52313000"><ele>993.7</ele></trkpt>
<trkpt lat="42.34798000" lon="1.52310000"><ele>995.9</ele></trkpt>
<trkpt lat="42.34789000" lon="1.52302000"><ele>998.4</ele></trkpt>
<trkpt lat="42.34778000" lon="1.52288000"><ele>1000.8</ele></trkpt>
<trkpt lat="42.34770000" lon="1.52288000"><ele>1002.6</ele></trkpt>
<trkpt lat="42.34760000" lon="1.52284000"><ele>1004.2</ele></trkpt>
<trkpt lat="42.34763002" lon="1.52282969"><ele>1006.2</ele></trkpt>
<trkpt lat="42.34763000" lon="1.52283000"><ele>1006.3</ele></trkpt>
<trkpt lat="42.34749000" lon="1.52291000"><ele>1009.1</ele></trkpt>
<trkpt lat="42.34748000" lon="1.52299000"><ele>1010.0</ele></trkpt>
<trkpt lat="42.34754000" lon="1.52303000"><ele>1010.0</ele></trkpt>
<trkpt lat="42.34763000" lon="1.52334000"><ele>1015.1</ele></trkpt>
<trkpt lat="42.34762000" lon="1.52345000"><ele>1018.0</ele></trkpt>
<trkpt lat="42.34756000" lon="1.52344000"><ele>1019.9</ele></trkpt>
<trkpt lat="42.34749000" lon="1.52338000"><ele>1019.9</ele></trkpt>
<trkpt lat="42.34746000" lon="1.52343000"><ele>1021.7</ele></trkpt>
<trkpt lat="42.34746000" lon="1.52349000"><ele>1021.7</ele></trkpt>
<trkpt lat="42.34753000" lon="1.52368000"><ele>1027.7</ele></trkpt>
<trkpt lat="42.34746000" lon="1.52372000"><ele>1027.7</ele></trkpt>
<trkpt lat="42.34737000" lon="1.52366000"><ele>1029.6</ele></trkpt>
<trkpt lat="42.34729000" lon="1.52367000"><ele>1029.6</ele></trkpt>
<trkpt lat="42.34728000" lon="1.52373000"><ele>1029.6</ele></trkpt>
<trkpt lat="42.34731000" lon="1.52388000"><ele>1035.5</ele></trkpt>
<trkpt lat="42.34726000" lon="1.52428000"><ele>1039.6</ele></trkpt>
<trkpt lat="42.34730000" lon="1.52450000"><ele>1043.6</ele></trkpt>
<trkpt lat="42.34715000" lon="1.52493000"><ele>1051.5</ele></trkpt>
<trkpt lat="42.34706000" lon="1.52536000"><ele>1057.5</ele></trkpt>
<trkpt lat="42.34696000" lon="1.52547000"><ele>1059.7</ele></trkpt>
<trkpt lat="42.34682000" lon="1.52547000"><ele>1061.4</ele></trkpt>
<trkpt lat="42.34675000" lon="1.52540000"><ele>1065.9</ele></trkpt>
<trkpt lat="42.34670000" lon="1.52541000"><ele>1065.9</ele></trkpt>
<trkpt lat="42.34664000" lon="1.52549000"><ele>1065.9</ele></trkpt>
<trkpt lat="42.34659000" lon="1.52549000"><ele>1065.9</ele></trkpt>
<trkpt lat="42.34646000" lon="1.52539000"><ele>1070.1</ele></trkpt>
<trkpt lat="42.34627000" lon="1.52537000"><ele>1074.8</ele></trkpt>
<trkpt lat="42.34620000" lon="1.52539000"><ele>1074.8</ele></trkpt>
<trkpt lat="42.34626000" lon="1.52547000"><ele>1078.0</ele></trkpt>
<trkpt lat="42.34627000" lon="1.52562000"><ele>1081.0</ele></trkpt>
<trkpt lat="42.34618000" lon="1.52580000"><ele>1083.3</ele></trkpt>
<trkpt lat="42.34598000" lon="1.52603000"><ele>1086.3</ele></trkpt>
<trkpt lat="42.34583000" lon="1.52616000"><ele>1089.5</ele></trkpt>
<trkpt lat="42.34561000" lon="1.52629000"><ele>1093.0</ele></trkpt>
<trkpt lat="42.34546000" lon="1.52622000"><ele>1094.7</ele></trkpt>
<trkpt lat="42.34533000" lon="1.52618000"><ele>1095.8</ele></trkpt>
<trkpt lat="42.34481000" lon="1.52659000"><ele>1104.5</ele></trkpt>
<trkpt lat="42.34544000" lon="1.52609000"><ele>1093.9</ele></trkpt>
<trkpt lat="42.34562000" lon="1.52611000"><ele>1093.0</ele></trkpt>
<trkpt lat="42.34576000" lon="1.52601000"><ele>1091.3</ele></trkpt>
<trkpt lat="42.34587000" lon="1.52600000"><ele>1091.3</ele></trkpt>
<trkpt lat="42.34600000" lon="1.52585000"><ele>1088.3</ele></trkpt>
<trkpt lat="42.34600000" lon="1.52577000"><ele>1087.9</ele></trkpt>
<trkpt lat="42.34588000" lon="1.52570000"><ele>1086.8</ele></trkpt>
<trkpt lat="42.34543000" lon="1.52570000"><ele>1082.4</ele></trkpt>
<trkpt lat="42.34499000" lon="1.52579000"><ele>1076.5</ele></trkpt>
<trkpt lat="42.34448000" lon="1.52545000"><ele>1073.2</ele></trkpt>
<trkpt lat="42.34403000" lon="1.52532000"><ele>1066.6</ele></trkpt>
<trkpt lat="42.34399000" lon="1.52521000"><ele>1066.6</ele></trkpt>
<trkpt lat="42.34402000" lon="1.52514000"><ele>1065.7</ele></trkpt>
<trkpt lat="42.34414000" lon="1.52516000"><ele>1064.6</ele></trkpt>
<trkpt lat="42.34438000" lon="1.52511000"><ele>1063.5</ele></trkpt>
<trkpt lat="42.34453000" lon="1.52514000"><ele>1062.5</ele></trkpt>
<trkpt lat="42.34500000" lon="1.52514000"><ele>1060.5</ele></trkpt>
<trkpt lat="42.34575000" lon="1.52475500"><ele>1056.2</ele></trkpt>
<trkpt lat="42.34650000" lon="1.52437000"><ele>1051.2</ele></trkpt>
<trkpt lat="42.34695000" lon="1.52451000"><ele>1046.0</ele></trkpt>
<trkpt lat="42.34699000" lon="1.52442000"><ele>1046.0</ele></trkpt>
<trkpt lat="42.34688000" lon="1.52429000"><ele>1044.4</ele></trkpt>
<trkpt lat="42.34641000" lon="1.52404000"><ele>1040.6</ele></trkpt>
<trkpt lat="42.34595000" lon="1.52398000"><ele>1037.4</ele></trkpt>
<trkpt lat="42.34580000" lon="1.52382000"><ele>1036.1</ele></trkpt>
<trkpt lat="42.34550000" lon="1.52363000"><ele>1034.2</ele></trkpt>
<trkpt lat="42.34537000" lon="1.52345000"><ele>1033.6</ele></trkpt>
<trkpt lat="42.34518000" lon="1.52336000"><ele>1031.8</ele></trkpt>
<trkpt lat="42.34517000" lon="1.52336000"><ele>1031.8</ele></trkpt>
<trkpt lat="42.34509000" lon="1.52332000"><ele>1031.3</ele></trkpt>
<trkpt lat="42.34465000" lon="1.52335000"><ele>1028.4</ele></trkpt>
<trkpt lat="42.34435000" lon="1.52324000"><ele>1027.8</ele></trkpt>
<trkpt lat="42.34412000" lon="1.52328000"><ele>1026.9</ele></trkpt>
<trkpt lat="42.34391000" lon="1.52307000"><ele>1025.1</ele></trkpt>
<trkpt lat="42.34405000" lon="1.52214000"><ele>1017.0</ele></trkpt>
<trkpt lat="42.34399000" lon="1.52168000"><ele>1014.5</ele></trkpt>
<trkpt lat="42.34460000" lon="1.52080000"><ele>1004.7</ele></trkpt>
<trkpt lat="42.34530000" lon="1.52104000"><ele>996.6</ele></trkpt>
<trkpt lat="42.34541000" lon="1.52148000"><ele>993.1</ele></trkpt>
<trkpt lat="42.34582000" lon="1.52116000"><ele>988.2</ele></trkpt>
<trkpt lat="42.34640000" lon="1.52085000"><ele>985.6</ele></trkpt>
<trkpt lat="42.34665000" lon="1.52097000"><ele>983.3</ele></trkpt>
<trkpt lat="42.34734000" lon="1.52048000"><ele>976.9</ele></trkpt>
<trkpt lat="42.34740000" lon="1.52045000"><ele>976.9</ele></trkpt>
<trkpt lat="42.34767000" lon="1.52017000"><ele>975.0</ele></trkpt>
<trkpt lat="42.34799998" lon="1.51965003"><ele>966.9</ele></trkpt>
<trkpt lat="42.34812000" lon="1.51956000"><ele>965.9</ele></trkpt>
<trkpt lat="42.34812000" lon="1.51951000"><ele>965.2</ele></trkpt>
<trkpt lat="42.34800000" lon="1.51945000"><ele>965.2</ele></trkpt>
<trkpt lat="42.34789000" lon="1.51935000"><ele>961.7</ele></trkpt>
<trkpt lat="42.34764000" lon="1.51920000"><ele>958.8</ele></trkpt>
<trkpt lat="42.34716000" lon="1.51938000"><ele>953.9</ele></trkpt>
<trkpt lat="42.34681000" lon="1.51944000"><ele>949.9</ele></trkpt>
<trkpt lat="42.34671003" lon="1.51925006"><ele>948.0</ele></trkpt>
<trkpt lat="42.34680000" lon="1.51908000"><ele>950.3</ele></trkpt>
<trkpt lat="42.34677000" lon="1.51895000"><ele>948.5</ele></trkpt>
<trkpt lat="42.34677000" lon="1.51874000"><ele>945.1</ele></trkpt>
<trkpt lat="42.34684000" lon="1.51843000"><ele>940.7</ele></trkpt>
<trkpt lat="42.34693000" lon="1.51817000"><ele>936.6</ele></trkpt>
<trkpt lat="42.34695000" lon="1.51792000"><ele>932.8</ele></trkpt>
<trkpt lat="42.34687000" lon="1.51763000"><ele>927.9</ele></trkpt>
<trkpt lat="42.34679000" lon="1.51735000"><ele>922.4</ele></trkpt>
<trkpt lat="42.34670000" lon="1.51746000"><ele>924.2</ele></trkpt>
<trkpt lat="42.34663000" lon="1.51749000"><ele>924.2</ele></trkpt>
<trkpt lat="42.34636000" lon="1.51734000"><ele>921.2</ele></trkpt>
<trkpt lat="42.34614000" lon="1.51730000"><ele>918.9</ele></trkpt>
<trkpt lat="42.34606000" lon="1.51726000"><ele>918.3</ele></trkpt>
<trkpt lat="42.34602000" lon="1.51721000"><ele>916.0</ele></trkpt>
<trkpt lat="42.34597000" lon="1.51709000"><ele>916.0</ele></trkpt>
<trkpt lat="42.34594000" lon="1.51693000"><ele>912.3</ele></trkpt>
<trkpt lat="42.34595000" lon="1.51674000"><ele>912.3</ele></trkpt>
<trkpt lat="42.34605000" lon="1.51659000"><ele>909.6</ele></trkpt>
<trkpt lat="42.34626000" lon="1.51640000"><ele>905.6</ele></trkpt>
<trkpt lat="42.34635000" lon="1.51629000"><ele>903.7</ele></trkpt>
<trkpt lat="42.34639000" lon="1.51562000"><ele>893.9</ele></trkpt>
<trkpt lat="42.34648000" lon="1.51536000"><ele>886.3</ele></trkpt>
<trkpt lat="42.34671000" lon="1.51487000"><ele>878.1</ele></trkpt>
<trkpt lat="42.34685000" lon="1.51469000"><ele>876.4</ele></trkpt>
<trkpt lat="42.34705000" lon="1.51449000"><ele>872.4</ele></trkpt>
<trkpt lat="42.34723000" lon="1.51397000"><ele>866.1</ele></trkpt>
<trkpt lat="42.34724000" lon="1.51344000"><ele>860.1</ele></trkpt>
<trkpt lat="42.34730000" lon="1.51315000"><ele>857.3</ele></trkpt>
<trkpt lat="42.34742000" lon="1.51282000"><ele>854.0</ele></trkpt>
<trkpt lat="42.34762000" lon="1.51217000"><ele>846.6</ele></trkpt>
<trkpt lat="42.34789000" lon="1.51147000"><ele>841.2</ele></trkpt>
<trkpt lat="42.34805000" lon="1.51121000"><ele>838.0</ele></trkpt>
<trkpt lat="42.34812000" lon="1.51105000"><ele>835.7</ele></trkpt>
<trkpt lat="42.34835000" lon="1.51082000"><ele>829.6</ele></trkpt>
<trkpt lat="42.34840000" lon="1.51075000"><ele>828.8</ele></trkpt>
<trkpt lat="42.34840001" lon="1.51074983"><ele>828.8</ele></trkpt>
<trkpt lat="42.34839000" lon="1.51056000"><ele>826.6</ele></trkpt>
<trkpt lat="42.34838000" lon="1.51052000"><ele>826.6</ele></trkpt>
<trkpt lat="42.34820000" lon="1.51041000"><ele>826.7</ele></trkpt>
<trkpt lat="42.34812000" lon="1.51034000"><ele>827.1</ele></trkpt>
<trkpt lat="42.34813000" lon="1.51025000"><ele>827.2</ele></trkpt>
<trkpt lat="42.34821000" lon="1.50999000"><ele>827.6</ele></trkpt>
<trkpt lat="42.34815000" lon="1.50973000"><ele>828.0</ele></trkpt>
<trkpt lat="42.34757000" lon="1.50997000"><ele>835.7</ele></trkpt>
<trkpt lat="42.34736000" lon="1.51003000"><ele>838.8</ele></trkpt>
<trkpt lat="42.34722000" lon="1.51001000"><ele>840.3</ele></trkpt>
<trkpt lat="42.34703000" lon="1.50991000"><ele>847.7</ele></trkpt>
<trkpt lat="42.34693000" lon="1.50991000"><ele>847.7</ele></trkpt>
<trkpt lat="42.34682000" lon="1.50998000"><ele>847.7</ele></trkpt>
<trkpt lat="42.34675000" lon="1.51006000"><ele>852.8</ele></trkpt>
<trkpt lat="42.34671000" lon="1.51003000"><ele>852.8</ele></trkpt>
<trkpt lat="42.34664000" lon="1.50987000"><ele>852.8</ele></trkpt>
<trkpt lat="42.34658000" lon="1.50981000"><ele>852.8</ele></trkpt>
<trkpt lat="42.34650000" lon="1.50983000"><ele>860.3</ele></trkpt>
<trkpt lat="42.34643000" lon="1.50994000"><ele>860.3</ele></trkpt>
<trkpt lat="42.34640000" lon="1.50995000"><ele>860.3</ele></trkpt>
<trkpt lat="42.34635000" lon="1.50993000"><ele>860.3</ele></trkpt>
<trkpt lat="42.34636000" lon="1.50983000"><ele>860.6</ele></trkpt>
<trkpt lat="42.34640000" lon="1.50957000"><ele>858.6</ele></trkpt>
<trkpt lat="42.34639000" lon="1.50926000"><ele>859.0</ele></trkpt>
<trkpt lat="42.34613000" lon="1.50872000"><ele>859.0</ele></trkpt>
<trkpt lat="42.34604000" lon="1.50847000"><ele>860.1</ele></trkpt>
<trkpt lat="42.34604000" lon="1.50827000"><ele>861.9</ele></trkpt>
<trkpt lat="42.34608000" lon="1.50818000"><ele>862.2</ele></trkpt>
<trkpt lat="42.34613000" lon="1.50816000"><ele>862.2</ele></trkpt>
<trkpt lat="42.34620000" lon="1.50792000"><ele>861.4</ele></trkpt>
<trkpt lat="42.34620000" lon="1.50778000"><ele>861.2</ele></trkpt>
<trkpt lat="42.34605000" lon="1.50679000"><ele>861.8</ele></trkpt>
<trkpt lat="42.34614000" lon="1.50649000"><ele>861.1</ele></trkpt>
<trkpt lat="42.34615000" lon="1.50622000"><ele>862.4</ele></trkpt>
<trkpt lat="42.34612000" lon="1.50607000"><ele>863.0</ele></trkpt>
<trkpt lat="42.34603000" lon="1.50595000"><ele>865.8</ele></trkpt>
<trkpt lat="42.34593000" lon="1.50592000"><ele>866.9</ele></trkpt>
<trkpt lat="42.34585000" lon="1.50582000"><ele>868.3</ele></trkpt>
<trkpt lat="42.34558000" lon="1.50508000"><ele>871.8</ele></trkpt>
<trkpt lat="42.34560000" lon="1.50499000"><ele>871.8</ele></trkpt>
<trkpt lat="42.34615000" lon="1.50481000"><ele>868.7</ele></trkpt>
<trkpt lat="42.34621000" lon="1.50473000"><ele>868.0</ele></trkpt>
<trkpt lat="42.34630000" lon="1.50443000"><ele>865.7</ele></trkpt>
<trkpt lat="42.34639000" lon="1.50396000"><ele>862.3</ele></trkpt>
<trkpt lat="42.34648000" lon="1.50374000"><ele>860.6</ele></trkpt>
<trkpt lat="42.34669000" lon="1.50342000"><ele>858.1</ele></trkpt>
<trkpt lat="42.34671000" lon="1.50331000"><ele>858.1</ele></trkpt>
<trkpt lat="42.34671000" lon="1.50307000"><ele>852.8</ele></trkpt>
<trkpt lat="42.34668000" lon="1.50297000"><ele>852.8</ele></trkpt>
<trkpt lat="42.34663000" lon="1.50291000"><ele>852.8</ele></trkpt>
<trkpt lat="42.34630000" lon="1.50291000"><ele>850.0</ele></trkpt>
<trkpt lat="42.34557000" lon="1.50278000"><ele>843.3</ele></trkpt>
<trkpt lat="42.34542000" lon="1.50271000"><ele>842.3</ele></trkpt>
<trkpt lat="42.34513000" lon="1.50249000"><ele>838.4</ele></trkpt>
<trkpt lat="42.34502000" lon="1.50237000"><ele>837.5</ele></trkpt>
<trkpt lat="42.34489000" lon="1.50230000"><ele>836.5</ele></trkpt>
<trkpt lat="42.34487000" lon="1.50222000"><ele>836.1</ele></trkpt>
<trkpt lat="42.34492000" lon="1.50216000"><ele>835.0</ele></trkpt>
<trkpt lat="42.34557000" lon="1.50230000"><ele>827.5</ele></trkpt>
<trkpt lat="42.34568000" lon="1.50229000"><ele>827.1</ele></trkpt>
<trkpt lat="42.34575000" lon="1.50219000"><ele>825.0</ele></trkpt>
<trkpt lat="42.34594000" lon="1.50212000"><ele>823.5</ele></trkpt>
<trkpt lat="42.34614000" lon="1.50211000"><ele>822.8</ele></trkpt>
<trkpt lat="42.34630000" lon="1.50214000"><ele>821.5</ele></trkpt>
<trkpt lat="42.34650000" lon="1.50224000"><ele>820.8</ele></trkpt>
<trkpt lat="42.34666000" lon="1.50229000"><ele>820.2</ele></trkpt>
<trkpt lat="42.34692000" lon="1.50216000"><ele>817.0</ele></trkpt>
<trkpt lat="42.34702000" lon="1.50209000"><ele>816.4</ele></trkpt>
<trkpt lat="42.34704000" lon="1.50202000"><ele>814.3</ele></trkpt>
<trkpt lat="42.34678000" lon="1.50128000"><ele>808.0</ele></trkpt>
<trkpt lat="42.34680000" lon="1.50107000"><ele>804.9</ele></trkpt>
<trkpt lat="42.34688000" lon="1.50102000"><ele>802.7</ele></trkpt>
<trkpt lat="42.34768000" lon="1.50115000"><ele>796.6</ele></trkpt>
<trkpt lat="42.34784000" lon="1.50126000"><ele>794.4</ele></trkpt>
<trkpt lat="42.34827000" lon="1.50202000"><ele>783.2</ele></trkpt>
<trkpt lat="42.34842000" lon="1.50221000"><ele>782.3</ele></trkpt>
<trkpt lat="42.34849000" lon="1.50232000"><ele>781.0</ele></trkpt>
<trkpt lat="42.34848000" lon="1.50222000"><ele>780.4</ele></trkpt>
<trkpt lat="42.34859000" lon="1.50252000"></trkpt>
<trkpt lat="42.34859000" lon="1.50252000"><ele>780.1</ele></trkpt>
<trkpt lat="42.34872000" lon="1.50261000"><ele>779.3</ele></trkpt>
<trkpt lat="42.34893000" lon="1.50267000"><ele>776.6</ele></trkpt>
<trkpt lat="42.34905000" lon="1.50280000"><ele>775.4</ele></trkpt>
<trkpt lat="42.34926000" lon="1.50288000"><ele>771.9</ele></trkpt>
<trkpt lat="42.34989000" lon="1.50351000"><ele>765.3</ele></trkpt>
<trkpt lat="42.35013000" lon="1.50387000"><ele>765.8</ele></trkpt>
<trkpt lat="42.35029000" lon="1.50441000"><ele>766.9</ele></trkpt>
<trkpt lat="42.35039000" lon="1.50503000"><ele>766.5</ele></trkpt>
<trkpt lat="42.35040000" lon="1.50554000"><ele>766.3</ele></trkpt>
<trkpt lat="42.35047000" lon="1.50574000"><ele>765.5</ele></trkpt>
<trkpt lat="42.35075000" lon="1.50613000"><ele>765.2</ele></trkpt>
<trkpt lat="42.35075016" lon="1.50613006"><ele>765.2</ele></trkpt>
<trkpt lat="42.35071000" lon="1.50608000"><ele>765.2</ele></trkpt>
<trkpt lat="42.35075000" lon="1.50561000"><ele>762.7</ele></trkpt>
<trkpt lat="42.35059000" lon="1.50482000"><ele>761.6</ele></trkpt>
<trkpt lat="42.35098000" lon="1.50468000"><ele>752.4</ele></trkpt>
<trkpt lat="42.35147000" lon="1.50449000"><ele>749.0</ele></trkpt>
<trkpt lat="42.35156000" lon="1.50452000"><ele>748.7</ele></trkpt>
<trkpt lat="42.35156000" lon="1.50452001"><ele>748.7</ele></trkpt>
<trkpt lat="42.35158002" lon="1.50481991"><ele>748.7</ele></trkpt>
<trkpt lat="42.35158000" lon="1.50482000"><ele>748.7</ele></trkpt>
<trkpt lat="42.35158000" lon="1.50516000"><ele>749.0</ele></trkpt>
<trkpt lat="42.35155000" lon="1.50526000"><ele>749.3</ele></trkpt>
<trkpt lat="42.35149000" lon="1.50572000"><ele>754.5</ele></trkpt>
<trkpt lat="42.35128000" lon="1.50645000"><ele>758.9</ele></trkpt>
<trkpt lat="42.35128000" lon="1.50661000"><ele>759.4</ele></trkpt>
<trkpt lat="42.35134000" lon="1.50704000"><ele>765.8</ele></trkpt>
<trkpt lat="42.35136000" lon="1.50747000"><ele>766.7</ele></trkpt>
<trkpt lat="42.35154000" lon="1.50769000"><ele>765.4</ele></trkpt>
<trkpt lat="42.35176000" lon="1.50812000"><ele>763.6</ele></trkpt>
<trkpt lat="42.35172979" lon="1.50813009"><ele>765.6</ele></trkpt>
<trkpt lat="42.35142000" lon="1.50826000"><ele>768.3</ele></trkpt>
</trkseg></trk></gpx>