<?xml version="1.0" encoding="UTF-8"?>
<gpx version="1.1" creator="Xarxa de Corriols d'Alàs i Cerc - Punt 4" xmlns="http://www.topografix.com/GPX/1/1">
<metadata><name>Volta 5 - 10 km - Punt 4 - E</name></metadata><trk><name>Volta 5 - 10 km - Punt 4 - E</name><trkseg>
<trkpt lat="42.35133841" lon="1.50832496"><ele>768.5</ele></trkpt>
<trkpt lat="42.35104000" lon="1.50867000"><ele>770.8</ele></trkpt>
<trkpt lat="42.35074000" lon="1.50920000"><ele>772.9</ele></trkpt>
<trkpt lat="42.35072000" lon="1.50928000"><ele>772.9</ele></trkpt>
<trkpt lat="42.35082000" lon="1.50960000"><ele>778.0</ele></trkpt>
<trkpt lat="42.35082000" lon="1.50975000"><ele>778.0</ele></trkpt>
<trkpt lat="42.35076000" lon="1.50988000"><ele>779.0</ele></trkpt>
<trkpt lat="42.35063011" lon="1.50982005"><ele>781.1</ele></trkpt>
<trkpt lat="42.35063000" lon="1.50982000"><ele>781.1</ele></trkpt>
<trkpt lat="42.35047000" lon="1.50981000"><ele>784.4</ele></trkpt>
<trkpt lat="42.35037000" lon="1.50987000"><ele>787.6</ele></trkpt>
<trkpt lat="42.35033003" lon="1.50969016"><ele>790.0</ele></trkpt>
<trkpt lat="42.35037000" lon="1.50987000"><ele>787.6</ele></trkpt>
<trkpt lat="42.35031000" lon="1.51023000"><ele>788.6</ele></trkpt>
<trkpt lat="42.35002000" lon="1.51082000"><ele>792.7</ele></trkpt>
<trkpt lat="42.34982000" lon="1.51138000"><ele>791.4</ele></trkpt>
<trkpt lat="42.34983000" lon="1.51146000"><ele>791.2</ele></trkpt>
<trkpt lat="42.34987000" lon="1.51151000"><ele>790.5</ele></trkpt>
<trkpt lat="42.34999000" lon="1.51147000"><ele>789.3</ele></trkpt>
<trkpt lat="42.35009000" lon="1.51138000"><ele>788.5</ele></trkpt>
<trkpt lat="42.35010005" lon="1.51121986"><ele>788.5</ele></trkpt>
<trkpt lat="42.35010000" lon="1.51122000"><ele>788.5</ele></trkpt>
<trkpt lat="42.35010000" lon="1.51144000"><ele>788.5</ele></trkpt>
<trkpt lat="42.35021000" lon="1.51161000"><ele>789.9</ele></trkpt>
<trkpt lat="42.35033000" lon="1.51169000"><ele>791.7</ele></trkpt>
<trkpt lat="42.35094000" lon="1.51170000"><ele>795.5</ele></trkpt>
<trkpt lat="42.35108000" lon="1.51182000"><ele>796.5</ele></trkpt>
<trkpt lat="42.35119000" lon="1.51196000"><ele>797.1</ele></trkpt>
<trkpt lat="42.35121000" lon="1.51202000"><ele>797.4</ele></trkpt>
<trkpt lat="42.35120000" lon="1.51210000"><ele>798.2</ele></trkpt>
<trkpt lat="42.35111000" lon="1.51224000"><ele>799.1</ele></trkpt>
<trkpt lat="42.35078000" lon="1.51249000"><ele>803.7</ele></trkpt>
<trkpt lat="42.35065009" lon="1.51264989"><ele>804.6</ele></trkpt>
<trkpt lat="42.35063000" lon="1.51285000"><ele>807.2</ele></trkpt>
<trkpt lat="42.35062000" lon="1.51290000"><ele>808.0</ele></trkpt>
<trkpt lat="42.35059000" lon="1.51291000"><ele>808.9</ele></trkpt>
<trkpt lat="42.35053000" lon="1.51287000"><ele>809.9</ele></trkpt>
<trkpt lat="42.35051000" lon="1.51297000"><ele>809.9</ele></trkpt>
<trkpt lat="42.35048000" lon="1.51298000"><ele>815.3</ele></trkpt>
<trkpt lat="42.35042000" lon="1.51297000"><ele>815.3</ele></trkpt>
<trkpt lat="42.35039000" lon="1.51303000"><ele>815.3</ele></trkpt>
<trkpt lat="42.35036000" lon="1.51306000"><ele>815.3</ele></trkpt>
<trkpt lat="42.35033000" lon="1.51306000"><ele>818.4</ele></trkpt>
<trkpt lat="42.35026000" lon="1.51313000"><ele>820.5</ele></trkpt>
<trkpt lat="42.35019000" lon="1.51313000"><ele>820.5</ele></trkpt>
<trkpt lat="42.35010000" lon="1.51328000"><ele>826.2</ele></trkpt>
<trkpt lat="42.35010000" lon="1.51330000"><ele>826.2</ele></trkpt>
<trkpt lat="42.35017000" lon="1.51329000"><ele>827.6</ele></trkpt>
<trkpt lat="42.35018000" lon="1.51331000"><ele>827.6</ele></trkpt>
<trkpt lat="42.35013000" lon="1.51343000"><ele>833.2</ele></trkpt>
<trkpt lat="42.35017000" lon="1.51345000"><ele>833.2</ele></trkpt>
<trkpt lat="42.35017000" lon="1.51352000"><ele>834.5</ele></trkpt>
<trkpt lat="42.35022000" lon="1.51363000"><ele>836.8</ele></trkpt>
<trkpt lat="42.35019000" lon="1.51387000"><ele>840.8</ele></trkpt>
<trkpt lat="42.35022000" lon="1.51389000"><ele>841.9</ele></trkpt>
<trkpt lat="42.35027000" lon="1.51385000"><ele>841.9</ele></trkpt>
<trkpt lat="42.35023000" lon="1.51397000"><ele>848.4</ele></trkpt>
<trkpt lat="42.35025000" lon="1.51400000"><ele>848.4</ele></trkpt>
<trkpt lat="42.35036000" lon="1.51406000"><ele>848.4</ele></trkpt>
<trkpt lat="42.35047000" lon="1.51405000"><ele>851.5</ele></trkpt>
<trkpt lat="42.35046000" lon="1.51407000"><ele>851.5</ele></trkpt>
<trkpt lat="42.35047000" lon="1.51430000"><ele>855.9</ele></trkpt>
<trkpt lat="42.35047000" lon="1.51431000"><ele>855.9</ele></trkpt>
<trkpt lat="42.35050000" lon="1.51473000"><ele>862.6</ele></trkpt>
<trkpt lat="42.35066000" lon="1.51555000"><ele>874.9</ele></trkpt>
<trkpt lat="42.35082000" lon="1.51637000"><ele>886.8</ele></trkpt>
<trkpt lat="42.35088000" lon="1.51719000"><ele>893.9</ele></trkpt>
<trkpt lat="42.35066000" lon="1.51778000"><ele>902.3</ele></trkpt>
<trkpt lat="42.35079000" lon="1.51817000"><ele>908.7</ele></trkpt>
<trkpt lat="42.35071000" lon="1.51818000"><ele>909.0</ele></trkpt>
<trkpt lat="42.35047000" lon="1.51865000"><ele>913.9</ele></trkpt>
<trkpt lat="42.35025000" lon="1.51897000"><ele>916.1</ele></trkpt>
<trkpt lat="42.34978000" lon="1.51988000"><ele>922.8</ele></trkpt>
<trkpt lat="42.34978835" lon="1.52013064"><ele>924.3</ele></trkpt>
<trkpt lat="42.34997000" lon="1.52027000"><ele>926.9</ele></trkpt>
<trkpt lat="42.35001316" lon="1.52035200"><ele>926.0</ele></trkpt>
<trkpt lat="42.34988000" lon="1.52048000"><ele>929.3</ele></trkpt>
<trkpt lat="42.34972000" lon="1.52056000"><ele>931.9</ele></trkpt>
<trkpt lat="42.34969000" lon="1.52072000"><ele>933.7</ele></trkpt>
<trkpt lat="42.34968000" lon="1.52095000"><ele>934.6</ele></trkpt>
<trkpt lat="42.34961000" lon="1.52113000"><ele>936.1</ele></trkpt>
<trkpt lat="42.34954000" lon="1.52090000"><ele>936.3</ele></trkpt>
<trkpt lat="42.34943000" lon="1.52061000"><ele>937.1</ele></trkpt>
<trkpt lat="42.34935000" lon="1.52075000"><ele>938.8</ele></trkpt>
<trkpt lat="42.34921000" lon="1.52089000"><ele>942.0</ele></trkpt>
<trkpt lat="42.34888000" lon="1.52111000"><ele>950.8</ele></trkpt>
<trkpt lat="42.34867000" lon="1.52112000"><ele>957.0</ele></trkpt>
<trkpt lat="42.34864000" lon="1.52150000"><ele>960.9</ele></trkpt>
<trkpt lat="42.34850000" lon="1.52162000"><ele>966.0</ele></trkpt>
<trkpt lat="42.34839000" lon="1.52186000"><ele>972.1</ele></trkpt>
<trkpt lat="42.34841000" lon="1.52217000"><ele>975.4</ele></trkpt>
<trkpt lat="42.34839000" lon="1.52259000"><ele>979.1</ele></trkpt>
<trkpt lat="42.34836000" lon="1.52296000"><ele>982.9</ele></trkpt>
<trkpt lat="42.34841009" lon="1.52291998"><ele>980.6</ele></trkpt>
<trkpt lat="42.34865000" lon="1.52287000"><ele>971.9</ele></trkpt>
<trkpt lat="42.34883000" lon="1.52279000"><ele>966.5</ele></trkpt>
<trkpt lat="42.34890000" lon="1.52284000"><ele>963.4</ele></trkpt>
<trkpt lat="42.34901000" lon="1.52291000"><ele>960.4</ele></trkpt>
<trkpt lat="42.34910000" lon="1.52290000"><ele>957.5</ele></trkpt>
<trkpt lat="42.34914000" lon="1.52304000"><ele>956.5</ele></trkpt>
<trkpt lat="42.34922000" lon="1.52305000"><ele>952.9</ele></trkpt>
<trkpt lat="42.34928000" lon="1.52310000"><ele>952.0</ele></trkpt>
<trkpt lat="42.34937000" lon="1.52309000"><ele>947.4</ele></trkpt>
<trkpt lat="42.34947000" lon="1.52319000"><ele>943.5</ele></trkpt>
<trkpt lat="42.34952000" lon="1.52325000"><ele>942.4</ele></trkpt>
<trkpt lat="42.34957000" lon="1.52323000"><ele>939.8</ele></trkpt>
<trkpt lat="42.34963987" lon="1.52335970"><ele>944.8</ele></trkpt>
<trkpt lat="42.34956000" lon="1.52318000"><ele>943.9</ele></trkpt>
<trkpt lat="42.34964000" lon="1.52336000"><ele>944.8</ele></trkpt>
<trkpt lat="42.34936000" lon="1.52406000"><ele>945.5</ele></trkpt>
<trkpt lat="42.34921000" lon="1.52436000"><ele>945.7</ele></trkpt>
<trkpt lat="42.34906000" lon="1.52453000"><ele>946.0</ele></trkpt>
<trkpt lat="42.34899000" lon="1.52466000"><ele>946.5</ele></trkpt>
<trkpt lat="42.34929993" lon="1.52491994"><ele>949.9</ele></trkpt>
<trkpt lat="42.34937000" lon="1.52502000"><ele>950.9</ele></trkpt>
<trkpt lat="42.34925000" lon="1.52545000"><ele>956.4</ele></trkpt>
<trkpt lat="42.34930000" lon="1.52581000"><ele>960.7</ele></trkpt>
<trkpt lat="42.34922000" lon="1.52625000"><ele>965.2</ele></trkpt>
<trkpt lat="42.34920000" lon="1.52677000"><ele>975.9</ele></trkpt>
<trkpt lat="42.34927000" lon="1.52733000"><ele>982.7</ele></trkpt>
<trkpt lat="42.34939000" lon="1.52785000"><ele>994.0</ele></trkpt>
<trkpt lat="42.34942000" lon="1.52816000"><ele>1003.7</ele></trkpt>
<trkpt lat="42.34951000" lon="1.52847000"><ele>1007.7</ele></trkpt>
<trkpt lat="42.34972000" lon="1.52884000"><ele>1017.5</ele></trkpt>
<trkpt lat="42.34978000" lon="1.52913000"><ele>1024.1</ele></trkpt>
<trkpt lat="42.34975000" lon="1.52930000"><ele>1027.8</ele></trkpt>
<trkpt lat="42.34976000" lon="1.52958000"><ele>1034.8</ele></trkpt>
<trkpt lat="42.34959000" lon="1.52986000"><ele>1036.8</ele></trkpt>
<trkpt lat="42.34914000" lon="1.53021000"><ele>1050.9</ele></trkpt>
<trkpt lat="42.34913997" lon="1.53021001"><ele>1050.9</ele></trkpt>
<trkpt lat="42.34897000" lon="1.53025000"><ele>1051.4</ele></trkpt>
<trkpt lat="42.34850000" lon="1.53086000"><ele>1065.8</ele></trkpt>
<trkpt lat="42.34849999" lon="1.53086010"><ele>1065.8</ele></trkpt>
<trkpt lat="42.34859000" lon="1.53073000"><ele>1063.6</ele></trkpt>
<trkpt lat="42.34846000" lon="1.53072000"><ele>1067.8</ele></trkpt>
<trkpt lat="42.34832000" lon="1.53059000"><ele>1073.8</ele></trkpt>
<trkpt lat="42.34817000" lon="1.53053000"><ele>1078.4</ele></trkpt>
<trkpt lat="42.34799000" lon="1.53062000"><ele>1084.7</ele></trkpt>
<trkpt lat="42.34776000" lon="1.53063000"><ele>1092.3</ele></trkpt>
<trkpt lat="42.34752000" lon="1.53065000"><ele>1100.9</ele></trkpt>
<trkpt lat="42.34743000" lon="1.53036000"><ele>1105.0</ele></trkpt>
<trkpt lat="42.34716000" lon="1.53060000"><ele>1112.7</ele></trkpt>
<trkpt lat="42.34684000" lon="1.53082000"><ele>1120.3</ele></trkpt>
<trkpt lat="42.34653000" lon="1.53108000"><ele>1126.7</ele></trkpt>
<trkpt lat="42.34628000" lon="1.53144000"><ele>1132.4</ele></trkpt>
<trkpt lat="42.34616000" lon="1.53183000"><ele>1135.1</ele></trkpt>
<trkpt lat="42.34591000" lon="1.53219000"><ele>1140.1</ele></trkpt>
<trkpt lat="42.34580000" lon="1.53251000"><ele>1142.3</ele></trkpt>
<trkpt lat="42.34561000" lon="1.53273000"><ele>1145.8</ele></trkpt>
<trkpt lat="42.34564998" lon="1.53259009"><ele>1144.9</ele></trkpt>
<trkpt lat="42.34565000" lon="1.53259000"><ele>1144.9</ele></trkpt>
<trkpt lat="42.34574000" lon="1.53216000"><ele>1143.1</ele></trkpt>
<trkpt lat="42.34587000" lon="1.53169000"><ele>1141.4</ele></trkpt>
<trkpt lat="42.34587000" lon="1.53132000"><ele>1140.6</ele></trkpt>
<trkpt lat="42.34582000" lon="1.53074000"><ele>1138.0</ele></trkpt>
<trkpt lat="42.34573000" lon="1.53021000"><ele>1133.6</ele></trkpt>
<trkpt lat="42.34570000" lon="1.53012000"><ele>1133.6</ele></trkpt>
<trkpt lat="42.34552000" lon="1.52981000"><ele>1128.3</ele></trkpt>
<trkpt lat="42.34536000" lon="1.52959000"><ele>1125.6</ele></trkpt>
<trkpt lat="42.34526000" lon="1.52952000"><ele>1125.6</ele></trkpt>
<trkpt lat="42.34496000" lon="1.52940000"><ele>1121.4</ele></trkpt>
<trkpt lat="42.34485000" lon="1.52932000"><ele>1121.1</ele></trkpt>
<trkpt lat="42.34479000" lon="1.52924000"><ele>1120.8</ele></trkpt>
<trkpt lat="42.34475000" lon="1.52911000"><ele>1120.2</ele></trkpt>
<trkpt lat="42.34472000" lon="1.52860000"><ele>1116.6</ele></trkpt>
<trkpt lat="42.34470000" lon="1.52848000"><ele>1116.0</ele></trkpt>
<trkpt lat="42.34454000" lon="1.52814000"><ele>1112.0</ele></trkpt>
<trkpt lat="42.34453000" lon="1.52803000"><ele>1111.4</ele></trkpt>
<trkpt lat="42.34466000" lon="1.52743000"><ele>1111.9</ele></trkpt>
<trkpt lat="42.34474000" lon="1.52727000"><ele>1110.8</ele></trkpt>
<trkpt lat="42.34490000" lon="1.52710000"><ele>1107.3</ele></trkpt>
<trkpt lat="42.34493000" lon="1.52700000"><ele>1107.3</ele></trkpt>
<trkpt lat="42.34481000" lon="1.52659000"><ele>1104.5</ele></trkpt>
<trkpt lat="42.34544000" lon="1.52609000"><ele>1093.9</ele></trkpt>
<trkpt lat="42.34562000" lon="1.52611000"><ele>1093.0</ele></trkpt>
<trkpt lat="42.34576000" lon="1.52601000"><ele>1091.3</ele></trkpt>
<trkpt lat="42.34587000" lon="1.52600000"><ele>1091.3</ele></trkpt>
<trkpt lat="42.34600000" lon="1.52585000"><ele>1088.3</ele></trkpt>
<trkpt lat="42.34600000" lon="1.52577000"><ele>1087.9</ele></trkpt>
<trkpt lat="42.34588000" lon="1.52570000"><ele>1086.8</ele></trkpt>
<trkpt lat="42.34543000" lon="1.52570000"><ele>1082.4</ele></trkpt>
<trkpt lat="42.34499000" lon="1.52579000"><ele>1076.5</ele></trkpt>
<trkpt lat="42.34448000" lon="1.52545000"><ele>1073.2</ele></trkpt>
<trkpt lat="42.34403000" lon="1.52532000"><ele>1066.6</ele></trkpt>
<trkpt lat="42.34399000" lon="1.52521000"><ele>1066.6</ele></trkpt>
<trkpt lat="42.34402000" lon="1.52514000"><ele>1065.7</ele></trkpt>
<trkpt lat="42.34414000" lon="1.52516000"><ele>1064.6</ele></trkpt>
<trkpt lat="42.34438000" lon="1.52511000"><ele>1063.5</ele></trkpt>
<trkpt lat="42.34453000" lon="1.52514000"><ele>1062.5</ele></trkpt>
<trkpt lat="42.34500000" lon="1.52514000"><ele>1060.5</ele></trkpt>
<trkpt lat="42.34575000" lon="1.52475500"><ele>1056.2</ele></trkpt>
<trkpt lat="42.34650000" lon="1.52437000"><ele>1051.2</ele></trkpt>
<trkpt lat="42.34695000" lon="1.52451000"><ele>1046.0</ele></trkpt>
<trkpt lat="42.34699000" lon="1.52442000"><ele>1046.0</ele></trkpt>
<trkpt lat="42.34688000" lon="1.52429000"><ele>1044.4</ele></trkpt>
<trkpt lat="42.34641000" lon="1.52404000"><ele>1040.6</ele></trkpt>
<trkpt lat="42.34595000" lon="1.52398000"><ele>1037.4</ele></trkpt>
<trkpt lat="42.34580000" lon="1.52382000"><ele>1036.1</ele></trkpt>
<trkpt lat="42.34550000" lon="1.52363000"><ele>1034.2</ele></trkpt>
<trkpt lat="42.34537000" lon="1.52345000"><ele>1033.6</ele></trkpt>
<trkpt lat="42.34518000" lon="1.52336000"><ele>1031.8</ele></trkpt>
<trkpt lat="42.34517000" lon="1.52336000"><ele>1031.8</ele></trkpt>
<trkpt lat="42.34509000" lon="1.52332000"><ele>1031.3</ele></trkpt>
<trkpt lat="42.34465000" lon="1.52335000"><ele>1028.4</ele></trkpt>
<trkpt lat="42.34435000" lon="1.52324000"><ele>1027.8</ele></trkpt>
<trkpt lat="42.34412000" lon="1.52328000"><ele>1026.9</ele></trkpt>
<trkpt lat="42.34391000" lon="1.52307000"><ele>1025.1</ele></trkpt>
<trkpt lat="42.34405000" lon="1.52214000"><ele>1017.0</ele></trkpt>
<trkpt lat="42.34399000" lon="1.52168000"><ele>1014.5</ele></trkpt>
<trkpt lat="42.34460000" lon="1.52080000"><ele>1004.7</ele></trkpt>
<trkpt lat="42.34530000" lon="1.52104000"><ele>996.6</ele></trkpt>
<trkpt lat="42.34541000" lon="1.52148000"><ele>993.1</ele></trkpt>
<trkpt lat="42.34582000" lon="1.52116000"><ele>988.2</ele></trkpt>
<trkpt lat="42.34640000" lon="1.52085000"><ele>985.6</ele></trkpt>
<trkpt lat="42.34665000" lon="1.52097000"><ele>983.3</ele></trkpt>
<trkpt lat="42.34734000" lon="1.52048000"><ele>976.9</ele></trkpt>
<trkpt lat="42.34740000" lon="1.52045000"><ele>976.9</ele></trkpt>
<trkpt lat="42.34767000" lon="1.52017000"><ele>975.0</ele></trkpt>
<trkpt lat="42.34799998" lon="1.51965003"><ele>966.9</ele></trkpt>
<trkpt lat="42.34812000" lon="1.51956000"><ele>965.9</ele></trkpt>
<trkpt lat="42.34812000" lon="1.51951000"><ele>965.2</ele></trkpt>
<trkpt lat="42.34800000" lon="1.51945000"><ele>965.2</ele></trkpt>
<trkpt lat="42.34789000" lon="1.51935000"><ele>961.7</ele></trkpt>
<trkpt lat="42.34764000" lon="1.51920000"><ele>958.8</ele></trkpt>
<trkpt lat="42.34716000" lon="1.51938000"><ele>953.9</ele></trkpt>
<trkpt lat="42.34681000" lon="1.51944000"><ele>949.9</ele></trkpt>
<trkpt lat="42.34671003" lon="1.51925006"><ele>948.0</ele></trkpt>
<trkpt lat="42.34680000" lon="1.51908000"><ele>950.3</ele></trkpt>
<trkpt lat="42.34677000" lon="1.51895000"><ele>948.5</ele></trkpt>
<trkpt lat="42.34677000" lon="1.51874000"><ele>945.1</ele></trkpt>
<trkpt lat="42.34684000" lon="1.51843000"><ele>940.7</ele></trkpt>
<trkpt lat="42.34693000" lon="1.51817000"><ele>936.6</ele></trkpt>
<trkpt lat="42.34695000" lon="1.51792000"><ele>932.8</ele></trkpt>
<trkpt lat="42.34687000" lon="1.51763000"><ele>927.9</ele></trkpt>
<trkpt lat="42.34679000" lon="1.51735000"><ele>922.4</ele></trkpt>
<trkpt lat="42.34670000" lon="1.51746000"><ele>924.2</ele></trkpt>
<trkpt lat="42.34663000" lon="1.51749000"><ele>924.2</ele></trkpt>
<trkpt lat="42.34636000" lon="1.51734000"><ele>921.2</ele></trkpt>
<trkpt lat="42.34614000" lon="1.51730000"><ele>918.9</ele></trkpt>
<trkpt lat="42.34606000" lon="1.51726000"><ele>918.3</ele></trkpt>
<trkpt lat="42.34602000" lon="1.51721000"><ele>916.0</ele></trkpt>
<trkpt lat="42.34597000" lon="1.51709000"><ele>916.0</ele></trkpt>
<trkpt lat="42.34594000" lon="1.51693000"><ele>912.3</ele></trkpt>
<trkpt lat="42.34595000" lon="1.51674000"><ele>912.3</ele></trkpt>
<trkpt lat="42.34605000" lon="1.51659000"><ele>909.6</ele></trkpt>
<trkpt lat="42.34626000" lon="1.51640000"><ele>905.6</ele></trkpt>
<trkpt lat="42.34635000" lon="1.51629000"><ele>903.7</ele></trkpt>
<trkpt lat="42.34639000" lon="1.51562000"><ele>893.9</ele></trkpt>
<trkpt lat="42.34648000" lon="1.51536000"><ele>886.3</ele></trkpt>
<trkpt lat="42.34671000" lon="1.51487000"><ele>878.1</ele></trkpt>
<trkpt lat="42.34685000" lon="1.51469000"><ele>876.4</ele></trkpt>
<trkpt lat="42.34705000" lon="1.51449000"><ele>872.4</ele></trkpt>
<trkpt lat="42.34723000" lon="1.51397000"><ele>866.1</ele></trkpt>
<trkpt lat="42.34724000" lon="1.51344000"><ele>860.1</ele></trkpt>
<trkpt lat="42.34730000" lon="1.51315000"><ele>857.3</ele></trkpt>
<trkpt lat="42.34742000" lon="1.51282000"><ele>854.0</ele></trkpt>
<trkpt lat="42.34762000" lon="1.51217000"><ele>846.6</ele></trkpt>
<trkpt lat="42.34789000" lon="1.51147000"><ele>841.2</ele></trkpt>
<trkpt lat="42.34805000" lon="1.51121000"><ele>838.0</ele></trkpt>
<trkpt lat="42.34812000" lon="1.51105000"><ele>835.7</ele></trkpt>
<trkpt lat="42.34835000" lon="1.51082000"><ele>829.6</ele></trkpt>
<trkpt lat="42.34840000" lon="1.51075000"><ele>828.8</ele></trkpt>
<trkpt lat="42.34840001" lon="1.51074983"><ele>828.8</ele></trkpt>
<trkpt lat="42.34839000" lon="1.51056000"><ele>826.6</ele></trkpt>
<trkpt lat="42.34838000" lon="1.51052000"><ele>826.6</ele></trkpt>
<trkpt lat="42.34820000" lon="1.51041000"><ele>826.7</ele></trkpt>
<trkpt lat="42.34812000" lon="1.51034000"><ele>827.1</ele></trkpt>
<trkpt lat="42.34813000" lon="1.51025000"><ele>827.2</ele></trkpt>
<trkpt lat="42.34821000" lon="1.50999000"><ele>827.6</ele></trkpt>
<trkpt lat="42.34815000" lon="1.50973000"><ele>828.0</ele></trkpt>
<trkpt lat="42.34757000" lon="1.50997000"><ele>835.7</ele></trkpt>
<trkpt lat="42.34736000" lon="1.51003000"><ele>838.8</ele></trkpt>
<trkpt lat="42.34722000" lon="1.51001000"><ele>840.3</ele></trkpt>
<trkpt lat="42.34703000" lon="1.50991000"><ele>847.7</ele></trkpt>
<trkpt lat="42.34693000" lon="1.50991000"><ele>847.7</ele></trkpt>
<trkpt lat="42.34682000" lon="1.50998000"><ele>847.7</ele></trkpt>
<trkpt lat="42.34675000" lon="1.51006000"><ele>852.8</ele></trkpt>
<trkpt lat="42.34671000" lon="1.51003000"><ele>852.8</ele></trkpt>
<trkpt lat="42.34664000" lon="1.50987000"><ele>852.8</ele></trkpt>
<trkpt lat="42.34658000" lon="1.50981000"><ele>852.8</ele></trkpt>
<trkpt lat="42.34650000" lon="1.50983000"><ele>860.3</ele></trkpt>
<trkpt lat="42.34643000" lon="1.50994000"><ele>860.3</ele></trkpt>
<trkpt lat="42.34640000" lon="1.50995000"><ele>860.3</ele></trkpt>
<trkpt lat="42.34635000" lon="1.50993000"><ele>860.3</ele></trkpt>
<trkpt lat="42.34636000" lon="1.50983000"><ele>860.6</ele></trkpt>
<trkpt lat="42.34640000" lon="1.50957000"><ele>858.6</ele></trkpt>
<trkpt lat="42.34639000" lon="1.50926000"><ele>859.0</ele></trkpt>
<trkpt lat="42.34613000" lon="1.50872000"><ele>859.0</ele></trkpt>
<trkpt lat="42.34604000" lon="1.50847000"><ele>860.1</ele></trkpt>
<trkpt lat="42.34604000" lon="1.50827000"><ele>861.9</ele></trkpt>
<trkpt lat="42.34608000" lon="1.50818000"><ele>862.2</ele></trkpt>
<trkpt lat="42.34613000" lon="1.50816000"><ele>862.2</ele></trkpt>
<trkpt lat="42.34620000" lon="1.50792000"><ele>861.4</ele></trkpt>
<trkpt lat="42.34620000" lon="1.50778000"><ele>861.2</ele></trkpt>
<trkpt lat="42.34605000" lon="1.50679000"><ele>861.8</ele></trkpt>
<trkpt lat="42.34614000" lon="1.50649000"><ele>861.1</ele></trkpt>
<trkpt lat="42.34615000" lon="1.50622000"><ele>862.4</ele></trkpt>
<trkpt lat="42.34612000" lon="1.50607000"><ele>863.0</ele></trkpt>
<trkpt lat="42.34603000" lon="1.50595000"><ele>865.8</ele></trkpt>
<trkpt lat="42.34593000" lon="1.50592000"><ele>866.9</ele></trkpt>
<trkpt lat="42.34585000" lon="1.50582000"><ele>868.3</ele></trkpt>
<trkpt lat="42.34558000" lon="1.50508000"><ele>871.8</ele></trkpt>
<trkpt lat="42.34560000" lon="1.50499000"><ele>871.8</ele></trkpt>
<trkpt lat="42.34615000" lon="1.50481000"><ele>868.7</ele></trkpt>
<trkpt lat="42.34621000" lon="1.50473000"><ele>868.0</ele></trkpt>
<trkpt lat="42.34630000" lon="1.50443000"><ele>865.7</ele></trkpt>
<trkpt lat="42.34639000" lon="1.50396000"><ele>862.3</ele></trkpt>
<trkpt lat="42.34648000" lon="1.50374000"><ele>860.6</ele></trkpt>
<trkpt lat="42.34669000" lon="1.50342000"><ele>858.1</ele></trkpt>
<trkpt lat="42.34671000" lon="1.50331000"><ele>858.1</ele></trkpt>
<trkpt lat="42.34671000" lon="1.50307000"><ele>852.8</ele></trkpt>
<trkpt lat="42.34668000" lon="1.50297000"><ele>852.8</ele></trkpt>
<trkpt lat="42.34663000" lon="1.50291000"><ele>852.8</ele></trkpt>
<trkpt lat="42.34630000" lon="1.50291000"><ele>850.0</ele></trkpt>
<trkpt lat="42.34557000" lon="1.50278000"><ele>843.3</ele></trkpt>
<trkpt lat="42.34542000" lon="1.50271000"><ele>842.3</ele></trkpt>
<trkpt lat="42.34513000" lon="1.50249000"><ele>838.4</ele></trkpt>
<trkpt lat="42.34502000" lon="1.50237000"><ele>837.5</ele></trkpt>
<trkpt lat="42.34489000" lon="1.50230000"><ele>836.5</ele></trkpt>
<trkpt lat="42.34487000" lon="1.50222000"><ele>836.1</ele></trkpt>
<trkpt lat="42.34492000" lon="1.50216000"><ele>835.0</ele></trkpt>
<trkpt lat="42.34557000" lon="1.50230000"><ele>827.5</ele></trkpt>
<trkpt lat="42.34568000" lon="1.50229000"><ele>827.1</ele></trkpt>
<trkpt lat="42.34575000" lon="1.50219000"><ele>825.0</ele></trkpt>
<trkpt lat="42.34594000" lon="1.50212000"><ele>823.5</ele></trkpt>
<trkpt lat="42.34614000" lon="1.50211000"><ele>822.8</ele></trkpt>
<trkpt lat="42.34630000" lon="1.50214000"><ele>821.5</ele></trkpt>
<trkpt lat="42.34650000" lon="1.50224000"><ele>820.8</ele></trkpt>
<trkpt lat="42.34666000" lon="1.50229000"><ele>820.2</ele></trkpt>
<trkpt lat="42.34692000" lon="1.50216000"><ele>817.0</ele></trkpt>
<trkpt lat="42.34702000" lon="1.50209000"><ele>816.4</ele></trkpt>
<trkpt lat="42.34704000" lon="1.50202000"><ele>814.3</ele></trkpt>
<trkpt lat="42.34678000" lon="1.50128000"><ele>808.0</ele></trkpt>
<trkpt lat="42.34680000" lon="1.50107000"><ele>804.9</ele></trkpt>
<trkpt lat="42.34688000" lon="1.50102000"><ele>802.7</ele></trkpt>
<trkpt lat="42.34768000" lon="1.50115000"><ele>796.6</ele></trkpt>
<trkpt lat="42.34784000" lon="1.50126000"><ele>794.4</ele></trkpt>
<trkpt lat="42.34827000" lon="1.50202000"><ele>783.2</ele></trkpt>
<trkpt lat="42.34842000" lon="1.50221000"><ele>782.3</ele></trkpt>
<trkpt lat="42.34849000" lon="1.50232000"><ele>781.0</ele></trkpt>
<trkpt lat="42.34848000" lon="1.50222000"><ele>780.4</ele></trkpt>
<trkpt lat="42.34859000" lon="1.50252000"></trkpt>
<trkpt lat="42.34859000" lon="1.50252000"><ele>780.1</ele></trkpt>
<trkpt lat="42.34872000" lon="1.50261000"><ele>779.3</ele></trkpt>
<trkpt lat="42.34893000" lon="1.50267000"><ele>776.6</ele></trkpt>
<trkpt lat="42.34905000" lon="1.50280000"><ele>775.4</ele></trkpt>
<trkpt lat="42.34926000" lon="1.50288000"><ele>771.9</ele></trkpt>
<trkpt lat="42.34989000" lon="1.50351000"><ele>765.3</ele></trkpt>
<trkpt lat="42.35013000" lon="1.50387000"><ele>765.8</ele></trkpt>
<trkpt lat="42.35029000" lon="1.50441000"><ele>766.9</ele></trkpt>
<trkpt lat="42.35039000" lon="1.50503000"><ele>766.5</ele></trkpt>
<trkpt lat="42.35040000" lon="1.50554000"><ele>766.3</ele></trkpt>
<trkpt lat="42.35047000" lon="1.50574000"><ele>765.5</ele></trkpt>
<trkpt lat="42.35075000" lon="1.50613000"><ele>765.2</ele></trkpt>
<trkpt lat="42.35075016" lon="1.50613006"><ele>765.2</ele></trkpt>
<trkpt lat="42.35071000" lon="1.50608000"><ele>765.2</ele></trkpt>
<trkpt lat="42.35075000" lon="1.50613000"><ele>765.2</ele></trkpt>
<trkpt lat="42.35089000" lon="1.50618000"><ele>764.1</ele></trkpt>
<trkpt lat="42.35112000" lon="1.50637000"><ele>761.2</ele></trkpt>
<trkpt lat="42.35128000" lon="1.50661000"><ele>759.4</ele></trkpt>
<trkpt lat="42.35128000" lon="1.50645000"><ele>758.9</ele></trkpt>
<trkpt lat="42.35149000" lon="1.50572000"><ele>754.5</ele></trkpt>
<trkpt lat="42.35155000" lon="1.50526000"><ele>749.3</ele></trkpt>
<trkpt lat="42.35158000" lon="1.50516000"><ele>749.0</ele></trkpt>
<trkpt lat="42.35158000" lon="1.50482000"><ele>748.7</ele></trkpt>
<trkpt lat="42.35158002" lon="1.50481991"><ele>748.7</ele></trkpt>
<trkpt lat="42.35158000" lon="1.50482000"><ele>748.7</ele></trkpt>
<trkpt lat="42.35158000" lon="1.50516000"><ele>749.0</ele></trkpt>
<trkpt lat="42.35194000" lon="1.50595000"><ele>750.8</ele></trkpt>
<trkpt lat="42.35218000" lon="1.50655000"><ele>753.7</ele></trkpt>
<trkpt lat="42.35223000" lon="1.50677000"><ele>753.7</ele></trkpt>
<trkpt lat="42.35232000" lon="1.50742000"><ele>757.6</ele></trkpt>
<trkpt lat="42.35233999" lon="1.50770986"><ele>758.3</ele></trkpt>
<trkpt lat="42.35205000" lon="1.50791000"><ele>760.4</ele></trkpt>
<trkpt lat="42.35200001" lon="1.50806997"><ele>761.7</ele></trkpt>
<trkpt lat="42.35200000" lon="1.50807000"><ele>761.7</ele></trkpt>
<trkpt lat="42.35189000" lon="1.50814000"><ele>764.2</ele></trkpt>
<trkpt lat="42.35173000" lon="1.50813000"><ele>765.6</ele></trkpt>
<trkpt lat="42.35142000" lon="1.50826000"><ele>768.3</ele></trkpt>
</trkseg></trk></gpx>