<?xml version="1.0" encoding="UTF-8"?>
<gpx version="1.1" creator="Xarxa de Corriols d'Alàs i Cerc - Punt 4" xmlns="http://www.topografix.com/GPX/1/1">
<metadata><name>Volta 2 - 10 km - Punt 4 - S</name></metadata><trk><name>Volta 2 - 10 km - Punt 4 - S</name><trkseg>
<trkpt lat="42.35142000" lon="1.50826000"><ele>768.3</ele></trkpt>
<trkpt lat="42.35172979" lon="1.50813009"><ele>765.6</ele></trkpt>
<trkpt lat="42.35176000" lon="1.50812000"><ele>763.6</ele></trkpt>
<trkpt lat="42.35154000" lon="1.50769000"><ele>765.4</ele></trkpt>
<trkpt lat="42.35136000" lon="1.50747000"><ele>766.7</ele></trkpt>
<trkpt lat="42.35134000" lon="1.50704000"><ele>765.8</ele></trkpt>
<trkpt lat="42.35128000" lon="1.50661000"><ele>763.8</ele></trkpt>
<trkpt lat="42.35112000" lon="1.50637000"><ele>761.2</ele></trkpt>
<trkpt lat="42.35089000" lon="1.50618000"><ele>764.1</ele></trkpt>
<trkpt lat="42.35075000" lon="1.50613000"><ele>765.2</ele></trkpt>
<trkpt lat="42.35071000" lon="1.50608000"><ele>765.2</ele></trkpt>
<trkpt lat="42.35075016" lon="1.50613006"><ele>765.2</ele></trkpt>
<trkpt lat="42.35075000" lon="1.50613000"><ele>765.2</ele></trkpt>
<trkpt lat="42.35047000" lon="1.50574000"><ele>765.5</ele></trkpt>
<trkpt lat="42.35040000" lon="1.50554000"><ele>766.3</ele></trkpt>
<trkpt lat="42.35039000" lon="1.50503000"><ele>766.5</ele></trkpt>
<trkpt lat="42.35029000" lon="1.50441000"><ele>766.9</ele></trkpt>
<trkpt lat="42.35013000" lon="1.50387000"><ele>765.8</ele></trkpt>
<trkpt lat="42.34989000" lon="1.50351000"><ele>765.3</ele></trkpt>
<trkpt lat="42.34926000" lon="1.50288000"><ele>771.9</ele></trkpt>
<trkpt lat="42.34905000" lon="1.50280000"><ele>775.4</ele></trkpt>
<trkpt lat="42.34893000" lon="1.50267000"><ele>776.6</ele></trkpt>
<trkpt lat="42.34872000" lon="1.50261000"><ele>779.3</ele></trkpt>
<trkpt lat="42.34859000" lon="1.50252000"><ele>780.1</ele></trkpt>
<trkpt lat="42.34858990" lon="1.50251981"><ele>780.1</ele></trkpt>
<trkpt lat="42.34848500" lon="1.50227000"></trkpt>
<trkpt lat="42.34848000" lon="1.50222000"><ele>780.4</ele></trkpt>
<trkpt lat="42.34849000" lon="1.50232000"><ele>781.0</ele></trkpt>
<trkpt lat="42.34842000" lon="1.50221000"><ele>782.3</ele></trkpt>
<trkpt lat="42.34827000" lon="1.50202000"><ele>783.2</ele></trkpt>
<trkpt lat="42.34784000" lon="1.50126000"><ele>794.4</ele></trkpt>
<trkpt lat="42.34768000" lon="1.50115000"><ele>796.6</ele></trkpt>
<trkpt lat="42.34688000" lon="1.50102000"><ele>802.7</ele></trkpt>
<trkpt lat="42.34680000" lon="1.50107000"><ele>804.9</ele></trkpt>
<trkpt lat="42.34678000" lon="1.50128000"><ele>808.0</ele></trkpt>
<trkpt lat="42.34704000" lon="1.50202000"><ele>814.3</ele></trkpt>
<trkpt lat="42.34702000" lon="1.50209000"><ele>816.4</ele></trkpt>
<trkpt lat="42.34692000" lon="1.50216000"><ele>817.0</ele></trkpt>
<trkpt lat="42.34666000" lon="1.50229000"><ele>820.2</ele></trkpt>
<trkpt lat="42.34650000" lon="1.50224000"><ele>820.8</ele></trkpt>
<trkpt lat="42.34630000" lon="1.50214000"><ele>821.5</ele></trkpt>
<trkpt lat="42.34614000" lon="1.50211000"><ele>822.8</ele></trkpt>
<trkpt lat="42.34594000" lon="1.50212000"><ele>823.5</ele></trkpt>
<trkpt lat="42.34575000" lon="1.50219000"><ele>825.0</ele></trkpt>
<trkpt lat="42.34568000" lon="1.50229000"><ele>827.1</ele></trkpt>
<trkpt lat="42.34557000" lon="1.50230000"><ele>827.5</ele></trkpt>
<trkpt lat="42.34492000" lon="1.50216000"><ele>835.0</ele></trkpt>
<trkpt lat="42.34487000" lon="1.50222000"><ele>836.1</ele></trkpt>
<trkpt lat="42.34489000" lon="1.50230000"><ele>836.5</ele></trkpt>
<trkpt lat="42.34502000" lon="1.50237000"><ele>837.5</ele></trkpt>
<trkpt lat="42.34513000" lon="1.50249000"><ele>838.4</ele></trkpt>
<trkpt lat="42.34542000" lon="1.50271000"><ele>842.3</ele></trkpt>
<trkpt lat="42.34557000" lon="1.50278000"><ele>843.3</ele></trkpt>
<trkpt lat="42.34630000" lon="1.50291000"><ele>850.0</ele></trkpt>
<trkpt lat="42.34663000" lon="1.50291000"><ele>852.8</ele></trkpt>
<trkpt lat="42.34668000" lon="1.50297000"><ele>852.8</ele></trkpt>
<trkpt lat="42.34671000" lon="1.50307000"><ele>852.8</ele></trkpt>
<trkpt lat="42.34671000" lon="1.50331000"><ele>858.1</ele></trkpt>
<trkpt lat="42.34669000" lon="1.50342000"><ele>858.1</ele></trkpt>
<trkpt lat="42.34648000" lon="1.50374000"><ele>860.6</ele></trkpt>
<trkpt lat="42.34639000" lon="1.50396000"><ele>862.3</ele></trkpt>
<trkpt lat="42.34630000" lon="1.50443000"><ele>865.7</ele></trkpt>
<trkpt lat="42.34621000" lon="1.50473000"><ele>868.0</ele></trkpt>
<trkpt lat="42.34615000" lon="1.50481000"><ele>868.7</ele></trkpt>
<trkpt lat="42.34560000" lon="1.50499000"><ele>871.8</ele></trkpt>
<trkpt lat="42.34558000" lon="1.50508000"><ele>871.8</ele></trkpt>
<trkpt lat="42.34585000" lon="1.50582000"><ele>868.3</ele></trkpt>
<trkpt lat="42.34593000" lon="1.50592000"><ele>866.9</ele></trkpt>
<trkpt lat="42.34603000" lon="1.50595000"><ele>865.8</ele></trkpt>
<trkpt lat="42.34612000" lon="1.50607000"><ele>863.0</ele></trkpt>
<trkpt lat="42.34615000" lon="1.50622000"><ele>862.4</ele></trkpt>
<trkpt lat="42.34614000" lon="1.50649000"><ele>861.1</ele></trkpt>
<trkpt lat="42.34605000" lon="1.50679000"><ele>861.8</ele></trkpt>
<trkpt lat="42.34620000" lon="1.50778000"><ele>861.2</ele></trkpt>
<trkpt lat="42.34620000" lon="1.50792000"><ele>861.4</ele></trkpt>
<trkpt lat="42.34613000" lon="1.50816000"><ele>862.2</ele></trkpt>
<trkpt lat="42.34608000" lon="1.50818000"><ele>862.2</ele></trkpt>
<trkpt lat="42.34604000" lon="1.50827000"><ele>861.9</ele></trkpt>
<trkpt lat="42.34604000" lon="1.50847000"><ele>860.1</ele></trkpt>
<trkpt lat="42.34613000" lon="1.50872000"><ele>859.0</ele></trkpt>
<trkpt lat="42.34639000" lon="1.50926000"><ele>859.0</ele></trkpt>
<trkpt lat="42.34640000" lon="1.50957000"><ele>858.6</ele></trkpt>
<trkpt lat="42.34636000" lon="1.50983000"><ele>860.6</ele></trkpt>
<trkpt lat="42.34643000" lon="1.50995000"><ele>858.6</ele></trkpt>
<trkpt lat="42.34636000" lon="1.51018000"><ele>859.6</ele></trkpt>
<trkpt lat="42.34623000" lon="1.51067000"><ele>862.5</ele></trkpt>
<trkpt lat="42.34605000" lon="1.51110000"><ele>867.7</ele></trkpt>
<trkpt lat="42.34590000" lon="1.51164000"><ele>873.3</ele></trkpt>
<trkpt lat="42.34598000" lon="1.51197000"><ele>873.1</ele></trkpt>
<trkpt lat="42.34614000" lon="1.51233000"><ele>870.7</ele></trkpt>
<trkpt lat="42.34632000" lon="1.51287000"><ele>871.6</ele></trkpt>
<trkpt lat="42.34643000" lon="1.51308000"><ele>870.6</ele></trkpt>
<trkpt lat="42.34638000" lon="1.51318000"><ele>872.5</ele></trkpt>
<trkpt lat="42.34629000" lon="1.51331000"><ele>875.6</ele></trkpt>
<trkpt lat="42.34616000" lon="1.51341000"><ele>879.2</ele></trkpt>
<trkpt lat="42.34595000" lon="1.51351000"><ele>884.1</ele></trkpt>
<trkpt lat="42.34570000" lon="1.51339000"><ele>890.0</ele></trkpt>
<trkpt lat="42.34547000" lon="1.51368000"><ele>897.6</ele></trkpt>
<trkpt lat="42.34492000" lon="1.51395000"><ele>915.3</ele></trkpt>
<trkpt lat="42.34470000" lon="1.51428000"><ele>922.0</ele></trkpt>
<trkpt lat="42.34441000" lon="1.51438000"><ele>928.6</ele></trkpt>
<trkpt lat="42.34418000" lon="1.51467000"><ele>933.9</ele></trkpt>
<trkpt lat="42.34395000" lon="1.51471000"><ele>938.2</ele></trkpt>
<trkpt lat="42.34369000" lon="1.51484000"><ele>941.7</ele></trkpt>
<trkpt lat="42.34349000" lon="1.51519000"><ele>944.6</ele></trkpt>
<trkpt lat="42.34322000" lon="1.51564000"><ele>949.2</ele></trkpt>
<trkpt lat="42.34283000" lon="1.51577000"><ele>953.2</ele></trkpt>
<trkpt lat="42.34257000" lon="1.51580000"><ele>956.4</ele></trkpt>
<trkpt lat="42.34270000" lon="1.51612000"><ele>962.8</ele></trkpt>
<trkpt lat="42.34286000" lon="1.51651000"><ele>970.3</ele></trkpt>
<trkpt lat="42.34318000" lon="1.51670000"><ele>969.6</ele></trkpt>
<trkpt lat="42.34338000" lon="1.51698000"><ele>972.5</ele></trkpt>
<trkpt lat="42.34350000" lon="1.51732000"><ele>976.7</ele></trkpt>
<trkpt lat="42.34322000" lon="1.51720000"><ele>980.4</ele></trkpt>
<trkpt lat="42.34297000" lon="1.51705000"><ele>981.2</ele></trkpt>
<trkpt lat="42.34255000" lon="1.51692000"><ele>984.5</ele></trkpt>
<trkpt lat="42.34236000" lon="1.51715000"><ele>994.4</ele></trkpt>
<trkpt lat="42.34246000" lon="1.51746000"><ele>1001.3</ele></trkpt>
<trkpt lat="42.34254000" lon="1.51780000"><ele>1008.0</ele></trkpt>
<trkpt lat="42.34257000" lon="1.51822000"><ele>1015.8</ele></trkpt>
<trkpt lat="42.34248000" lon="1.51882000"><ele>1028.2</ele></trkpt>
<trkpt lat="42.34228000" lon="1.51894000"><ele>1035.6</ele></trkpt>
<trkpt lat="42.34204000" lon="1.51878000"><ele>1039.2</ele></trkpt>
<trkpt lat="42.34179000" lon="1.51876000"><ele>1041.8</ele></trkpt>
<trkpt lat="42.34153000" lon="1.51894000"><ele>1047.7</ele></trkpt>
<trkpt lat="42.34138000" lon="1.51907000"><ele>1051.5</ele></trkpt>
<trkpt lat="42.34126000" lon="1.51883000"><ele>1048.4</ele></trkpt>
<trkpt lat="42.34094000" lon="1.51882000"><ele>1053.6</ele></trkpt>
<trkpt lat="42.34095000" lon="1.51922000"><ele>1062.0</ele></trkpt>
<trkpt lat="42.34091000" lon="1.51952000"><ele>1068.1</ele></trkpt>
<trkpt lat="42.34083000" lon="1.51978000"><ele>1076.2</ele></trkpt>
<trkpt lat="42.34067000" lon="1.51951000"><ele>1077.0</ele></trkpt>
<trkpt lat="42.34045000" lon="1.51944000"><ele>1083.2</ele></trkpt>
<trkpt lat="42.34022000" lon="1.51970000"><ele>1096.9</ele></trkpt>
<trkpt lat="42.33992000" lon="1.52013000"><ele>1114.5</ele></trkpt>
<trkpt lat="42.33960000" lon="1.52035000"><ele>1121.9</ele></trkpt>
<trkpt lat="42.33967037" lon="1.52057040"><ele>1122.5</ele></trkpt>
<trkpt lat="42.33967000" lon="1.52057000"><ele>1122.5</ele></trkpt>
<trkpt lat="42.33948000" lon="1.52055000"><ele>1123.3</ele></trkpt>
<trkpt lat="42.33929000" lon="1.52030000"><ele>1124.7</ele></trkpt>
<trkpt lat="42.33896000" lon="1.51992000"><ele>1123.1</ele></trkpt>
<trkpt lat="42.33872000" lon="1.51975000"><ele>1120.7</ele></trkpt>
<trkpt lat="42.33851000" lon="1.51972000"><ele>1118.6</ele></trkpt>
<trkpt lat="42.33823000" lon="1.51979000"><ele>1116.5</ele></trkpt>
<trkpt lat="42.33789000" lon="1.51983000"><ele>1114.4</ele></trkpt>
<trkpt lat="42.33715000" lon="1.51986000"><ele>1110.3</ele></trkpt>
<trkpt lat="42.33680000" lon="1.51981000"><ele>1108.4</ele></trkpt>
<trkpt lat="42.33660000" lon="1.51974000"><ele>1108.3</ele></trkpt>
<trkpt lat="42.33661000" lon="1.51975000"><ele>1108.3</ele></trkpt>
<trkpt lat="42.33659000" lon="1.51956000"><ele>1109.4</ele></trkpt>
<trkpt lat="42.33662000" lon="1.51931000"><ele>1113.7</ele></trkpt>
<trkpt lat="42.33669000" lon="1.51916000"><ele>1115.5</ele></trkpt>
<trkpt lat="42.33671000" lon="1.51908000"><ele>1117.0</ele></trkpt>
<trkpt lat="42.33694000" lon="1.51874000"><ele>1120.9</ele></trkpt>
<trkpt lat="42.33707000" lon="1.51839000"><ele>1123.7</ele></trkpt>
<trkpt lat="42.33713000" lon="1.51812000"><ele>1127.2</ele></trkpt>
<trkpt lat="42.33729000" lon="1.51768000"><ele>1133.0</ele></trkpt>
<trkpt lat="42.33738000" lon="1.51721000"><ele>1140.0</ele></trkpt>
<trkpt lat="42.33758000" lon="1.51662000"><ele>1147.5</ele></trkpt>
<trkpt lat="42.33757982" lon="1.51661959"><ele>1147.5</ele></trkpt>
<trkpt lat="42.33755000" lon="1.51655000"><ele>1148.2</ele></trkpt>
<trkpt lat="42.33706000" lon="1.51748000"><ele>1147.0</ele></trkpt>
<trkpt lat="42.33695000" lon="1.51765000"><ele>1146.7</ele></trkpt>
<trkpt lat="42.33670000" lon="1.51794000"><ele>1146.2</ele></trkpt>
<trkpt lat="42.33651000" lon="1.51830000"><ele>1145.9</ele></trkpt>
<trkpt lat="42.33594000" lon="1.51886000"><ele>1145.2</ele></trkpt>
<trkpt lat="42.33571000" lon="1.51911000"><ele>1145.3</ele></trkpt>
<trkpt lat="42.33558000" lon="1.51931000"><ele>1145.4</ele></trkpt>
<trkpt lat="42.33551000" lon="1.51948000"><ele>1145.6</ele></trkpt>
<trkpt lat="42.33530000" lon="1.52006000"><ele>1146.4</ele></trkpt>
<trkpt lat="42.33521000" lon="1.52024000"><ele>1147.0</ele></trkpt>
<trkpt lat="42.33506000" lon="1.52043000"><ele>1147.0</ele></trkpt>
<trkpt lat="42.33495000" lon="1.52067000"><ele>1148.3</ele></trkpt>
<trkpt lat="42.33485000" lon="1.52104000"><ele>1149.3</ele></trkpt>
<trkpt lat="42.33477000" lon="1.52156000"><ele>1150.8</ele></trkpt>
<trkpt lat="42.33469000" lon="1.52176000"><ele>1151.2</ele></trkpt>
<trkpt lat="42.33435000" lon="1.52224000"><ele>1151.0</ele></trkpt>
<trkpt lat="42.33435000" lon="1.52233000"><ele>1151.0</ele></trkpt>
<trkpt lat="42.33440000" lon="1.52240000"><ele>1151.0</ele></trkpt>
<trkpt lat="42.33449000" lon="1.52243000"><ele>1151.0</ele></trkpt>
<trkpt lat="42.33465000" lon="1.52241000"><ele>1151.3</ele></trkpt>
<trkpt lat="42.33490000" lon="1.52230000"><ele>1152.2</ele></trkpt>
<trkpt lat="42.33565000" lon="1.52183000"><ele>1158.8</ele></trkpt>
<trkpt lat="42.33614000" lon="1.52141000"><ele>1162.2</ele></trkpt>
<trkpt lat="42.33627000" lon="1.52137000"><ele>1164.0</ele></trkpt>
<trkpt lat="42.33656000" lon="1.52139000"><ele>1164.7</ele></trkpt>
<trkpt lat="42.33720500" lon="1.52127500"><ele>1163.4</ele></trkpt>
<trkpt lat="42.33785000" lon="1.52116000"><ele>1160.9</ele></trkpt>
<trkpt lat="42.33797000" lon="1.52129000"><ele>1160.5</ele></trkpt>
<trkpt lat="42.33804000" lon="1.52193000"><ele>1159.0</ele></trkpt>
<trkpt lat="42.33797000" lon="1.52221000"><ele>1157.2</ele></trkpt>
<trkpt lat="42.33805000" lon="1.52267000"><ele>1156.6</ele></trkpt>
<trkpt lat="42.33831000" lon="1.52297000"><ele>1156.4</ele></trkpt>
<trkpt lat="42.33871000" lon="1.52309000"><ele>1155.8</ele></trkpt>
<trkpt lat="42.33900000" lon="1.52305000"><ele>1155.2</ele></trkpt>
<trkpt lat="42.33982000" lon="1.52299000"><ele>1151.7</ele></trkpt>
<trkpt lat="42.34042000" lon="1.52304000"><ele>1148.6</ele></trkpt>
<trkpt lat="42.34104000" lon="1.52329000"><ele>1144.3</ele></trkpt>
<trkpt lat="42.34131000" lon="1.52368000"><ele>1141.8</ele></trkpt>
<trkpt lat="42.34135000" lon="1.52399000"><ele>1141.2</ele></trkpt>
<trkpt lat="42.34101000" lon="1.52452000"><ele>1137.7</ele></trkpt>
<trkpt lat="42.34081000" lon="1.52471000"><ele>1136.2</ele></trkpt>
<trkpt lat="42.34078000" lon="1.52489000"><ele>1135.1</ele></trkpt>
<trkpt lat="42.34144000" lon="1.52563000"><ele>1127.9</ele></trkpt>
<trkpt lat="42.34182000" lon="1.52559000"><ele>1124.1</ele></trkpt>
<trkpt lat="42.34218983" lon="1.52564997"><ele>1121.2</ele></trkpt>
<trkpt lat="42.34244988" lon="1.52558003"><ele>1117.7</ele></trkpt>
<trkpt lat="42.34245000" lon="1.52558000"><ele>1117.7</ele></trkpt>
<trkpt lat="42.34320000" lon="1.52585000"><ele>1111.4</ele></trkpt>
<trkpt lat="42.34344000" lon="1.52631000"><ele>1109.0</ele></trkpt>
<trkpt lat="42.34377000" lon="1.52679000"><ele>1106.7</ele></trkpt>
<trkpt lat="42.34400000" lon="1.52690000"><ele>1106.2</ele></trkpt>
<trkpt lat="42.34458000" lon="1.52675000"><ele>1105.9</ele></trkpt>
<trkpt lat="42.34481000" lon="1.52659000"><ele>1104.5</ele></trkpt>
<trkpt lat="42.34544000" lon="1.52609000"><ele>1093.9</ele></trkpt>
<trkpt lat="42.34562000" lon="1.52611000"><ele>1093.0</ele></trkpt>
<trkpt lat="42.34576000" lon="1.52601000"><ele>1091.3</ele></trkpt>
<trkpt lat="42.34587000" lon="1.52600000"><ele>1091.3</ele></trkpt>
<trkpt lat="42.34600000" lon="1.52585000"><ele>1088.3</ele></trkpt>
<trkpt lat="42.34600000" lon="1.52577000"><ele>1087.9</ele></trkpt>
<trkpt lat="42.34588000" lon="1.52570000"><ele>1086.8</ele></trkpt>
<trkpt lat="42.34543000" lon="1.52570000"><ele>1082.4</ele></trkpt>
<trkpt lat="42.34499000" lon="1.52579000"><ele>1076.5</ele></trkpt>
<trkpt lat="42.34448000" lon="1.52545000"><ele>1073.2</ele></trkpt>
<trkpt lat="42.34403000" lon="1.52532000"><ele>1066.6</ele></trkpt>
<trkpt lat="42.34399000" lon="1.52521000"><ele>1066.6</ele></trkpt>
<trkpt lat="42.34402000" lon="1.52514000"><ele>1065.7</ele></trkpt>
<trkpt lat="42.34414000" lon="1.52516000"><ele>1064.6</ele></trkpt>
<trkpt lat="42.34438000" lon="1.52511000"><ele>1063.5</ele></trkpt>
<trkpt lat="42.34453000" lon="1.52514000"><ele>1062.5</ele></trkpt>
<trkpt lat="42.34500000" lon="1.52514000"><ele>1060.5</ele></trkpt>
<trkpt lat="42.34575000" lon="1.52475500"><ele>1056.2</ele></trkpt>
<trkpt lat="42.34650000" lon="1.52437000"><ele>1051.2</ele></trkpt>
<trkpt lat="42.34695000" lon="1.52451000"><ele>1046.0</ele></trkpt>
<trkpt lat="42.34699000" lon="1.52442000"><ele>1046.0</ele></trkpt>
<trkpt lat="42.34688000" lon="1.52429000"><ele>1044.4</ele></trkpt>
<trkpt lat="42.34641000" lon="1.52404000"><ele>1040.6</ele></trkpt>
<trkpt lat="42.34595000" lon="1.52398000"><ele>1037.4</ele></trkpt>
<trkpt lat="42.34580000" lon="1.52382000"><ele>1036.1</ele></trkpt>
<trkpt lat="42.34550000" lon="1.52363000"><ele>1034.2</ele></trkpt>
<trkpt lat="42.34537000" lon="1.52345000"><ele>1033.6</ele></trkpt>
<trkpt lat="42.34518000" lon="1.52336000"><ele>1031.8</ele></trkpt>
<trkpt lat="42.34517000" lon="1.52336000"><ele>1031.8</ele></trkpt>
<trkpt lat="42.34509000" lon="1.52332000"><ele>1031.3</ele></trkpt>
<trkpt lat="42.34465000" lon="1.52335000"><ele>1028.4</ele></trkpt>
<trkpt lat="42.34435000" lon="1.52324000"><ele>1027.8</ele></trkpt>
<trkpt lat="42.34412000" lon="1.52328000"><ele>1026.9</ele></trkpt>
<trkpt lat="42.34391000" lon="1.52307000"><ele>1025.1</ele></trkpt>
<trkpt lat="42.34405000" lon="1.52214000"><ele>1017.0</ele></trkpt>
<trkpt lat="42.34399000" lon="1.52168000"><ele>1014.5</ele></trkpt>
<trkpt lat="42.34460000" lon="1.52080000"><ele>1004.7</ele></trkpt>
<trkpt lat="42.34530000" lon="1.52104000"><ele>996.6</ele></trkpt>
<trkpt lat="42.34541000" lon="1.52148000"><ele>993.1</ele></trkpt>
<trkpt lat="42.34582000" lon="1.52116000"><ele>988.2</ele></trkpt>
<trkpt lat="42.34640000" lon="1.52085000"><ele>985.6</ele></trkpt>
<trkpt lat="42.34665000" lon="1.52097000"><ele>983.3</ele></trkpt>
<trkpt lat="42.34734000" lon="1.52048000"><ele>976.9</ele></trkpt>
<trkpt lat="42.34740000" lon="1.52045000"><ele>976.9</ele></trkpt>
<trkpt lat="42.34767000" lon="1.52017000"><ele>975.0</ele></trkpt>
<trkpt lat="42.34799998" lon="1.51965003"><ele>966.9</ele></trkpt>
<trkpt lat="42.34812000" lon="1.51956000"><ele>965.9</ele></trkpt>
<trkpt lat="42.34812000" lon="1.51951000"><ele>965.2</ele></trkpt>
<trkpt lat="42.34800000" lon="1.51945000"><ele>965.2</ele></trkpt>
<trkpt lat="42.34789000" lon="1.51935000"><ele>961.7</ele></trkpt>
<trkpt lat="42.34764000" lon="1.51920000"><ele>958.8</ele></trkpt>
<trkpt lat="42.34716000" lon="1.51938000"><ele>953.9</ele></trkpt>
<trkpt lat="42.34681000" lon="1.51944000"><ele>949.9</ele></trkpt>
<trkpt lat="42.34671003" lon="1.51925006"><ele>948.0</ele></trkpt>
<trkpt lat="42.34680000" lon="1.51908000"><ele>950.3</ele></trkpt>
<trkpt lat="42.34677000" lon="1.51895000"><ele>948.5</ele></trkpt>
<trkpt lat="42.34677000" lon="1.51874000"><ele>945.1</ele></trkpt>
<trkpt lat="42.34684000" lon="1.51843000"><ele>940.7</ele></trkpt>
<trkpt lat="42.34693000" lon="1.51817000"><ele>936.6</ele></trkpt>
<trkpt lat="42.34695000" lon="1.51792000"><ele>932.8</ele></trkpt>
<trkpt lat="42.34687000" lon="1.51763000"><ele>927.9</ele></trkpt>
<trkpt lat="42.34679000" lon="1.51735000"><ele>922.4</ele></trkpt>
<trkpt lat="42.34670000" lon="1.51746000"><ele>924.2</ele></trkpt>
<trkpt lat="42.34663000" lon="1.51749000"><ele>924.2</ele></trkpt>
<trkpt lat="42.34636000" lon="1.51734000"><ele>921.2</ele></trkpt>
<trkpt lat="42.34614000" lon="1.51730000"><ele>918.9</ele></trkpt>
<trkpt lat="42.34606000" lon="1.51726000"><ele>918.3</ele></trkpt>
<trkpt lat="42.34602000" lon="1.51721000"><ele>916.0</ele></trkpt>
<trkpt lat="42.34597000" lon="1.51709000"><ele>916.0</ele></trkpt>
<trkpt lat="42.34594000" lon="1.51693000"><ele>912.3</ele></trkpt>
<trkpt lat="42.34595000" lon="1.51674000"><ele>912.3</ele></trkpt>
<trkpt lat="42.34605000" lon="1.51659000"><ele>909.6</ele></trkpt>
<trkpt lat="42.34626000" lon="1.51640000"><ele>905.6</ele></trkpt>
<trkpt lat="42.34635000" lon="1.51629000"><ele>903.7</ele></trkpt>
<trkpt lat="42.34639000" lon="1.51562000"><ele>893.9</ele></trkpt>
<trkpt lat="42.34648000" lon="1.51536000"><ele>886.3</ele></trkpt>
<trkpt lat="42.34671000" lon="1.51487000"><ele>878.1</ele></trkpt>
<trkpt lat="42.34685000" lon="1.51469000"><ele>876.4</ele></trkpt>
<trkpt lat="42.34705000" lon="1.51449000"><ele>872.4</ele></trkpt>
<trkpt lat="42.34723000" lon="1.51397000"><ele>866.1</ele></trkpt>
<trkpt lat="42.34724000" lon="1.51344000"><ele>860.1</ele></trkpt>
<trkpt lat="42.34730000" lon="1.51315000"><ele>857.3</ele></trkpt>
<trkpt lat="42.34742000" lon="1.51282000"><ele>854.0</ele></trkpt>
<trkpt lat="42.34762000" lon="1.51217000"><ele>846.6</ele></trkpt>
<trkpt lat="42.34789000" lon="1.51147000"><ele>841.2</ele></trkpt>
<trkpt lat="42.34805000" lon="1.51121000"><ele>838.0</ele></trkpt>
<trkpt lat="42.34812000" lon="1.51105000"><ele>835.7</ele></trkpt>
<trkpt lat="42.34835000" lon="1.51082000"><ele>829.6</ele></trkpt>
<trkpt lat="42.34840000" lon="1.51075000"><ele>828.8</ele></trkpt>
<trkpt lat="42.34840001" lon="1.51074983"><ele>828.8</ele></trkpt>
<trkpt lat="42.34839000" lon="1.51056000"><ele>826.6</ele></trkpt>
<trkpt lat="42.34842000" lon="1.51044000"><ele>823.8</ele></trkpt>
<trkpt lat="42.34854000" lon="1.51037000"><ele>823.8</ele></trkpt>
<trkpt lat="42.34859000" lon="1.51030000"><ele>823.8</ele></trkpt>
<trkpt lat="42.34883000" lon="1.51037000"><ele>814.8</ele></trkpt>
<trkpt lat="42.34899000" lon="1.51034000"><ele>813.2</ele></trkpt>
<trkpt lat="42.34910000" lon="1.51026000"><ele>811.0</ele></trkpt>
<trkpt lat="42.34911000" lon="1.51016000"><ele>808.7</ele></trkpt>
<trkpt lat="42.34917000" lon="1.51009000"><ele>808.0</ele></trkpt>
<trkpt lat="42.34924000" lon="1.51009000"><ele>806.8</ele></trkpt>
<trkpt lat="42.34936000" lon="1.51006000"><ele>805.9</ele></trkpt>
<trkpt lat="42.34943000" lon="1.51010000"><ele>805.3</ele></trkpt>
<trkpt lat="42.34950000" lon="1.51009000"><ele>805.1</ele></trkpt>
<trkpt lat="42.34965000" lon="1.51003000"><ele>804.4</ele></trkpt>
<trkpt lat="42.34968000" lon="1.50996000"><ele>804.2</ele></trkpt>
<trkpt lat="42.34966000" lon="1.50987000"><ele>803.4</ele></trkpt>
<trkpt lat="42.34969000" lon="1.50982000"><ele>802.8</ele></trkpt>
<trkpt lat="42.34983000" lon="1.50974000"><ele>800.4</ele></trkpt>
<trkpt lat="42.34985000" lon="1.50965000"><ele>799.4</ele></trkpt>
<trkpt lat="42.34990000" lon="1.50960000"><ele>795.5</ele></trkpt>
<trkpt lat="42.34997000" lon="1.50959000"><ele>795.5</ele></trkpt>
<trkpt lat="42.35027000" lon="1.50964000"><ele>791.4</ele></trkpt>
<trkpt lat="42.35033000" lon="1.50969000"><ele>790.0</ele></trkpt>
<trkpt lat="42.35033003" lon="1.50969012"><ele>790.0</ele></trkpt>
<trkpt lat="42.35037000" lon="1.50987000"><ele>787.6</ele></trkpt>
<trkpt lat="42.35047000" lon="1.50981000"><ele>784.4</ele></trkpt>
<trkpt lat="42.35063000" lon="1.50982000"><ele>781.1</ele></trkpt>
<trkpt lat="42.35063011" lon="1.50982005"><ele>781.1</ele></trkpt>
<trkpt lat="42.35076000" lon="1.50988000"><ele>779.0</ele></trkpt>
<trkpt lat="42.35082000" lon="1.50975000"><ele>778.0</ele></trkpt>
<trkpt lat="42.35082000" lon="1.50960000"><ele>778.0</ele></trkpt>
<trkpt lat="42.35072000" lon="1.50928000"><ele>772.9</ele></trkpt>
<trkpt lat="42.35074000" lon="1.50920000"><ele>772.9</ele></trkpt>
<trkpt lat="42.35104000" lon="1.50867000"><ele>770.8</ele></trkpt>
<trkpt lat="42.35133841" lon="1.50832496"><ele>768.5</ele></trkpt>
</trkseg></trk></gpx>