<?xml version="1.0" encoding="UTF-8"?>
<gpx creator="StravaGPX" version="1.1" xmlns="http://www.topografix.com/GPX/1/1" xmlns:xsi="http://www.w3.org/2001/XMLSchema-instance" xsi:schemaLocation="http://www.topografix.com/GPX/1/1 http://www.topografix.com/GPX/1/1/gpx.xsd">
 <metadata>
  <name>004</name>
  <author>
   <name>Marc Fargas Fargas</name>
   <link href="https://www.strava.com/athletes/59113394"/>
  </author>
  <copyright author="OpenStreetMap contributors">
   <year>2020</year>
   <license>https://www.openstreetmap.org/copyright</license>
  </copyright>
  <link href="https://www.strava.com/routes/3518631675161440256"/>
 </metadata>
 <trk>
  <name>004</name>
  <link href="https://www.strava.com/routes/3518631675161440256"/>
  <type>cycling</type>
  <trkseg>
   <trkpt lat="42.346790000000006" lon="1.5173400000000001">
    <ele>925.1</ele>
   </trkpt>
   <trkpt lat="42.34685" lon="1.5172700000000001">
    <ele>925.5200000000001</ele>
   </trkpt>
   <trkpt lat="42.347060000000006" lon="1.5171700000000001">
    <ele>927.98</ele>
   </trkpt>
   <trkpt lat="42.34714" lon="1.5171500000000002">
    <ele>927.98</ele>
   </trkpt>
   <trkpt lat="42.34732" lon="1.51723">
    <ele>930.32</ele>
   </trkpt>
   <trkpt lat="42.34738" lon="1.51729">
    <ele>930.32</ele>
   </trkpt>
   <trkpt lat="42.347530000000006" lon="1.5178300000000002">
    <ele>934.0100000000001</ele>
   </trkpt>
   <trkpt lat="42.347590000000004" lon="1.51794">
    <ele>934.6600000000001</ele>
   </trkpt>
  </trkseg>
 </trk>
</gpx>
