<?xml version="1.0" encoding="UTF-8"?>
<gpx creator="StravaGPX" version="1.1" xmlns="http://www.topografix.com/GPX/1/1" xmlns:xsi="http://www.w3.org/2001/XMLSchema-instance" xsi:schemaLocation="http://www.topografix.com/GPX/1/1 http://www.topografix.com/GPX/1/1/gpx.xsd">
 <metadata>
  <name>009</name>
  <author>
   <name>Marc Fargas Fargas</name>
   <link href="https://www.strava.com/athletes/59113394"/>
  </author>
  <copyright author="OpenStreetMap contributors">
   <year>2020</year>
   <license>https://www.openstreetmap.org/copyright</license>
  </copyright>
  <link href="https://www.strava.com/routes/3518623570576050176"/>
 </metadata>
 <trk>
  <name>009</name>
  <link href="https://www.strava.com/routes/3518623570576050176"/>
  <type>cycling</type>
  <trkseg>
   <trkpt lat="42.35063" lon="1.51285">
    <ele>806.44</ele>
   </trkpt>
   <trkpt lat="42.35061" lon="1.51279">
    <ele>806.44</ele>
   </trkpt>
   <trkpt lat="42.35065" lon="1.51265">
    <ele>804.61</ele>
   </trkpt>
   <trkpt lat="42.35078" lon="1.5124900000000001">
    <ele>803.7400000000001</ele>
   </trkpt>
   <trkpt lat="42.351110000000006" lon="1.51224">
    <ele>799.09</ele>
   </trkpt>
   <trkpt lat="42.351200000000006" lon="1.5121000000000002">
    <ele>798.1600000000001</ele>
   </trkpt>
   <trkpt lat="42.35121" lon="1.5120200000000001">
    <ele>797.39</ele>
   </trkpt>
   <trkpt lat="42.35119" lon="1.5119600000000002">
    <ele>797.0600000000001</ele>
   </trkpt>
   <trkpt lat="42.35108" lon="1.5118200000000002">
    <ele>796.51</ele>
   </trkpt>
   <trkpt lat="42.35094" lon="1.5117">
    <ele>795.5200000000001</ele>
   </trkpt>
   <trkpt lat="42.35033000000001" lon="1.5116900000000002">
    <ele>791.69</ele>
   </trkpt>
   <trkpt lat="42.350210000000004" lon="1.5116100000000001">
    <ele>789.9100000000001</ele>
   </trkpt>
   <trkpt lat="42.350100000000005" lon="1.5114400000000001">
    <ele>788.46</ele>
   </trkpt>
   <trkpt lat="42.350100000000005" lon="1.5112200000000002">
    <ele>788.46</ele>
   </trkpt>
   <trkpt lat="42.35013" lon="1.5111400000000001">
    <ele>788.46</ele>
   </trkpt>
   <trkpt lat="42.35042000000001" lon="1.5108700000000002">
    <ele>784.37</ele>
   </trkpt>
  </trkseg>
 </trk>
</gpx>
