<?xml version="1.0" encoding="UTF-8"?>
<gpx creator="StravaGPX" version="1.1" xmlns="http://www.topografix.com/GPX/1/1" xmlns:xsi="http://www.w3.org/2001/XMLSchema-instance" xsi:schemaLocation="http://www.topografix.com/GPX/1/1 http://www.topografix.com/GPX/1/1/gpx.xsd">
 <metadata>
  <name>010</name>
  <author>
   <name>Marc Fargas Fargas</name>
   <link href="https://www.strava.com/athletes/59113394"/>
  </author>
  <copyright author="OpenStreetMap contributors">
   <year>2020</year>
   <license>https://www.openstreetmap.org/copyright</license>
  </copyright>
  <link href="https://www.strava.com/routes/3518623570581856256"/>
 </metadata>
 <trk>
  <name>010</name>
  <link href="https://www.strava.com/routes/3518623570581856256"/>
  <type>cycling</type>
  <trkseg>
   <trkpt lat="42.35042000000001" lon="1.5108700000000002">
    <ele>784.37</ele>
   </trkpt>
   <trkpt lat="42.350530000000006" lon="1.5106400000000002">
    <ele>782.7900000000001</ele>
   </trkpt>
   <trkpt lat="42.350660000000005" lon="1.5101000000000002">
    <ele>780.14</ele>
   </trkpt>
   <trkpt lat="42.35076" lon="1.50988">
    <ele>779.0100000000001</ele>
   </trkpt>
  </trkseg>
 </trk>
</gpx>
