<?xml version="1.0" encoding="UTF-8"?>
<gpx creator="StravaGPX" version="1.1" xmlns="http://www.topografix.com/GPX/1/1" xmlns:xsi="http://www.w3.org/2001/XMLSchema-instance" xsi:schemaLocation="http://www.topografix.com/GPX/1/1 http://www.topografix.com/GPX/1/1/gpx.xsd">
 <metadata>
  <name>011</name>
  <author>
   <name>Marc Fargas Fargas</name>
   <link href="https://www.strava.com/athletes/59113394"/>
  </author>
  <copyright author="OpenStreetMap contributors">
   <year>2020</year>
   <license>https://www.openstreetmap.org/copyright</license>
  </copyright>
  <link href="https://www.strava.com/routes/3518638561025877376"/>
 </metadata>
 <trk>
  <name>011</name>
  <link href="https://www.strava.com/routes/3518638561025877376"/>
  <type>cycling</type>
  <trkseg>
   <trkpt lat="42.35079" lon="1.51817">
    <ele>908.6800000000001</ele>
   </trkpt>
   <trkpt lat="42.35126" lon="1.51815">
    <ele>905.7600000000001</ele>
   </trkpt>
   <trkpt lat="42.35159" lon="1.51791">
    <ele>904.3000000000001</ele>
   </trkpt>
   <trkpt lat="42.3519" lon="1.51784">
    <ele>903.21</ele>
   </trkpt>
  </trkseg>
 </trk>
</gpx>
