<?xml version="1.0" encoding="UTF-8"?>
<gpx creator="StravaGPX" version="1.1" xmlns="http://www.topografix.com/GPX/1/1" xmlns:xsi="http://www.w3.org/2001/XMLSchema-instance" xsi:schemaLocation="http://www.topografix.com/GPX/1/1 http://www.topografix.com/GPX/1/1/gpx.xsd">
 <metadata>
  <name>012</name>
  <author>
   <name>Marc Fargas Fargas</name>
   <link href="https://www.strava.com/athletes/59113394"/>
  </author>
  <copyright author="OpenStreetMap contributors">
   <year>2020</year>
   <license>https://www.openstreetmap.org/copyright</license>
  </copyright>
  <link href="https://www.strava.com/routes/3518629082573554688"/>
 </metadata>
 <trk>
  <name>012</name>
  <link href="https://www.strava.com/routes/3518629082573554688"/>
  <type>cycling</type>
  <trkseg>
   <trkpt lat="42.3519" lon="1.51784">
    <ele>903.21</ele>
   </trkpt>
   <trkpt lat="42.35208" lon="1.5173">
    <ele>889.99</ele>
   </trkpt>
   <trkpt lat="42.352000000000004" lon="1.51703">
    <ele>883.2500000000001</ele>
   </trkpt>
  </trkseg>
 </trk>
</gpx>
