<?xml version="1.0" encoding="UTF-8"?>
<gpx creator="StravaGPX" version="1.1" xmlns="http://www.topografix.com/GPX/1/1" xmlns:xsi="http://www.w3.org/2001/XMLSchema-instance" xsi:schemaLocation="http://www.topografix.com/GPX/1/1 http://www.topografix.com/GPX/1/1/gpx.xsd">
 <metadata>
  <name>013</name>
  <author>
   <name>Marc Fargas Fargas</name>
   <link href="https://www.strava.com/athletes/59113394"/>
  </author>
  <copyright author="OpenStreetMap contributors">
   <year>2020</year>
   <license>https://www.openstreetmap.org/copyright</license>
  </copyright>
  <link href="https://www.strava.com/routes/3518623306718521344"/>
 </metadata>
 <trk>
  <name>013</name>
  <link href="https://www.strava.com/routes/3518623306718521344"/>
  <type>cycling</type>
  <trkseg>
   <trkpt lat="42.352000000000004" lon="1.51703">
    <ele>883.2500000000001</ele>
   </trkpt>
   <trkpt lat="42.35161" lon="1.5167100000000002">
    <ele>881.72</ele>
   </trkpt>
   <trkpt lat="42.35134" lon="1.51679">
    <ele>877.96</ele>
   </trkpt>
   <trkpt lat="42.35125" lon="1.5167400000000002">
    <ele>877.2900000000001</ele>
   </trkpt>
   <trkpt lat="42.351220000000005" lon="1.5162200000000001">
    <ele>872.58</ele>
   </trkpt>
   <trkpt lat="42.351130000000005" lon="1.5155800000000001">
    <ele>869.84</ele>
   </trkpt>
  </trkseg>
 </trk>
</gpx>
