<?xml version="1.0" encoding="UTF-8"?>
<gpx creator="StravaGPX" version="1.1" xmlns="http://www.topografix.com/GPX/1/1" xmlns:xsi="http://www.w3.org/2001/XMLSchema-instance" xsi:schemaLocation="http://www.topografix.com/GPX/1/1 http://www.topografix.com/GPX/1/1/gpx.xsd">
 <metadata>
  <name>018</name>
  <author>
   <name>Marc Fargas Fargas</name>
   <link href="https://www.strava.com/athletes/59113394"/>
  </author>
  <copyright author="OpenStreetMap contributors">
   <year>2020</year>
   <license>https://www.openstreetmap.org/copyright</license>
  </copyright>
  <link href="https://www.strava.com/routes/3518631552311795210"/>
 </metadata>
 <trk>
  <name>018</name>
  <link href="https://www.strava.com/routes/3518631552311795210"/>
  <type>cycling</type>
  <trkseg>
   <trkpt lat="42.35262" lon="1.51346">
    <ele>823.71</ele>
   </trkpt>
   <trkpt lat="42.35248000000001" lon="1.5133">
    <ele>821.7800000000001</ele>
   </trkpt>
   <trkpt lat="42.352250000000005" lon="1.5131500000000002">
    <ele>819.5500000000001</ele>
   </trkpt>
   <trkpt lat="42.35211" lon="1.51312">
    <ele>818.9300000000001</ele>
   </trkpt>
   <trkpt lat="42.35154" lon="1.5131400000000002">
    <ele>814.4</ele>
   </trkpt>
   <trkpt lat="42.35069" lon="1.5129700000000001">
    <ele>807.83</ele>
   </trkpt>
   <trkpt lat="42.35063" lon="1.5129000000000001">
    <ele>806.44</ele>
   </trkpt>
   <trkpt lat="42.35063" lon="1.51285">
    <ele>806.44</ele>
   </trkpt>
  </trkseg>
 </trk>
</gpx>
