<?xml version="1.0" encoding="UTF-8"?>
<gpx creator="StravaGPX" version="1.1" xmlns="http://www.topografix.com/GPX/1/1" xmlns:xsi="http://www.w3.org/2001/XMLSchema-instance" xsi:schemaLocation="http://www.topografix.com/GPX/1/1 http://www.topografix.com/GPX/1/1/gpx.xsd">
 <metadata>
  <name>028</name>
  <author>
   <name>Marc Fargas Fargas</name>
   <link href="https://www.strava.com/athletes/59113394"/>
  </author>
  <copyright author="OpenStreetMap contributors">
   <year>2020</year>
   <license>https://www.openstreetmap.org/copyright</license>
  </copyright>
  <link href="https://www.strava.com/routes/3518630382769075722"/>
 </metadata>
 <trk>
  <name>028</name>
  <link href="https://www.strava.com/routes/3518630382769075722"/>
  <type>cycling</type>
  <trkseg>
   <trkpt lat="42.35009" lon="1.5113800000000002">
    <ele>788.46</ele>
   </trkpt>
   <trkpt lat="42.349990000000005" lon="1.51147">
    <ele>789.2600000000001</ele>
   </trkpt>
   <trkpt lat="42.34987" lon="1.5115100000000001">
    <ele>790.51</ele>
   </trkpt>
   <trkpt lat="42.349830000000004" lon="1.51146">
    <ele>791.19</ele>
   </trkpt>
   <trkpt lat="42.34982" lon="1.5113800000000002">
    <ele>791.44</ele>
   </trkpt>
   <trkpt lat="42.35002" lon="1.51082">
    <ele>792.6800000000001</ele>
   </trkpt>
   <trkpt lat="42.35031" lon="1.5102300000000002">
    <ele>788.6</ele>
   </trkpt>
   <trkpt lat="42.350370000000005" lon="1.50987">
    <ele>787.6200000000001</ele>
   </trkpt>
  </trkseg>
 </trk>
</gpx>
