<?xml version="1.0" encoding="UTF-8"?>
<gpx creator="StravaGPX" version="1.1" xmlns="http://www.topografix.com/GPX/1/1" xmlns:xsi="http://www.w3.org/2001/XMLSchema-instance" xsi:schemaLocation="http://www.topografix.com/GPX/1/1 http://www.topografix.com/GPX/1/1/gpx.xsd">
 <metadata>
  <name>029</name>
  <author>
   <name>Marc Fargas Fargas</name>
   <link href="https://www.strava.com/athletes/59113394"/>
  </author>
  <copyright author="OpenStreetMap contributors">
   <year>2020</year>
   <license>https://www.openstreetmap.org/copyright</license>
  </copyright>
  <link href="https://www.strava.com/routes/3518629082577522688"/>
 </metadata>
 <trk>
  <name>029</name>
  <link href="https://www.strava.com/routes/3518629082577522688"/>
  <type>cycling</type>
  <trkseg>
   <trkpt lat="42.35076" lon="1.50988">
    <ele>779.0100000000001</ele>
   </trkpt>
   <trkpt lat="42.35063" lon="1.5098200000000002">
    <ele>781.14</ele>
   </trkpt>
   <trkpt lat="42.35047" lon="1.50981">
    <ele>784.44</ele>
   </trkpt>
   <trkpt lat="42.350370000000005" lon="1.50987">
    <ele>787.6200000000001</ele>
   </trkpt>
   <trkpt lat="42.35033000000001" lon="1.5096900000000002">
    <ele>789.96</ele>
   </trkpt>
   <trkpt lat="42.35027" lon="1.50964">
    <ele>791.3500000000001</ele>
   </trkpt>
   <trkpt lat="42.349970000000006" lon="1.5095900000000002">
    <ele>794.24</ele>
   </trkpt>
   <trkpt lat="42.349790000000006" lon="1.5094100000000001">
    <ele>798.64</ele>
   </trkpt>
   <trkpt lat="42.34958" lon="1.5091">
    <ele>801.8400000000001</ele>
   </trkpt>
   <trkpt lat="42.34939000000001" lon="1.5088700000000002">
    <ele>805.1800000000001</ele>
   </trkpt>
   <trkpt lat="42.349270000000004" lon="1.5089000000000001">
    <ele>805.1800000000001</ele>
   </trkpt>
   <trkpt lat="42.34917" lon="1.5090000000000001">
    <ele>808.27</ele>
   </trkpt>
   <trkpt lat="42.349050000000005" lon="1.5090700000000001">
    <ele>809.6300000000001</ele>
   </trkpt>
   <trkpt lat="42.348910000000004" lon="1.5090700000000001">
    <ele>813.33</ele>
   </trkpt>
   <trkpt lat="42.348870000000005" lon="1.5091400000000001">
    <ele>814.03</ele>
   </trkpt>
   <trkpt lat="42.348800000000004" lon="1.5094200000000002">
    <ele>817.3100000000001</ele>
   </trkpt>
   <trkpt lat="42.348760000000006" lon="1.5095200000000002">
    <ele>817.3100000000001</ele>
   </trkpt>
   <trkpt lat="42.348670000000006" lon="1.50964">
    <ele>821.12</ele>
   </trkpt>
   <trkpt lat="42.34836000000001" lon="1.50963">
    <ele>823.84</ele>
   </trkpt>
   <trkpt lat="42.348150000000004" lon="1.50973">
    <ele>828.0</ele>
   </trkpt>
  </trkseg>
 </trk>
</gpx>
