<?xml version="1.0" encoding="UTF-8"?>
<gpx creator="StravaGPX" version="1.1" xmlns="http://www.topografix.com/GPX/1/1" xmlns:xsi="http://www.w3.org/2001/XMLSchema-instance" xsi:schemaLocation="http://www.topografix.com/GPX/1/1 http://www.topografix.com/GPX/1/1/gpx.xsd">
 <metadata>
  <name>033</name>
  <author>
   <name>Marc Fargas Fargas</name>
   <link href="https://www.strava.com/athletes/59113394"/>
  </author>
  <copyright author="OpenStreetMap contributors">
   <year>2020</year>
   <license>https://www.openstreetmap.org/copyright</license>
  </copyright>
  <link href="https://www.strava.com/routes/3518631721188993236"/>
 </metadata>
 <trk>
  <name>033</name>
  <link href="https://www.strava.com/routes/3518631721188993236"/>
  <type>cycling</type>
  <trkseg>
   <trkpt lat="42.348490000000005" lon="1.50232">
    <ele>780.96</ele>
   </trkpt>
   <trkpt lat="42.34859" lon="1.50252">
    <ele>780.0600000000001</ele>
   </trkpt>
   <trkpt lat="42.34872" lon="1.5026100000000002">
    <ele>779.27</ele>
   </trkpt>
   <trkpt lat="42.34893" lon="1.5026700000000002">
    <ele>776.6200000000001</ele>
   </trkpt>
   <trkpt lat="42.349050000000005" lon="1.5028000000000001">
    <ele>775.39</ele>
   </trkpt>
   <trkpt lat="42.34926" lon="1.5028800000000002">
    <ele>771.8900000000001</ele>
   </trkpt>
   <trkpt lat="42.34989" lon="1.5035100000000001">
    <ele>765.2800000000001</ele>
   </trkpt>
   <trkpt lat="42.35013" lon="1.50387">
    <ele>765.82</ele>
   </trkpt>
   <trkpt lat="42.35029" lon="1.50441">
    <ele>766.9100000000001</ele>
   </trkpt>
   <trkpt lat="42.350390000000004" lon="1.50503">
    <ele>766.5</ele>
   </trkpt>
   <trkpt lat="42.3504" lon="1.50554">
    <ele>766.29</ele>
   </trkpt>
   <trkpt lat="42.35047" lon="1.50574">
    <ele>765.53</ele>
   </trkpt>
   <trkpt lat="42.350750000000005" lon="1.5061300000000002">
    <ele>765.1800000000001</ele>
   </trkpt>
   <trkpt lat="42.35089000000001" lon="1.50618">
    <ele>764.1000000000001</ele>
   </trkpt>
   <trkpt lat="42.35112" lon="1.5063700000000002">
    <ele>760.72</ele>
   </trkpt>
   <trkpt lat="42.35128" lon="1.5066100000000002">
    <ele>759.41</ele>
   </trkpt>
   <trkpt lat="42.35134" lon="1.5070500000000002">
    <ele>761.87</ele>
   </trkpt>
   <trkpt lat="42.351760000000006" lon="1.50733">
    <ele>764.21</ele>
   </trkpt>
   <trkpt lat="42.35197" lon="1.50771">
    <ele>763.1500000000001</ele>
   </trkpt>
   <trkpt lat="42.352050000000006" lon="1.50791">
    <ele>760.44</ele>
   </trkpt>
  </trkseg>
 </trk>
</gpx>
