<?xml version="1.0" encoding="UTF-8"?>
<gpx creator="StravaGPX" version="1.1" xmlns="http://www.topografix.com/GPX/1/1" xmlns:xsi="http://www.w3.org/2001/XMLSchema-instance" xsi:schemaLocation="http://www.topografix.com/GPX/1/1 http://www.topografix.com/GPX/1/1/gpx.xsd">
 <metadata>
  <name>037</name>
  <author>
   <name>Marc Fargas Fargas</name>
   <link href="https://www.strava.com/athletes/59113394"/>
  </author>
  <copyright author="OpenStreetMap contributors">
   <year>2020</year>
   <license>https://www.openstreetmap.org/copyright</license>
  </copyright>
  <link href="https://www.strava.com/routes/3518637322897904640"/>
 </metadata>
 <trk>
  <name>037</name>
  <link href="https://www.strava.com/routes/3518637322897904640"/>
  <type>cycling</type>
  <trkseg>
   <trkpt lat="42.34342" lon="1.49689">
    <ele>801.6700000000001</ele>
   </trkpt>
   <trkpt lat="42.34304" lon="1.49686">
    <ele>812.49</ele>
   </trkpt>
   <trkpt lat="42.34273" lon="1.49716">
    <ele>823.69</ele>
   </trkpt>
   <trkpt lat="42.34239" lon="1.49679">
    <ele>841.0300000000001</ele>
   </trkpt>
   <trkpt lat="42.34205" lon="1.4969500000000002">
    <ele>854.9200000000001</ele>
   </trkpt>
   <trkpt lat="42.34174" lon="1.49685">
    <ele>868.65</ele>
   </trkpt>
   <trkpt lat="42.341330000000006" lon="1.4966300000000001">
    <ele>885.71</ele>
   </trkpt>
   <trkpt lat="42.340880000000006" lon="1.4965700000000002">
    <ele>900.38</ele>
   </trkpt>
   <trkpt lat="42.34048000000001" lon="1.49615">
    <ele>908.48</ele>
   </trkpt>
  </trkseg>
 </trk>
</gpx>
