<?xml version="1.0" encoding="UTF-8"?>
<gpx creator="StravaGPX" version="1.1" xmlns="http://www.topografix.com/GPX/1/1" xmlns:xsi="http://www.w3.org/2001/XMLSchema-instance" xsi:schemaLocation="http://www.topografix.com/GPX/1/1 http://www.topografix.com/GPX/1/1/gpx.xsd">
 <metadata>
  <name>050</name>
  <author>
   <name>Marc Fargas Fargas</name>
   <link href="https://www.strava.com/athletes/59113394"/>
  </author>
  <copyright author="OpenStreetMap contributors">
   <year>2020</year>
   <license>https://www.openstreetmap.org/copyright</license>
  </copyright>
  <link href="https://www.strava.com/routes/3519080954946003556"/>
 </metadata>
 <trk>
  <name>050</name>
  <link href="https://www.strava.com/routes/3519080954946003556"/>
  <type>hiking</type>
  <trkseg>
   <trkpt lat="42.33755" lon="1.51655">
    <ele>1148.2100000000003</ele>
   </trkpt>
   <trkpt lat="42.33758" lon="1.51662">
    <ele>1147.48</ele>
   </trkpt>
   <trkpt lat="42.33738" lon="1.5172100000000002">
    <ele>1139.99</ele>
   </trkpt>
   <trkpt lat="42.33729" lon="1.5176800000000001">
    <ele>1133.0</ele>
   </trkpt>
   <trkpt lat="42.33713" lon="1.5181200000000001">
    <ele>1127.25</ele>
   </trkpt>
   <trkpt lat="42.337070000000004" lon="1.5183900000000001">
    <ele>1123.69</ele>
   </trkpt>
   <trkpt lat="42.336940000000006" lon="1.5187400000000002">
    <ele>1120.94</ele>
   </trkpt>
   <trkpt lat="42.336710000000004" lon="1.5190800000000002">
    <ele>1117.04</ele>
   </trkpt>
   <trkpt lat="42.336690000000004" lon="1.51916">
    <ele>1115.48</ele>
   </trkpt>
   <trkpt lat="42.33662" lon="1.5193100000000002">
    <ele>1113.7400000000002</ele>
   </trkpt>
   <trkpt lat="42.33659" lon="1.51956">
    <ele>1109.38</ele>
   </trkpt>
   <trkpt lat="42.33661" lon="1.5197500000000002">
    <ele>1108.3200000000002</ele>
   </trkpt>
   <trkpt lat="42.336600000000004" lon="1.51974">
    <ele>1108.3400000000001</ele>
   </trkpt>
   <trkpt lat="42.336800000000004" lon="1.51981">
    <ele>1108.4</ele>
   </trkpt>
   <trkpt lat="42.33715" lon="1.5198600000000002">
    <ele>1110.3400000000001</ele>
   </trkpt>
   <trkpt lat="42.33789" lon="1.51983">
    <ele>1114.3899999999999</ele>
   </trkpt>
   <trkpt lat="42.33823" lon="1.5197900000000002">
    <ele>1116.45</ele>
   </trkpt>
   <trkpt lat="42.33851000000001" lon="1.5197200000000002">
    <ele>1118.56</ele>
   </trkpt>
   <trkpt lat="42.33872" lon="1.5197500000000002">
    <ele>1120.73</ele>
   </trkpt>
   <trkpt lat="42.33896" lon="1.5199200000000002">
    <ele>1123.0900000000001</ele>
   </trkpt>
   <trkpt lat="42.339290000000005" lon="1.5203000000000002">
    <ele>1124.65</ele>
   </trkpt>
   <trkpt lat="42.33948" lon="1.52055">
    <ele>1123.28</ele>
   </trkpt>
   <trkpt lat="42.339670000000005" lon="1.5205700000000002">
    <ele>1122.5200000000002</ele>
   </trkpt>
   <trkpt lat="42.339800000000004" lon="1.5207100000000002">
    <ele>1122.16</ele>
   </trkpt>
   <trkpt lat="42.339830000000006" lon="1.5210700000000001">
    <ele>1120.9600000000003</ele>
   </trkpt>
   <trkpt lat="42.339800000000004" lon="1.5214">
    <ele>1118.19</ele>
   </trkpt>
   <trkpt lat="42.33982" lon="1.5216200000000002">
    <ele>1117.75</ele>
   </trkpt>
   <trkpt lat="42.339870000000005" lon="1.5216900000000002">
    <ele>1117.97</ele>
   </trkpt>
   <trkpt lat="42.33986" lon="1.5216900000000002">
    <ele>1117.96</ele>
   </trkpt>
   <trkpt lat="42.339960000000005" lon="1.5218200000000002">
    <ele>1118.8400000000001</ele>
   </trkpt>
   <trkpt lat="42.34069" lon="1.5221300000000002">
    <ele>1122.16</ele>
   </trkpt>
   <trkpt lat="42.34096" lon="1.52231">
    <ele>1123.9800000000002</ele>
   </trkpt>
   <trkpt lat="42.341330000000006" lon="1.5226300000000001">
    <ele>1125.54</ele>
   </trkpt>
   <trkpt lat="42.34158" lon="1.52289">
    <ele>1124.9900000000002</ele>
   </trkpt>
   <trkpt lat="42.34178" lon="1.5231700000000001">
    <ele>1123.17</ele>
   </trkpt>
   <trkpt lat="42.34194" lon="1.5235200000000002">
    <ele>1121.76</ele>
   </trkpt>
   <trkpt lat="42.342060000000004" lon="1.5237100000000001">
    <ele>1121.04</ele>
   </trkpt>
   <trkpt lat="42.34207000000001" lon="1.5239200000000002">
    <ele>1120.7</ele>
   </trkpt>
   <trkpt lat="42.342040000000004" lon="1.5241300000000002">
    <ele>1120.03</ele>
   </trkpt>
   <trkpt lat="42.34198000000001" lon="1.5243000000000002">
    <ele>1119.67</ele>
   </trkpt>
   <trkpt lat="42.34174" lon="1.52478">
    <ele>1115.0300000000002</ele>
   </trkpt>
   <trkpt lat="42.34169000000001" lon="1.5249700000000002">
    <ele>1114.13</ele>
   </trkpt>
   <trkpt lat="42.3417" lon="1.5251400000000002">
    <ele>1113.73</ele>
   </trkpt>
   <trkpt lat="42.341770000000004" lon="1.5252100000000002">
    <ele>1114.1100000000001</ele>
   </trkpt>
   <trkpt lat="42.342110000000005" lon="1.5254200000000002">
    <ele>1118.29</ele>
   </trkpt>
   <trkpt lat="42.34228" lon="1.5256200000000002">
    <ele>1120.29</ele>
   </trkpt>
  </trkseg>
 </trk>
</gpx>
