<?xml version="1.0" encoding="UTF-8"?>
<gpx creator="StravaGPX" version="1.1" xmlns="http://www.topografix.com/GPX/1/1" xmlns:xsi="http://www.w3.org/2001/XMLSchema-instance" xsi:schemaLocation="http://www.topografix.com/GPX/1/1 http://www.topografix.com/GPX/1/1/gpx.xsd">
 <metadata>
  <name>062</name>
  <author>
   <name>Marc Fargas Fargas</name>
   <link href="https://www.strava.com/athletes/59113394"/>
  </author>
  <copyright author="OpenStreetMap contributors">
   <year>2020</year>
   <license>https://www.openstreetmap.org/copyright</license>
  </copyright>
  <link href="https://www.strava.com/routes/3519080954946003556"/>
 </metadata>
 <trk>
  <name>062</name>
  <link href="https://www.strava.com/routes/3519080954946003556"/>
  <type>running</type>
  <trkseg>
   <trkpt lat="42.35322" lon="1.5224300000000002">
    <ele>772.57</ele>
   </trkpt>
   <trkpt lat="42.353120000000004" lon="1.5223000000000002">
    <ele>777.63</ele>
   </trkpt>
   <trkpt lat="42.35311" lon="1.5221000000000002">
    <ele>780.1600000000001</ele>
   </trkpt>
   <trkpt lat="42.35315000000001" lon="1.52184">
    <ele>778.85</ele>
   </trkpt>
  </trkseg>
 </trk>
</gpx>
