<?xml version="1.0" encoding="UTF-8"?>
<gpx creator="StravaGPX" version="1.1" xmlns="http://www.topografix.com/GPX/1/1" xmlns:xsi="http://www.w3.org/2001/XMLSchema-instance" xsi:schemaLocation="http://www.topografix.com/GPX/1/1 http://www.topografix.com/GPX/1/1/gpx.xsd">
 <metadata>
  <name>063</name>
  <author>
   <name>Marc Fargas Fargas</name>
   <link href="https://www.strava.com/athletes/59113394"/>
  </author>
  <copyright author="OpenStreetMap contributors">
   <year>2020</year>
   <license>https://www.openstreetmap.org/copyright</license>
  </copyright>
  <link href="https://www.strava.com/routes/3519080954946003556"/>
 </metadata>
 <trk>
  <name>063</name>
  <link href="https://www.strava.com/routes/3519080954946003556"/>
  <type>mountain_biking</type>
  <trkseg>
   <trkpt lat="42.35305" lon="1.52272">
    <ele>779.6</ele>
   </trkpt>
   <trkpt lat="42.35305" lon="1.5225700000000002">
    <ele>780.85</ele>
   </trkpt>
   <trkpt lat="42.35311" lon="1.5225400000000002">
    <ele>777.82</ele>
   </trkpt>
   <trkpt lat="42.35314" lon="1.5222900000000001">
    <ele>777.63</ele>
   </trkpt>
  </trkseg>
 </trk>
</gpx>
