<?xml version="1.0" encoding="UTF-8"?>
<gpx creator="StravaGPX" version="1.1" xmlns="http://www.topografix.com/GPX/1/1" xmlns:xsi="http://www.w3.org/2001/XMLSchema-instance" xsi:schemaLocation="http://www.topografix.com/GPX/1/1 http://www.topografix.com/GPX/1/1/gpx.xsd">
 <metadata>
  <name>071</name>
  <author>
   <name>Marc Fargas Fargas</name>
   <link href="https://www.strava.com/athletes/59113394"/>
  </author>
  <copyright author="OpenStreetMap contributors">
   <year>2020</year>
   <license>https://www.openstreetmap.org/copyright</license>
  </copyright>
  <link href="https://www.strava.com/routes/3519080954946003556"/>
 </metadata>
 <trk>
  <name>071</name>
  <link href="https://www.strava.com/routes/3519080954946003556"/>
  <type>mountain_biking</type>
  <trkseg>
   <trkpt lat="42.355970000000006" lon="1.5057600000000002">
    <ele>706.01</ele>
   </trkpt>
   <trkpt lat="42.355920000000005" lon="1.5055600000000002">
    <ele>706.44</ele>
   </trkpt>
   <trkpt lat="42.355880000000006" lon="1.50527">
    <ele>706.47</ele>
   </trkpt>
   <trkpt lat="42.35577000000001" lon="1.5052800000000002">
    <ele>706.2900000000001</ele>
   </trkpt>
   <trkpt lat="42.35562500511529" lon="1.5041949975006597">
    <ele>705.7500000000001</ele>
   </trkpt>
   <trkpt lat="42.35548" lon="1.5031100000000002">
    <ele>705.6800000000001</ele>
   </trkpt>
  </trkseg>
 </trk>
</gpx>
