<?xml version="1.0" encoding="UTF-8"?>
<gpx creator="StravaGPX" version="1.1" xmlns="http://www.topografix.com/GPX/1/1" xmlns:xsi="http://www.w3.org/2001/XMLSchema-instance" xsi:schemaLocation="http://www.topografix.com/GPX/1/1 http://www.topografix.com/GPX/1/1/gpx.xsd">
 <metadata>
  <name>075</name>
  <author>
   <name>Marc Fargas Fargas</name>
   <link href="https://www.strava.com/athletes/59113394"/>
  </author>
  <copyright author="OpenStreetMap contributors">
   <year>2020</year>
   <license>https://www.openstreetmap.org/copyright</license>
  </copyright>
  <link href="https://www.strava.com/routes/3519080954946003556"/>
 </metadata>
 <trk>
  <name>075</name>
  <link href="https://www.strava.com/routes/3519080954946003556"/>
  <type>mountain_biking</type>
  <trkseg>
   <trkpt lat="42.35161" lon="1.5047100000000002">
    <ele>748.7</ele>
   </trkpt>
   <trkpt lat="42.35157" lon="1.5046300000000001">
    <ele>748.7</ele>
   </trkpt>
   <trkpt lat="42.351560000000006" lon="1.50452">
    <ele>748.68</ele>
   </trkpt>
   <trkpt lat="42.351470000000006" lon="1.50449">
    <ele>748.98</ele>
   </trkpt>
   <trkpt lat="42.35098000000001" lon="1.50468">
    <ele>752.35</ele>
   </trkpt>
   <trkpt lat="42.350590000000004" lon="1.50482">
    <ele>761.56</ele>
   </trkpt>
   <trkpt lat="42.350750000000005" lon="1.5056100000000001">
    <ele>762.6800000000001</ele>
   </trkpt>
   <trkpt lat="42.35071000000001" lon="1.50608">
    <ele>765.1800000000001</ele>
   </trkpt>
  </trkseg>
 </trk>
</gpx>
