<?xml version="1.0" encoding="UTF-8"?>
<gpx creator="StravaGPX" version="1.1" xmlns="http://www.topografix.com/GPX/1/1" xmlns:xsi="http://www.w3.org/2001/XMLSchema-instance" xsi:schemaLocation="http://www.topografix.com/GPX/1/1 http://www.topografix.com/GPX/1/1/gpx.xsd">
 <metadata>
  <name>076</name>
  <author>
   <name>Marc Fargas Fargas</name>
   <link href="https://www.strava.com/athletes/59113394"/>
  </author>
  <copyright author="OpenStreetMap contributors">
   <year>2020</year>
   <license>https://www.openstreetmap.org/copyright</license>
  </copyright>
  <link href="https://www.strava.com/routes/3519080954946003556"/>
 </metadata>
 <trk>
  <name>076</name>
  <link href="https://www.strava.com/routes/3519080954946003556"/>
  <type>mountain_biking</type>
  <trkseg>
   <trkpt lat="42.35128" lon="1.5066100000000002">
    <ele>763.8000000000001</ele>
   </trkpt>
   <trkpt lat="42.35134" lon="1.5070400000000002">
    <ele>765.78</ele>
   </trkpt>
   <trkpt lat="42.35136000000001" lon="1.50747">
    <ele>766.7400000000001</ele>
   </trkpt>
   <trkpt lat="42.35154" lon="1.5076900000000002">
    <ele>765.41</ele>
   </trkpt>
   <trkpt lat="42.351760000000006" lon="1.5081200000000001">
    <ele>763.5500000000001</ele>
   </trkpt>
  </trkseg>
 </trk>
</gpx>
