<?xml version="1.0" encoding="UTF-8"?>
<gpx creator="StravaGPX" version="1.1" xmlns="http://www.topografix.com/GPX/1/1" xmlns:xsi="http://www.w3.org/2001/XMLSchema-instance" xsi:schemaLocation="http://www.topografix.com/GPX/1/1 http://www.topografix.com/GPX/1/1/gpx.xsd">
 <metadata>
  <name>081</name>
  <author>
   <name>Marc Fargas Fargas</name>
   <link href="https://www.strava.com/athletes/59113394"/>
  </author>
  <copyright author="OpenStreetMap contributors">
   <year>2020</year>
   <license>https://www.openstreetmap.org/copyright</license>
  </copyright>
  <link href="https://www.strava.com/routes/3519080954946003556"/>
 </metadata>
 <trk>
  <name>081</name>
  <link href="https://www.strava.com/routes/3519080954946003556"/>
  <type>mountain_biking</type>
  <trkseg>
   <trkpt lat="42.3545" lon="1.50523">
    <ele>711.79</ele>
   </trkpt>
   <trkpt lat="42.354600000000005" lon="1.5054">
    <ele>711.65</ele>
   </trkpt>
   <trkpt lat="42.35492000000001" lon="1.5057500000000001">
    <ele>711.8800000000001</ele>
   </trkpt>
   <trkpt lat="42.35522" lon="1.50591">
    <ele>712.43</ele>
   </trkpt>
   <trkpt lat="42.35537" lon="1.5059600000000002">
    <ele>712.6800000000001</ele>
   </trkpt>
   <trkpt lat="42.355610000000006" lon="1.5059300000000002">
    <ele>713.34</ele>
   </trkpt>
   <trkpt lat="42.355940000000004" lon="1.50573">
    <ele>713.71</ele>
   </trkpt>
  </trkseg>
 </trk>
</gpx>
