<?xml version="1.0" encoding="UTF-8"?>
<gpx creator="StravaGPX" version="1.1" xmlns="http://www.topografix.com/GPX/1/1" xmlns:xsi="http://www.w3.org/2001/XMLSchema-instance" xsi:schemaLocation="http://www.topografix.com/GPX/1/1 http://www.topografix.com/GPX/1/1/gpx.xsd">
 <metadata>
  <name>087</name>
  <author>
   <name>Marc Fargas Fargas</name>
   <link href="https://www.strava.com/athletes/59113394"/>
  </author>
  <copyright author="OpenStreetMap contributors">
   <year>2020</year>
   <license>https://www.openstreetmap.org/copyright</license>
  </copyright>
  <link href="https://www.strava.com/routes/3519080954946003556"/>
 </metadata>
 <trk>
  <name>087</name>
  <link href="https://www.strava.com/routes/3519080954946003556"/>
  <type>running</type>
  <trkseg>
   <trkpt lat="42.34948000000001" lon="1.53241">
    <ele>1023.2100000000002</ele>
   </trkpt>
   <trkpt lat="42.3491" lon="1.53211">
    <ele>1032.91</ele>
   </trkpt>
   <trkpt lat="42.3491" lon="1.5321">
    <ele>1033.01</ele>
   </trkpt>
   <trkpt lat="42.348980000000005" lon="1.5312500000000002">
    <ele>1038.23</ele>
   </trkpt>
   <trkpt lat="42.34913" lon="1.53068">
    <ele>1043.39</ele>
   </trkpt>
   <trkpt lat="42.34915" lon="1.5306400000000002">
    <ele>1044.8200000000002</ele>
   </trkpt>
   <trkpt lat="42.34897" lon="1.53025">
    <ele>1053.26</ele>
   </trkpt>
  </trkseg>
 </trk>
</gpx>
