<?xml version="1.0" encoding="UTF-8"?>
<gpx creator="StravaGPX" version="1.1" xmlns="http://www.topografix.com/GPX/1/1" xmlns:xsi="http://www.w3.org/2001/XMLSchema-instance" xsi:schemaLocation="http://www.topografix.com/GPX/1/1 http://www.topografix.com/GPX/1/1/gpx.xsd">
 <metadata>
  <name>091</name>
  <author>
   <name>Marc Fargas Fargas</name>
   <link href="https://www.strava.com/athletes/59113394"/>
  </author>
  <copyright author="OpenStreetMap contributors">
   <year>2020</year>
   <license>https://www.openstreetmap.org/copyright</license>
  </copyright>
  <link href="https://www.strava.com/routes/3519080954946003556"/>
 </metadata>
 <trk>
  <name>091</name>
  <link href="https://www.strava.com/routes/3519080954946003556"/>
  <type>running</type>
  <trkseg>
   <trkpt lat="42.34367" lon="1.5372400000000002">
    <ele>1092.65</ele>
   </trkpt>
   <trkpt lat="42.34404000000001" lon="1.5367300000000002">
    <ele>1104.0</ele>
   </trkpt>
   <trkpt lat="42.344480000000004" lon="1.5364000000000002">
    <ele>1111.76</ele>
   </trkpt>
   <trkpt lat="42.344860000000004" lon="1.5360300000000002">
    <ele>1120.56</ele>
   </trkpt>
   <trkpt lat="42.345020000000005" lon="1.53583">
    <ele>1124.02</ele>
   </trkpt>
   <trkpt lat="42.34519" lon="1.5357200000000002">
    <ele>1125.92</ele>
   </trkpt>
   <trkpt lat="42.34545000000001" lon="1.5356500000000002">
    <ele>1130.32</ele>
   </trkpt>
   <trkpt lat="42.34563000000001" lon="1.53556">
    <ele>1132.53</ele>
   </trkpt>
   <trkpt lat="42.345940000000006" lon="1.5353400000000001">
    <ele>1135.45</ele>
   </trkpt>
   <trkpt lat="42.346030000000006" lon="1.53519">
    <ele>1138.41</ele>
   </trkpt>
   <trkpt lat="42.34602" lon="1.5351700000000001">
    <ele>1138.41</ele>
   </trkpt>
  </trkseg>
 </trk>
</gpx>
