<?xml version="1.0" encoding="UTF-8"?>
<gpx creator="StravaGPX" version="1.1" xmlns="http://www.topografix.com/GPX/1/1" xmlns:xsi="http://www.w3.org/2001/XMLSchema-instance" xsi:schemaLocation="http://www.topografix.com/GPX/1/1 http://www.topografix.com/GPX/1/1/gpx.xsd">
 <metadata>
  <name>120</name>
  <author>
   <name>Marc Fargas Fargas</name>
   <link href="https://www.strava.com/athletes/59113394"/>
  </author>
  <copyright author="OpenStreetMap contributors">
   <year>2020</year>
   <license>https://www.openstreetmap.org/copyright</license>
  </copyright>
  <link href="https://www.strava.com/routes/3519442149925526898"/>
 </metadata>
 <trk>
  <name>120</name>
  <link href="https://www.strava.com/routes/3519442149925526898"/>
  <type>ebikeride</type>
  <trkseg>
   <trkpt lat="42.353170000000006" lon="1.5430100000000002">
    <ele>924.7400000000001</ele>
   </trkpt>
   <trkpt lat="42.35295000000001" lon="1.54295">
    <ele>929.9200000000001</ele>
   </trkpt>
   <trkpt lat="42.35275" lon="1.54285">
    <ele>934.7500000000001</ele>
   </trkpt>
   <trkpt lat="42.35264" lon="1.5428300000000001">
    <ele>938.03</ele>
   </trkpt>
   <trkpt lat="42.352590000000006" lon="1.54285">
    <ele>938.03</ele>
   </trkpt>
   <trkpt lat="42.35257" lon="1.5429000000000002">
    <ele>941.88</ele>
   </trkpt>
   <trkpt lat="42.3526" lon="1.5429700000000002">
    <ele>941.88</ele>
   </trkpt>
   <trkpt lat="42.35291" lon="1.5434">
    <ele>950.4500000000002</ele>
   </trkpt>
   <trkpt lat="42.353" lon="1.54363">
    <ele>954.09</ele>
   </trkpt>
   <trkpt lat="42.35305" lon="1.5440600000000002">
    <ele>959.76</ele>
   </trkpt>
   <trkpt lat="42.35305" lon="1.5442">
    <ele>961.37</ele>
   </trkpt>
   <trkpt lat="42.35302" lon="1.5442500000000001">
    <ele>961.95</ele>
   </trkpt>
  </trkseg>
 </trk>
</gpx>
