<?xml version="1.0" encoding="UTF-8"?>
<gpx creator="StravaGPX" version="1.1" xmlns="http://www.topografix.com/GPX/1/1" xmlns:xsi="http://www.w3.org/2001/XMLSchema-instance" xsi:schemaLocation="http://www.topografix.com/GPX/1/1 http://www.topografix.com/GPX/1/1/gpx.xsd">
 <metadata>
  <name>121</name>
  <author>
   <name>Marc Fargas Fargas</name>
   <link href="https://www.strava.com/athletes/59113394"/>
  </author>
  <copyright author="OpenStreetMap contributors">
   <year>2020</year>
   <license>https://www.openstreetmap.org/copyright</license>
  </copyright>
  <link href="https://www.strava.com/routes/3519442149925526898"/>
 </metadata>
 <trk>
  <name>121</name>
  <link href="https://www.strava.com/routes/3519442149925526898"/>
  <type>ebikeride</type>
  <trkseg>
   <trkpt lat="42.353010000000005" lon="1.5442500000000001">
    <ele>962.34</ele>
   </trkpt>
   <trkpt lat="42.352970000000006" lon="1.54428">
    <ele>963.3600000000001</ele>
   </trkpt>
   <trkpt lat="42.352900000000005" lon="1.5442600000000002">
    <ele>963.3600000000001</ele>
   </trkpt>
   <trkpt lat="42.35251" lon="1.5438100000000001">
    <ele>977.1400000000001</ele>
   </trkpt>
   <trkpt lat="42.352410000000006" lon="1.54373">
    <ele>977.1400000000001</ele>
   </trkpt>
   <trkpt lat="42.35230000000001" lon="1.5436">
    <ele>980.35</ele>
   </trkpt>
   <trkpt lat="42.351870000000005" lon="1.54339">
    <ele>990.26</ele>
   </trkpt>
   <trkpt lat="42.35139" lon="1.5432100000000002">
    <ele>1001.5200000000002</ele>
   </trkpt>
   <trkpt lat="42.35134" lon="1.5431700000000002">
    <ele>1003.5100000000001</ele>
   </trkpt>
   <trkpt lat="42.35121" lon="1.54296">
    <ele>1009.3100000000002</ele>
   </trkpt>
   <trkpt lat="42.351130000000005" lon="1.54288">
    <ele>1009.3100000000002</ele>
   </trkpt>
   <trkpt lat="42.350970000000004" lon="1.54282">
    <ele>1009.3100000000002</ele>
   </trkpt>
   <trkpt lat="42.35079" lon="1.54282">
    <ele>1016.7700000000002</ele>
   </trkpt>
   <trkpt lat="42.350030000000004" lon="1.5426700000000002">
    <ele>1031.8899999999999</ele>
   </trkpt>
   <trkpt lat="42.349900000000005" lon="1.5425900000000001">
    <ele>1036.91</ele>
   </trkpt>
   <trkpt lat="42.34985" lon="1.54258">
    <ele>1036.91</ele>
   </trkpt>
  </trkseg>
 </trk>
</gpx>
