<?xml version="1.0" encoding="UTF-8"?>
<gpx creator="StravaGPX" version="1.1" xmlns="http://www.topografix.com/GPX/1/1" xmlns:xsi="http://www.w3.org/2001/XMLSchema-instance" xsi:schemaLocation="http://www.topografix.com/GPX/1/1 http://www.topografix.com/GPX/1/1/gpx.xsd">
 <metadata>
  <name>127</name>
  <author>
   <name>Marc Fargas Fargas</name>
   <link href="https://www.strava.com/athletes/59113394"/>
  </author>
  <copyright author="OpenStreetMap contributors">
   <year>2020</year>
   <license>https://www.openstreetmap.org/copyright</license>
  </copyright>
  <link href="https://www.strava.com/routes/3519442149925526898"/>
 </metadata>
 <trk>
  <name>127</name>
  <link href="https://www.strava.com/routes/3519442149925526898"/>
  <type>ebikeride</type>
  <trkseg>
   <trkpt lat="42.35284" lon="1.55282">
    <ele>1026.8000000000002</ele>
   </trkpt>
   <trkpt lat="42.35289" lon="1.5529600000000001">
    <ele>1022.2900000000001</ele>
   </trkpt>
   <trkpt lat="42.352920000000005" lon="1.5530000000000002">
    <ele>1022.2900000000001</ele>
   </trkpt>
   <trkpt lat="42.353120000000004" lon="1.55306">
    <ele>1017.9200000000002</ele>
   </trkpt>
   <trkpt lat="42.35325" lon="1.55333">
    <ele>1010.5200000000001</ele>
   </trkpt>
   <trkpt lat="42.35333000000001" lon="1.5533800000000002">
    <ele>1009.3800000000001</ele>
   </trkpt>
   <trkpt lat="42.353480000000005" lon="1.55336">
    <ele>1005.15</ele>
   </trkpt>
   <trkpt lat="42.35354" lon="1.5533800000000002">
    <ele>1003.1600000000001</ele>
   </trkpt>
   <trkpt lat="42.353640000000006" lon="1.5534500000000002">
    <ele>1002.11</ele>
   </trkpt>
   <trkpt lat="42.353680000000004" lon="1.5534500000000002">
    <ele>1002.11</ele>
   </trkpt>
   <trkpt lat="42.35374" lon="1.5534000000000001">
    <ele>997.82</ele>
   </trkpt>
   <trkpt lat="42.35389000000001" lon="1.5531800000000002">
    <ele>991.65</ele>
   </trkpt>
   <trkpt lat="42.35394" lon="1.5531300000000001">
    <ele>991.65</ele>
   </trkpt>
   <trkpt lat="42.354000000000006" lon="1.55312">
    <ele>986.32</ele>
   </trkpt>
   <trkpt lat="42.35403" lon="1.5531400000000002">
    <ele>986.32</ele>
   </trkpt>
   <trkpt lat="42.35409000000001" lon="1.55333">
    <ele>980.7500000000001</ele>
   </trkpt>
   <trkpt lat="42.35414" lon="1.5533700000000001">
    <ele>980.7500000000001</ele>
   </trkpt>
   <trkpt lat="42.354240000000004" lon="1.5533800000000002">
    <ele>976.6400000000001</ele>
   </trkpt>
   <trkpt lat="42.35427000000001" lon="1.5534500000000002">
    <ele>976.6400000000001</ele>
   </trkpt>
   <trkpt lat="42.354260000000004" lon="1.55356">
    <ele>973.8200000000002</ele>
   </trkpt>
   <trkpt lat="42.35428" lon="1.55363">
    <ele>973.8200000000002</ele>
   </trkpt>
   <trkpt lat="42.354330000000004" lon="1.55363">
    <ele>968.3600000000001</ele>
   </trkpt>
   <trkpt lat="42.35465000000001" lon="1.5534700000000001">
    <ele>959.2800000000001</ele>
   </trkpt>
   <trkpt lat="42.3547" lon="1.5535500000000002">
    <ele>956.5500000000001</ele>
   </trkpt>
   <trkpt lat="42.35473" lon="1.55367">
    <ele>956.5500000000001</ele>
   </trkpt>
   <trkpt lat="42.35479" lon="1.5536800000000002">
    <ele>951.57</ele>
   </trkpt>
   <trkpt lat="42.3549" lon="1.5536100000000002">
    <ele>951.57</ele>
   </trkpt>
   <trkpt lat="42.354940000000006" lon="1.5536100000000002">
    <ele>951.57</ele>
   </trkpt>
   <trkpt lat="42.354980000000005" lon="1.5536400000000001">
    <ele>951.57</ele>
   </trkpt>
   <trkpt lat="42.354980000000005" lon="1.5537400000000001">
    <ele>941.0200000000001</ele>
   </trkpt>
   <trkpt lat="42.35484" lon="1.55403">
    <ele>934.6</ele>
   </trkpt>
   <trkpt lat="42.35466" lon="1.5546300000000002">
    <ele>921.57</ele>
   </trkpt>
   <trkpt lat="42.35418000000001" lon="1.55516">
    <ele>903.8800000000001</ele>
   </trkpt>
   <trkpt lat="42.353950000000005" lon="1.55549">
    <ele>895.3000000000001</ele>
   </trkpt>
   <trkpt lat="42.35392" lon="1.5555800000000002">
    <ele>895.3000000000001</ele>
   </trkpt>
   <trkpt lat="42.35392" lon="1.55569">
    <ele>889.6</ele>
   </trkpt>
   <trkpt lat="42.353950000000005" lon="1.55583">
    <ele>888.12</ele>
   </trkpt>
   <trkpt lat="42.3541" lon="1.5561500000000001">
    <ele>878.33</ele>
   </trkpt>
   <trkpt lat="42.3543" lon="1.5562600000000002">
    <ele>870.95</ele>
   </trkpt>
   <trkpt lat="42.354400000000005" lon="1.55627">
    <ele>869.4900000000001</ele>
   </trkpt>
   <trkpt lat="42.354600000000005" lon="1.5562300000000002">
    <ele>863.3400000000001</ele>
   </trkpt>
   <trkpt lat="42.354760000000006" lon="1.5562600000000002">
    <ele>857.8800000000001</ele>
   </trkpt>
   <trkpt lat="42.35486" lon="1.5561900000000002">
    <ele>855.48</ele>
   </trkpt>
   <trkpt lat="42.354980000000005" lon="1.55603">
    <ele>852.87</ele>
   </trkpt>
  </trkseg>
 </trk>
</gpx>
