<?xml version="1.0" encoding="UTF-8"?>
<gpx creator="StravaGPX" version="1.1" xmlns="http://www.topografix.com/GPX/1/1" xmlns:xsi="http://www.w3.org/2001/XMLSchema-instance" xsi:schemaLocation="http://www.topografix.com/GPX/1/1 http://www.topografix.com/GPX/1/1/gpx.xsd">
 <metadata>
  <name>132</name>
  <author>
   <name>Marc Fargas Fargas</name>
   <link href="https://www.strava.com/athletes/59113394"/>
  </author>
  <copyright author="OpenStreetMap contributors">
   <year>2020</year>
   <license>https://www.openstreetmap.org/copyright</license>
  </copyright>
  <link href="https://www.strava.com/routes/3519442149925526898"/>
 </metadata>
 <trk>
  <name>132</name>
  <link href="https://www.strava.com/routes/3519442149925526898"/>
  <type>ebikeride</type>
  <trkseg>
   <trkpt lat="42.34293" lon="1.5500800000000001">
    <ele>1240.5300000000002</ele>
   </trkpt>
   <trkpt lat="42.34279" lon="1.5509700000000002">
    <ele>1242.46</ele>
   </trkpt>
   <trkpt lat="42.34268" lon="1.5513700000000001">
    <ele>1244.65</ele>
   </trkpt>
   <trkpt lat="42.34228" lon="1.5522500000000001">
    <ele>1249.7800000000002</ele>
   </trkpt>
   <trkpt lat="42.34212" lon="1.55254">
    <ele>1250.92</ele>
   </trkpt>
  </trkseg>
 </trk>
</gpx>
