<?xml version="1.0" encoding="UTF-8"?>
<gpx creator="StravaGPX" version="1.1" xmlns="http://www.topografix.com/GPX/1/1" xmlns:xsi="http://www.w3.org/2001/XMLSchema-instance" xsi:schemaLocation="http://www.topografix.com/GPX/1/1 http://www.topografix.com/GPX/1/1/gpx.xsd">
 <metadata>
  <name>135</name>
  <author>
   <name>Marc Fargas Fargas</name>
   <link href="https://www.strava.com/athletes/59113394"/>
  </author>
  <copyright author="OpenStreetMap contributors">
   <year>2020</year>
   <license>https://www.openstreetmap.org/copyright</license>
  </copyright>
  <link href="https://www.strava.com/routes/3519450053704781170"/>
 </metadata>
 <trk>
  <name>135</name>
  <link href="https://www.strava.com/routes/3519450053704781170"/>
  <type>ebikeride</type>
  <trkseg>
   <trkpt lat="42.341390000000004" lon="1.55065">
    <ele>1259.8700000000001</ele>
   </trkpt>
   <trkpt lat="42.341350000000006" lon="1.55017">
    <ele>1259.3100000000002</ele>
   </trkpt>
   <trkpt lat="42.34142000000001" lon="1.5495400000000001">
    <ele>1257.21</ele>
   </trkpt>
   <trkpt lat="42.34154" lon="1.5492100000000002">
    <ele>1256.43</ele>
   </trkpt>
   <trkpt lat="42.34199" lon="1.5486600000000001">
    <ele>1252.41</ele>
   </trkpt>
   <trkpt lat="42.342510000000004" lon="1.5481500000000001">
    <ele>1250.3700000000001</ele>
   </trkpt>
   <trkpt lat="42.342710000000004" lon="1.54801">
    <ele>1250.63</ele>
   </trkpt>
   <trkpt lat="42.34304" lon="1.5478600000000002">
    <ele>1251.72</ele>
   </trkpt>
   <trkpt lat="42.34326" lon="1.5476900000000002">
    <ele>1251.8400000000001</ele>
   </trkpt>
   <trkpt lat="42.34335" lon="1.54766">
    <ele>1251.8400000000001</ele>
   </trkpt>
   <trkpt lat="42.343410000000006" lon="1.54767">
    <ele>1251.8400000000001</ele>
   </trkpt>
   <trkpt lat="42.34357000000001" lon="1.5477400000000001">
    <ele>1251.68</ele>
   </trkpt>
   <trkpt lat="42.34373" lon="1.54784">
    <ele>1251.5800000000002</ele>
   </trkpt>
   <trkpt lat="42.34384" lon="1.54794">
    <ele>1251.47</ele>
   </trkpt>
   <trkpt lat="42.34398" lon="1.5481600000000002">
    <ele>1251.1000000000001</ele>
   </trkpt>
   <trkpt lat="42.344100000000005" lon="1.5482900000000002">
    <ele>1250.92</ele>
   </trkpt>
  </trkseg>
 </trk>
</gpx>
