<?xml version="1.0" encoding="UTF-8"?>
<gpx creator="StravaGPX" version="1.1" xmlns="http://www.topografix.com/GPX/1/1" xmlns:xsi="http://www.w3.org/2001/XMLSchema-instance" xsi:schemaLocation="http://www.topografix.com/GPX/1/1 http://www.topografix.com/GPX/1/1/gpx.xsd">
 <metadata>
  <name>137</name>
  <author>
   <name>Marc Fargas Fargas</name>
   <link href="https://www.strava.com/athletes/59113394"/>
  </author>
  <copyright author="OpenStreetMap contributors">
   <year>2020</year>
   <license>https://www.openstreetmap.org/copyright</license>
  </copyright>
  <link href="https://www.strava.com/routes/3519450053704781170"/>
 </metadata>
 <trk>
  <name>137</name>
  <link href="https://www.strava.com/routes/3519450053704781170"/>
  <type>ebikeride</type>
  <trkseg>
   <trkpt lat="42.34595" lon="1.54479">
    <ele>1233.45</ele>
   </trkpt>
   <trkpt lat="42.346000000000004" lon="1.54479">
    <ele>1232.38</ele>
   </trkpt>
   <trkpt lat="42.346210000000006" lon="1.54445">
    <ele>1227.71</ele>
   </trkpt>
   <trkpt lat="42.34653" lon="1.5437800000000002">
    <ele>1218.1000000000001</ele>
   </trkpt>
  </trkseg>
 </trk>
</gpx>
