<?xml version="1.0" encoding="UTF-8"?>
<gpx creator="StravaGPX" version="1.1" xmlns="http://www.topografix.com/GPX/1/1" xmlns:xsi="http://www.w3.org/2001/XMLSchema-instance" xsi:schemaLocation="http://www.topografix.com/GPX/1/1 http://www.topografix.com/GPX/1/1/gpx.xsd">
 <metadata>
  <name>141</name>
  <author>
   <name>Marc Fargas Fargas</name>
   <link href="https://www.strava.com/athletes/59113394"/>
  </author>
  <copyright author="OpenStreetMap contributors">
   <year>2020</year>
   <license>https://www.openstreetmap.org/copyright</license>
  </copyright>
  <link href="https://www.strava.com/routes/3519450053704781170"/>
 </metadata>
 <trk>
  <name>141</name>
  <link href="https://www.strava.com/routes/3519450053704781170"/>
  <type>ebikeride</type>
  <trkseg>
   <trkpt lat="42.35273" lon="1.5465900000000001">
    <ele>990.28</ele>
   </trkpt>
   <trkpt lat="42.352900000000005" lon="1.5472100000000002">
    <ele>989.16</ele>
   </trkpt>
   <trkpt lat="42.35315000000001" lon="1.54763">
    <ele>981.86</ele>
   </trkpt>
  </trkseg>
 </trk>
</gpx>
