<?xml version="1.0" encoding="UTF-8"?>
<gpx creator="StravaGPX" version="1.1" xmlns="http://www.topografix.com/GPX/1/1" xmlns:xsi="http://www.w3.org/2001/XMLSchema-instance" xsi:schemaLocation="http://www.topografix.com/GPX/1/1 http://www.topografix.com/GPX/1/1/gpx.xsd">
 <metadata>
  <name>147</name>
  <author>
   <name>Marc Fargas Fargas</name>
   <link href="https://www.strava.com/athletes/59113394"/>
  </author>
  <copyright author="OpenStreetMap contributors">
   <year>2020</year>
   <license>https://www.openstreetmap.org/copyright</license>
  </copyright>
  <link href="https://www.strava.com/routes/3519450053704781170"/>
 </metadata>
 <trk>
  <name>147</name>
  <link href="https://www.strava.com/routes/3519450053704781170"/>
  <type>ebikeride</type>
  <trkseg>
   <trkpt lat="42.353170000000006" lon="1.5476200000000002">
    <ele>981.86</ele>
   </trkpt>
   <trkpt lat="42.35309" lon="1.5479900000000002">
    <ele>985.33</ele>
   </trkpt>
   <trkpt lat="42.35314" lon="1.5482600000000002">
    <ele>984.6600000000001</ele>
   </trkpt>
   <trkpt lat="42.352810000000005" lon="1.5484900000000001">
    <ele>1001.1100000000001</ele>
   </trkpt>
   <trkpt lat="42.35251" lon="1.54889">
    <ele>1022.11</ele>
   </trkpt>
   <trkpt lat="42.35271" lon="1.5493800000000002">
    <ele>1019.26</ele>
   </trkpt>
   <trkpt lat="42.352990000000005" lon="1.54997">
    <ele>1017.8800000000001</ele>
   </trkpt>
   <trkpt lat="42.35329" lon="1.5501300000000002">
    <ele>1008.21</ele>
   </trkpt>
   <trkpt lat="42.35352" lon="1.55105">
    <ele>1017.0100000000002</ele>
   </trkpt>
   <trkpt lat="42.353550000000006" lon="1.5516">
    <ele>1023.0700000000002</ele>
   </trkpt>
   <trkpt lat="42.3534" lon="1.5520900000000002">
    <ele>1033.69</ele>
   </trkpt>
   <trkpt lat="42.3532" lon="1.55247">
    <ele>1044.5600000000002</ele>
   </trkpt>
   <trkpt lat="42.353" lon="1.5526000000000002">
    <ele>1051.4</ele>
   </trkpt>
   <trkpt lat="42.35286000000001" lon="1.55285">
    <ele>1053.73</ele>
   </trkpt>
  </trkseg>
 </trk>
</gpx>
