<?xml version="1.0" encoding="UTF-8"?>
<gpx creator="StravaGPX" version="1.1" xmlns="http://www.topografix.com/GPX/1/1" xmlns:xsi="http://www.w3.org/2001/XMLSchema-instance" xsi:schemaLocation="http://www.topografix.com/GPX/1/1 http://www.topografix.com/GPX/1/1/gpx.xsd">
 <metadata>
  <name>156</name>
  <author>
   <name>Marc Fargas Fargas</name>
   <link href="https://www.strava.com/athletes/59113394"/>
  </author>
  <copyright author="OpenStreetMap contributors">
   <year>2020</year>
   <license>https://www.openstreetmap.org/copyright</license>
  </copyright>
  <link href="https://www.strava.com/routes/3521850086907833708"/>
 </metadata>
 <trk>
  <name>156</name>
  <link href="https://www.strava.com/routes/3521850086907833708"/>
  <type>ebikeride</type>
  <trkseg>
   <trkpt lat="42.3232" lon="1.5283700000000002">
    <ele>1445.48</ele>
   </trkpt>
   <trkpt lat="42.32278" lon="1.52886">
    <ele>1451.0800000000002</ele>
   </trkpt>
   <trkpt lat="42.322630000000004" lon="1.5292500000000002">
    <ele>1454.69</ele>
   </trkpt>
   <trkpt lat="42.3226" lon="1.53021">
    <ele>1462.47</ele>
   </trkpt>
   <trkpt lat="42.322480000000006" lon="1.5306700000000002">
    <ele>1467.14</ele>
   </trkpt>
   <trkpt lat="42.322480000000006" lon="1.53092">
    <ele>1469.7000000000003</ele>
   </trkpt>
   <trkpt lat="42.3222" lon="1.5319900000000002">
    <ele>1480.48</ele>
   </trkpt>
   <trkpt lat="42.32208000000001" lon="1.5321500000000001">
    <ele>1481.5600000000002</ele>
   </trkpt>
   <trkpt lat="42.321650000000005" lon="1.53235">
    <ele>1486.58</ele>
   </trkpt>
   <trkpt lat="42.32092" lon="1.5325600000000001">
    <ele>1494.5100000000002</ele>
   </trkpt>
   <trkpt lat="42.320660000000004" lon="1.5327400000000002">
    <ele>1497.39</ele>
   </trkpt>
   <trkpt lat="42.32036" lon="1.5331500000000002">
    <ele>1499.47</ele>
   </trkpt>
   <trkpt lat="42.32001" lon="1.53367">
    <ele>1502.97</ele>
   </trkpt>
   <trkpt lat="42.31964000000001" lon="1.53458">
    <ele>1501.5800000000002</ele>
   </trkpt>
   <trkpt lat="42.319840000000006" lon="1.53574">
    <ele>1499.3200000000002</ele>
   </trkpt>
   <trkpt lat="42.31978" lon="1.5358600000000002">
    <ele>1499.7</ele>
   </trkpt>
   <trkpt lat="42.31911" lon="1.5358600000000002">
    <ele>1504.42</ele>
   </trkpt>
   <trkpt lat="42.318310000000004" lon="1.5355500000000002">
    <ele>1506.0600000000002</ele>
   </trkpt>
   <trkpt lat="42.31815" lon="1.5355200000000002">
    <ele>1506.42</ele>
   </trkpt>
  </trkseg>
 </trk>
</gpx>
