<?xml version="1.0" encoding="UTF-8"?>
<gpx creator="StravaGPX" version="1.1" xmlns="http://www.topografix.com/GPX/1/1" xmlns:xsi="http://www.w3.org/2001/XMLSchema-instance" xsi:schemaLocation="http://www.topografix.com/GPX/1/1 http://www.topografix.com/GPX/1/1/gpx.xsd">
 <metadata>
  <name>178</name>
  <author>
   <name>Marc Fargas Fargas</name>
   <link href="https://www.strava.com/athletes/59113394"/>
  </author>
  <copyright author="OpenStreetMap contributors">
   <year>2020</year>
   <license>https://www.openstreetmap.org/copyright</license>
  </copyright>
  <link href="https://www.strava.com/routes/3521850086907833708"/>
 </metadata>
 <trk>
  <name>178</name>
  <link href="https://www.strava.com/routes/3521850086907833708"/>
  <type>ebikeride</type>
  <trkseg>
   <trkpt lat="42.330270000000006" lon="1.5053500000000002">
    <ele>1050.63</ele>
   </trkpt>
   <trkpt lat="42.330360000000006" lon="1.5054800000000002">
    <ele>1050.5800000000002</ele>
   </trkpt>
   <trkpt lat="42.33028" lon="1.50625">
    <ele>1050.47</ele>
   </trkpt>
   <trkpt lat="42.3303" lon="1.5066700000000002">
    <ele>1050.54</ele>
   </trkpt>
   <trkpt lat="42.330270000000006" lon="1.5069400000000002">
    <ele>1050.43</ele>
   </trkpt>
   <trkpt lat="42.3301" lon="1.5074100000000001">
    <ele>1049.3400000000001</ele>
   </trkpt>
   <trkpt lat="42.33016000000001" lon="1.5081000000000002">
    <ele>1047.86</ele>
   </trkpt>
   <trkpt lat="42.33017" lon="1.50869">
    <ele>1044.1</ele>
   </trkpt>
   <trkpt lat="42.33024" lon="1.50909">
    <ele>1042.0800000000002</ele>
   </trkpt>
   <trkpt lat="42.33037" lon="1.50943">
    <ele>1040.3500000000001</ele>
   </trkpt>
   <trkpt lat="42.33039" lon="1.50956">
    <ele>1040.3500000000001</ele>
   </trkpt>
   <trkpt lat="42.33037" lon="1.5096800000000001">
    <ele>1040.3500000000001</ele>
   </trkpt>
   <trkpt lat="42.330270000000006" lon="1.5099200000000002">
    <ele>1038.8300000000002</ele>
   </trkpt>
   <trkpt lat="42.33028" lon="1.5100000000000002">
    <ele>1038.8300000000002</ele>
   </trkpt>
   <trkpt lat="42.33034000000001" lon="1.5101200000000001">
    <ele>1038.06</ele>
   </trkpt>
  </trkseg>
 </trk>
</gpx>
