<?xml version="1.0" encoding="UTF-8"?>
<gpx creator="StravaGPX" version="1.1" xmlns="http://www.topografix.com/GPX/1/1" xmlns:xsi="http://www.w3.org/2001/XMLSchema-instance" xsi:schemaLocation="http://www.topografix.com/GPX/1/1 http://www.topografix.com/GPX/1/1/gpx.xsd">
 <metadata>
  <name>190</name>
  <author>
   <name>Marc Fargas Fargas</name>
   <link href="https://www.strava.com/athletes/59113394"/>
  </author>
  <copyright author="OpenStreetMap contributors">
   <year>2020</year>
   <license>https://www.openstreetmap.org/copyright</license>
  </copyright>
  <link href="https://www.strava.com/routes/3521850086907833708"/>
 </metadata>
 <trk>
  <name>190</name>
  <link href="https://www.strava.com/routes/3521850086907833708"/>
  <type>ebikeride</type>
  <trkseg>
   <trkpt lat="42.31476000000001" lon="1.50025">
    <ele>1133.2900000000002</ele>
   </trkpt>
   <trkpt lat="42.314930000000004" lon="1.5003300000000002">
    <ele>1134.8</ele>
   </trkpt>
   <trkpt lat="42.315090000000005" lon="1.50028">
    <ele>1134.8600000000001</ele>
   </trkpt>
   <trkpt lat="42.315250000000006" lon="1.5001600000000002">
    <ele>1134.8100000000002</ele>
   </trkpt>
   <trkpt lat="42.31542" lon="1.5000000000000002">
    <ele>1134.5200000000002</ele>
   </trkpt>
   <trkpt lat="42.315580000000004" lon="1.4999600000000002">
    <ele>1133.7</ele>
   </trkpt>
   <trkpt lat="42.316010000000006" lon="1.4999900000000002">
    <ele>1133.15</ele>
   </trkpt>
   <trkpt lat="42.31616" lon="1.49994">
    <ele>1133.0300000000002</ele>
   </trkpt>
   <trkpt lat="42.31627" lon="1.49984">
    <ele>1133.0200000000002</ele>
   </trkpt>
   <trkpt lat="42.316320000000005" lon="1.4996900000000002">
    <ele>1133.14</ele>
   </trkpt>
   <trkpt lat="42.316320000000005" lon="1.4994200000000002">
    <ele>1133.7400000000002</ele>
   </trkpt>
   <trkpt lat="42.31636" lon="1.4992200000000002">
    <ele>1134.3400000000001</ele>
   </trkpt>
   <trkpt lat="42.316410000000005" lon="1.49909">
    <ele>1134.6000000000001</ele>
   </trkpt>
   <trkpt lat="42.316500000000005" lon="1.4987000000000001">
    <ele>1137.46</ele>
   </trkpt>
   <trkpt lat="42.31655000000001" lon="1.49859">
    <ele>1137.46</ele>
   </trkpt>
   <trkpt lat="42.31654" lon="1.49849">
    <ele>1138.0400000000002</ele>
   </trkpt>
  </trkseg>
 </trk>
</gpx>
