<?xml version="1.0" encoding="UTF-8"?>
<gpx creator="StravaGPX" version="1.1" xmlns="http://www.topografix.com/GPX/1/1" xmlns:xsi="http://www.w3.org/2001/XMLSchema-instance" xsi:schemaLocation="http://www.topografix.com/GPX/1/1 http://www.topografix.com/GPX/1/1/gpx.xsd">
 <metadata>
  <name>218</name>
  <author>
   <name>Marc Fargas Fargas</name>
   <link href="https://www.strava.com/athletes/59113394"/>
  </author>
  <copyright author="OpenStreetMap contributors">
   <year>2020</year>
   <license>https://www.openstreetmap.org/copyright</license>
  </copyright>
  <link href="https://www.strava.com/routes/3521850086907833708"/>
 </metadata>
 <trk>
  <name>218</name>
  <link href="https://www.strava.com/routes/3521850086907833708"/>
  <type>ebikeride</type>
  <trkseg>
   <trkpt lat="42.35211" lon="1.46008">
    <ele>680.8000000000001</ele>
   </trkpt>
   <trkpt lat="42.3521" lon="1.4601600000000001">
    <ele>680.8000000000001</ele>
   </trkpt>
   <trkpt lat="42.352140000000006" lon="1.46028">
    <ele>680.71</ele>
   </trkpt>
   <trkpt lat="42.35242" lon="1.46089">
    <ele>680.2800000000001</ele>
   </trkpt>
   <trkpt lat="42.352470000000004" lon="1.46113">
    <ele>680.2800000000001</ele>
   </trkpt>
   <trkpt lat="42.35257" lon="1.4612100000000001">
    <ele>679.9200000000001</ele>
   </trkpt>
   <trkpt lat="42.35273" lon="1.4615300000000002">
    <ele>679.58</ele>
   </trkpt>
   <trkpt lat="42.353" lon="1.46221">
    <ele>679.5600000000001</ele>
   </trkpt>
   <trkpt lat="42.35334" lon="1.4632100000000001">
    <ele>679.6300000000001</ele>
   </trkpt>
   <trkpt lat="42.3536" lon="1.46418">
    <ele>679.8900000000001</ele>
   </trkpt>
   <trkpt lat="42.353790000000004" lon="1.4651100000000001">
    <ele>680.1</ele>
   </trkpt>
   <trkpt lat="42.353930005995636" lon="1.4662849973590926">
    <ele>680.4100000000001</ele>
   </trkpt>
   <trkpt lat="42.35407" lon="1.4674600000000002">
    <ele>680.8700000000001</ele>
   </trkpt>
   <trkpt lat="42.35423000255904" lon="1.468219998300453">
    <ele>681.12</ele>
   </trkpt>
   <trkpt lat="42.35439" lon="1.4689800000000002">
    <ele>681.24</ele>
   </trkpt>
   <trkpt lat="42.35477" lon="1.4699600000000002">
    <ele>681.52</ele>
   </trkpt>
   <trkpt lat="42.35477" lon="1.46995">
    <ele>681.52</ele>
   </trkpt>
   <trkpt lat="42.35481" lon="1.4700600000000001">
    <ele>681.52</ele>
   </trkpt>
   <trkpt lat="42.355230000000006" lon="1.4708500000000002">
    <ele>682.1100000000001</ele>
   </trkpt>
   <trkpt lat="42.35575" lon="1.4715500000000001">
    <ele>682.42</ele>
   </trkpt>
   <trkpt lat="42.35639000350593" lon="1.4721833204536494">
    <ele>682.7700000000001</ele>
   </trkpt>
   <trkpt lat="42.35703000352648" lon="1.4728166538071008">
    <ele>683.6500000000001</ele>
   </trkpt>
   <trkpt lat="42.357670000000006" lon="1.4734500000000001">
    <ele>684.88</ele>
   </trkpt>
   <trkpt lat="42.35810500178888" lon="1.4740649959485033">
    <ele>685.48</ele>
   </trkpt>
   <trkpt lat="42.358540000000005" lon="1.4746800000000002">
    <ele>685.62</ele>
   </trkpt>
   <trkpt lat="42.35881500231772" lon="1.475419996596006">
    <ele>686.1600000000001</ele>
   </trkpt>
   <trkpt lat="42.35909" lon="1.4761600000000001">
    <ele>686.5300000000001</ele>
   </trkpt>
   <trkpt lat="42.359230000000004" lon="1.47733">
    <ele>687.1700000000001</ele>
   </trkpt>
   <trkpt lat="42.35919500240876" lon="1.4780750004726722">
    <ele>687.8100000000001</ele>
   </trkpt>
   <trkpt lat="42.35916" lon="1.47882">
    <ele>688.3800000000001</ele>
   </trkpt>
   <trkpt lat="42.358925003015656" lon="1.479660003320283">
    <ele>688.8100000000001</ele>
   </trkpt>
   <trkpt lat="42.35869" lon="1.4805000000000001">
    <ele>689.35</ele>
   </trkpt>
   <trkpt lat="42.35831" lon="1.4811900000000002">
    <ele>689.88</ele>
   </trkpt>
   <trkpt lat="42.358000000000004" lon="1.48174">
    <ele>690.1600000000001</ele>
   </trkpt>
   <trkpt lat="42.357690000000005" lon="1.4824300000000001">
    <ele>690.5500000000001</ele>
   </trkpt>
   <trkpt lat="42.35739" lon="1.48334">
    <ele>690.9300000000001</ele>
   </trkpt>
   <trkpt lat="42.35727000000001" lon="1.4839200000000001">
    <ele>691.19</ele>
   </trkpt>
   <trkpt lat="42.35699" lon="1.48429">
    <ele>691.8000000000001</ele>
   </trkpt>
   <trkpt lat="42.356680000000004" lon="1.4844000000000002">
    <ele>694.5</ele>
   </trkpt>
   <trkpt lat="42.35642" lon="1.48439">
    <ele>695.85</ele>
   </trkpt>
   <trkpt lat="42.355940000000004" lon="1.4843300000000001">
    <ele>697.1400000000001</ele>
   </trkpt>
   <trkpt lat="42.355850000000004" lon="1.4843000000000002">
    <ele>697.3800000000001</ele>
   </trkpt>
   <trkpt lat="42.355790000000006" lon="1.4844300000000001">
    <ele>697.3600000000001</ele>
   </trkpt>
   <trkpt lat="42.355810000000005" lon="1.48455">
    <ele>697.1700000000001</ele>
   </trkpt>
   <trkpt lat="42.355880000000006" lon="1.4846000000000001">
    <ele>697.1700000000001</ele>
   </trkpt>
   <trkpt lat="42.35663" lon="1.48472">
    <ele>695.09</ele>
   </trkpt>
   <trkpt lat="42.35708" lon="1.4848500000000002">
    <ele>693.06</ele>
   </trkpt>
   <trkpt lat="42.35714" lon="1.48493">
    <ele>692.83</ele>
   </trkpt>
   <trkpt lat="42.35714" lon="1.48499">
    <ele>692.83</ele>
   </trkpt>
   <trkpt lat="42.35714" lon="1.48597">
    <ele>692.98</ele>
   </trkpt>
   <trkpt lat="42.35719" lon="1.4866400000000002">
    <ele>693.25</ele>
   </trkpt>
   <trkpt lat="42.3573" lon="1.4873100000000001">
    <ele>693.73</ele>
   </trkpt>
   <trkpt lat="42.35763" lon="1.48842">
    <ele>694.91</ele>
   </trkpt>
   <trkpt lat="42.35779" lon="1.4890200000000002">
    <ele>695.33</ele>
   </trkpt>
   <trkpt lat="42.3579" lon="1.4899000000000002">
    <ele>695.74</ele>
   </trkpt>
   <trkpt lat="42.35792" lon="1.49076">
    <ele>696.33</ele>
   </trkpt>
   <trkpt lat="42.357820000000004" lon="1.4917300000000002">
    <ele>697.0500000000001</ele>
   </trkpt>
   <trkpt lat="42.357655001769146" lon="1.492370001721062">
    <ele>697.4100000000001</ele>
   </trkpt>
   <trkpt lat="42.357490000000006" lon="1.4930100000000002">
    <ele>698.01</ele>
   </trkpt>
   <trkpt lat="42.35721002107595" lon="1.4939950219482303">
    <ele>698.5600000000001</ele>
   </trkpt>
   <trkpt lat="42.356930033720786" lon="1.4949800351191334">
    <ele>699.5</ele>
   </trkpt>
   <trkpt lat="42.35665003793468" lon="1.4959650395126096">
    <ele>700.33</ele>
   </trkpt>
   <trkpt lat="42.356370033717766" lon="1.4969500351285594">
    <ele>700.79</ele>
   </trkpt>
   <trkpt lat="42.356090021070216" lon="1.4979350219668828">
    <ele>701.5</ele>
   </trkpt>
   <trkpt lat="42.355810000000005" lon="1.49892">
    <ele>702.52</ele>
   </trkpt>
   <trkpt lat="42.35571500154073" lon="1.4995200010546281">
    <ele>702.89</ele>
   </trkpt>
   <trkpt lat="42.35562" lon="1.5001200000000001">
    <ele>703.23</ele>
   </trkpt>
   <trkpt lat="42.35556000274415" lon="1.5009150007835326">
    <ele>703.67</ele>
   </trkpt>
   <trkpt lat="42.355500000000006" lon="1.50171">
    <ele>704.5</ele>
   </trkpt>
   <trkpt lat="42.355470000000004" lon="1.5024600000000001">
    <ele>705.0400000000001</ele>
   </trkpt>
   <trkpt lat="42.35548" lon="1.5031100000000002">
    <ele>705.6800000000001</ele>
   </trkpt>
   <trkpt lat="42.3551" lon="1.5035500000000002">
    <ele>707.9300000000001</ele>
   </trkpt>
   <trkpt lat="42.354850000000006" lon="1.50408">
    <ele>708.98</ele>
   </trkpt>
   <trkpt lat="42.35463" lon="1.50469">
    <ele>710.0600000000001</ele>
   </trkpt>
   <trkpt lat="42.3545" lon="1.50523">
    <ele>711.79</ele>
   </trkpt>
   <trkpt lat="42.354420000000005" lon="1.50512">
    <ele>711.9300000000001</ele>
   </trkpt>
  </trkseg>
 </trk>
</gpx>
