<?xml version="1.0" encoding="UTF-8"?>
<gpx creator="StravaGPX" version="1.1" xmlns="http://www.topografix.com/GPX/1/1" xmlns:xsi="http://www.w3.org/2001/XMLSchema-instance" xsi:schemaLocation="http://www.topografix.com/GPX/1/1 http://www.topografix.com/GPX/1/1/gpx.xsd">
 <metadata>
  <name>231</name>
  <author>
   <name>Marc Fargas Fargas</name>
   <link href="https://www.strava.com/athletes/59113394"/>
  </author>
  <copyright author="OpenStreetMap contributors">
   <year>2020</year>
   <license>https://www.openstreetmap.org/copyright</license>
  </copyright>
  <link href="https://www.strava.com/routes/3521850086907833708"/>
 </metadata>
 <trk>
  <name>231</name>
  <link href="https://www.strava.com/routes/3521850086907833708"/>
  <type>ebikeride</type>
  <trkseg>
   <trkpt lat="42.33605" lon="1.4612500000000002">
    <ele>930.7700000000001</ele>
   </trkpt>
   <trkpt lat="42.336180000000006" lon="1.46141">
    <ele>930.2</ele>
   </trkpt>
   <trkpt lat="42.33639" lon="1.4615500000000001">
    <ele>927.69</ele>
   </trkpt>
   <trkpt lat="42.336650000000006" lon="1.4616">
    <ele>922.2600000000001</ele>
   </trkpt>
   <trkpt lat="42.336690000000004" lon="1.46177">
    <ele>920.44</ele>
   </trkpt>
   <trkpt lat="42.3369" lon="1.4621700000000002">
    <ele>913.6200000000001</ele>
   </trkpt>
   <trkpt lat="42.33731" lon="1.4624100000000002">
    <ele>901.44</ele>
   </trkpt>
   <trkpt lat="42.337500000000006" lon="1.4626400000000002">
    <ele>894.6200000000001</ele>
   </trkpt>
   <trkpt lat="42.33769" lon="1.4626000000000001">
    <ele>889.5200000000001</ele>
   </trkpt>
   <trkpt lat="42.338" lon="1.4629200000000002">
    <ele>875.63</ele>
   </trkpt>
   <trkpt lat="42.338330000000006" lon="1.4630400000000001">
    <ele>861.5</ele>
   </trkpt>
   <trkpt lat="42.338440000000006" lon="1.4633600000000002">
    <ele>852.28</ele>
   </trkpt>
   <trkpt lat="42.33867" lon="1.46364">
    <ele>839.49</ele>
   </trkpt>
   <trkpt lat="42.339020000000005" lon="1.46367">
    <ele>827.5</ele>
   </trkpt>
   <trkpt lat="42.339220000000005" lon="1.46354">
    <ele>823.3800000000001</ele>
   </trkpt>
   <trkpt lat="42.33943" lon="1.4635900000000002">
    <ele>816.8900000000001</ele>
   </trkpt>
   <trkpt lat="42.33954000000001" lon="1.4640600000000001">
    <ele>809.08</ele>
   </trkpt>
   <trkpt lat="42.33973" lon="1.4644700000000002">
    <ele>800.6</ele>
   </trkpt>
   <trkpt lat="42.33999" lon="1.46432">
    <ele>794.4300000000001</ele>
   </trkpt>
   <trkpt lat="42.34019000000001" lon="1.4639900000000001">
    <ele>789.75</ele>
   </trkpt>
   <trkpt lat="42.340250000000005" lon="1.4638000000000002">
    <ele>787.73</ele>
   </trkpt>
   <trkpt lat="42.340320000000006" lon="1.4635900000000002">
    <ele>785.1800000000001</ele>
   </trkpt>
   <trkpt lat="42.340410000000006" lon="1.4638700000000002">
    <ele>780.57</ele>
   </trkpt>
   <trkpt lat="42.34049" lon="1.4640400000000002">
    <ele>777.39</ele>
   </trkpt>
   <trkpt lat="42.34056" lon="1.46388">
    <ele>773.1800000000001</ele>
   </trkpt>
   <trkpt lat="42.34062" lon="1.4640700000000002">
    <ele>770.0600000000001</ele>
   </trkpt>
   <trkpt lat="42.340680000000006" lon="1.4638700000000002">
    <ele>769.08</ele>
   </trkpt>
   <trkpt lat="42.34075000000001" lon="1.4640400000000002">
    <ele>765.0300000000001</ele>
   </trkpt>
   <trkpt lat="42.34089" lon="1.46367">
    <ele>759.1600000000001</ele>
   </trkpt>
   <trkpt lat="42.34102" lon="1.4635500000000001">
    <ele>753.8800000000001</ele>
   </trkpt>
   <trkpt lat="42.341190000000005" lon="1.46358">
    <ele>746.1000000000001</ele>
   </trkpt>
  </trkseg>
 </trk>
</gpx>
