<?xml version="1.0" encoding="UTF-8"?>
<gpx creator="StravaGPX" version="1.1" xmlns="http://www.topografix.com/GPX/1/1" xmlns:xsi="http://www.w3.org/2001/XMLSchema-instance" xsi:schemaLocation="http://www.topografix.com/GPX/1/1 http://www.topografix.com/GPX/1/1/gpx.xsd">
 <metadata>
  <name>233</name>
  <author>
   <name>Marc Fargas Fargas</name>
   <link href="https://www.strava.com/athletes/59113394"/>
  </author>
  <copyright author="OpenStreetMap contributors">
   <year>2020</year>
   <license>https://www.openstreetmap.org/copyright</license>
  </copyright>
  <link href="https://www.strava.com/routes/3521850086907833708"/>
 </metadata>
 <trk>
  <name>233</name>
  <link href="https://www.strava.com/routes/3521850086907833708"/>
  <type>ebikeride</type>
  <trkseg>
   <trkpt lat="42.324000000000005" lon="1.4720900000000001">
    <ele>998.3000000000001</ele>
   </trkpt>
   <trkpt lat="42.32388" lon="1.4719900000000001">
    <ele>998.04</ele>
   </trkpt>
   <trkpt lat="42.32381" lon="1.4719900000000001">
    <ele>997.96</ele>
   </trkpt>
   <trkpt lat="42.323780000000006" lon="1.47201">
    <ele>997.96</ele>
   </trkpt>
   <trkpt lat="42.32374" lon="1.4721000000000002">
    <ele>998.0200000000001</ele>
   </trkpt>
   <trkpt lat="42.323640000000005" lon="1.4725700000000002">
    <ele>1000.4300000000002</ele>
   </trkpt>
   <trkpt lat="42.32356" lon="1.4726700000000001">
    <ele>1001.8800000000001</ele>
   </trkpt>
   <trkpt lat="42.32343" lon="1.4727500000000002">
    <ele>1001.8800000000001</ele>
   </trkpt>
   <trkpt lat="42.32329" lon="1.4727800000000002">
    <ele>1003.8200000000002</ele>
   </trkpt>
   <trkpt lat="42.3232" lon="1.4727800000000002">
    <ele>1003.8200000000002</ele>
   </trkpt>
   <trkpt lat="42.32287" lon="1.4726700000000001">
    <ele>1006.32</ele>
   </trkpt>
   <trkpt lat="42.322630000000004" lon="1.4726400000000002">
    <ele>1005.2800000000002</ele>
   </trkpt>
   <trkpt lat="42.322410000000005" lon="1.4727000000000001">
    <ele>1004.6700000000002</ele>
   </trkpt>
   <trkpt lat="42.322230000000005" lon="1.47269">
    <ele>1004.3600000000001</ele>
   </trkpt>
   <trkpt lat="42.322140000000005" lon="1.47272">
    <ele>1004.0600000000002</ele>
   </trkpt>
   <trkpt lat="42.322030000000005" lon="1.4728400000000001">
    <ele>1003.8800000000001</ele>
   </trkpt>
   <trkpt lat="42.322010000000006" lon="1.47289">
    <ele>1003.95</ele>
   </trkpt>
   <trkpt lat="42.32202" lon="1.4729800000000002">
    <ele>1004.27</ele>
   </trkpt>
   <trkpt lat="42.32209" lon="1.4731100000000001">
    <ele>1004.83</ele>
   </trkpt>
   <trkpt lat="42.32213" lon="1.47323">
    <ele>1005.19</ele>
   </trkpt>
   <trkpt lat="42.3222" lon="1.4737500000000001">
    <ele>1008.35</ele>
   </trkpt>
   <trkpt lat="42.322210000000005" lon="1.4741000000000002">
    <ele>1008.5600000000001</ele>
   </trkpt>
   <trkpt lat="42.32209" lon="1.4741400000000002">
    <ele>1011.9</ele>
   </trkpt>
   <trkpt lat="42.32202" lon="1.47408">
    <ele>1014.4000000000002</ele>
   </trkpt>
   <trkpt lat="42.32173" lon="1.4736200000000002">
    <ele>1027.18</ele>
   </trkpt>
   <trkpt lat="42.32133" lon="1.4733600000000002">
    <ele>1036.23</ele>
   </trkpt>
   <trkpt lat="42.32121" lon="1.47324">
    <ele>1040.0500000000002</ele>
   </trkpt>
   <trkpt lat="42.32088" lon="1.47283">
    <ele>1046.28</ele>
   </trkpt>
   <trkpt lat="42.32043" lon="1.47249">
    <ele>1057.7800000000002</ele>
   </trkpt>
   <trkpt lat="42.32023" lon="1.47229">
    <ele>1064.27</ele>
   </trkpt>
   <trkpt lat="42.32" lon="1.47211">
    <ele>1070.41</ele>
   </trkpt>
   <trkpt lat="42.31987" lon="1.4720300000000002">
    <ele>1073.5100000000002</ele>
   </trkpt>
   <trkpt lat="42.319720000000004" lon="1.47198">
    <ele>1076.8300000000002</ele>
   </trkpt>
   <trkpt lat="42.31962" lon="1.47198">
    <ele>1076.8300000000002</ele>
   </trkpt>
   <trkpt lat="42.31945" lon="1.47201">
    <ele>1080.57</ele>
   </trkpt>
   <trkpt lat="42.3192" lon="1.4719600000000002">
    <ele>1085.6200000000001</ele>
   </trkpt>
   <trkpt lat="42.318720000000006" lon="1.4716300000000002">
    <ele>1098.98</ele>
   </trkpt>
   <trkpt lat="42.318490000000004" lon="1.4713">
    <ele>1107.92</ele>
   </trkpt>
   <trkpt lat="42.318450000000006" lon="1.4707700000000001">
    <ele>1115.73</ele>
   </trkpt>
   <trkpt lat="42.318380000000005" lon="1.4705300000000001">
    <ele>1117.94</ele>
   </trkpt>
   <trkpt lat="42.318020000000004" lon="1.4707500000000002">
    <ele>1122.8400000000001</ele>
   </trkpt>
   <trkpt lat="42.317780000000006" lon="1.4708100000000002">
    <ele>1123.8700000000001</ele>
   </trkpt>
   <trkpt lat="42.317730000000005" lon="1.47089">
    <ele>1127.2900000000002</ele>
   </trkpt>
   <trkpt lat="42.31763" lon="1.4712">
    <ele>1128.63</ele>
   </trkpt>
   <trkpt lat="42.317530000000005" lon="1.47137">
    <ele>1130.0700000000002</ele>
   </trkpt>
   <trkpt lat="42.31747" lon="1.47143">
    <ele>1130.0700000000002</ele>
   </trkpt>
   <trkpt lat="42.31739" lon="1.4714600000000002">
    <ele>1131.0</ele>
   </trkpt>
   <trkpt lat="42.317310000000006" lon="1.4714600000000002">
    <ele>1131.96</ele>
   </trkpt>
   <trkpt lat="42.31723" lon="1.47143">
    <ele>1131.96</ele>
   </trkpt>
   <trkpt lat="42.31703" lon="1.4711200000000002">
    <ele>1134.1499999999999</ele>
   </trkpt>
   <trkpt lat="42.31696" lon="1.47106">
    <ele>1134.8100000000002</ele>
   </trkpt>
  </trkseg>
 </trk>
</gpx>
