<?xml version="1.0" encoding="UTF-8"?>
<gpx creator="StravaGPX" version="1.1" xmlns="http://www.topografix.com/GPX/1/1" xmlns:xsi="http://www.w3.org/2001/XMLSchema-instance" xsi:schemaLocation="http://www.topografix.com/GPX/1/1 http://www.topografix.com/GPX/1/1/gpx.xsd">
 <metadata>
  <name>243</name>
  <author>
   <name>Marc Fargas Fargas</name>
   <link href="https://www.strava.com/athletes/59113394"/>
  </author>
  <copyright author="OpenStreetMap contributors">
   <year>2020</year>
   <license>https://www.openstreetmap.org/copyright</license>
  </copyright>
  <link href="https://www.strava.com/routes/3521850086907833708"/>
 </metadata>
 <trk>
  <name>243</name>
  <link href="https://www.strava.com/routes/3521850086907833708"/>
  <type>ebikeride</type>
  <trkseg>
   <trkpt lat="42.3222" lon="1.46682">
    <ele>1108.06</ele>
   </trkpt>
   <trkpt lat="42.32222" lon="1.4662700000000002">
    <ele>1102.43</ele>
   </trkpt>
   <trkpt lat="42.32213" lon="1.4659200000000001">
    <ele>1099.6000000000001</ele>
   </trkpt>
   <trkpt lat="42.322100000000006" lon="1.46557">
    <ele>1095.5400000000002</ele>
   </trkpt>
   <trkpt lat="42.322070000000004" lon="1.46547">
    <ele>1095.5400000000002</ele>
   </trkpt>
   <trkpt lat="42.32186" lon="1.46516">
    <ele>1091.79</ele>
   </trkpt>
   <trkpt lat="42.32155" lon="1.4648400000000001">
    <ele>1087.23</ele>
   </trkpt>
   <trkpt lat="42.321340000000006" lon="1.46469">
    <ele>1083.8100000000002</ele>
   </trkpt>
   <trkpt lat="42.321250000000006" lon="1.4646000000000001">
    <ele>1082.6100000000001</ele>
   </trkpt>
   <trkpt lat="42.32117" lon="1.4644400000000002">
    <ele>1080.57</ele>
   </trkpt>
   <trkpt lat="42.321160000000006" lon="1.46435">
    <ele>1080.57</ele>
   </trkpt>
   <trkpt lat="42.321180000000005" lon="1.4642700000000002">
    <ele>1076.95</ele>
   </trkpt>
   <trkpt lat="42.32123000000001" lon="1.46419">
    <ele>1076.95</ele>
   </trkpt>
   <trkpt lat="42.321310000000004" lon="1.46412">
    <ele>1073.82</ele>
   </trkpt>
   <trkpt lat="42.32143000000001" lon="1.46408">
    <ele>1072.41</ele>
   </trkpt>
   <trkpt lat="42.3215" lon="1.4640300000000002">
    <ele>1071.6499999999999</ele>
   </trkpt>
   <trkpt lat="42.32151" lon="1.46395">
    <ele>1070.81</ele>
   </trkpt>
   <trkpt lat="42.32143000000001" lon="1.4638900000000001">
    <ele>1069.05</ele>
   </trkpt>
   <trkpt lat="42.321310000000004" lon="1.4638700000000002">
    <ele>1066.75</ele>
   </trkpt>
   <trkpt lat="42.32099" lon="1.4638700000000002">
    <ele>1062.19</ele>
   </trkpt>
   <trkpt lat="42.3209" lon="1.4638900000000001">
    <ele>1060.81</ele>
   </trkpt>
   <trkpt lat="42.320820000000005" lon="1.46395">
    <ele>1060.81</ele>
   </trkpt>
   <trkpt lat="42.32072" lon="1.4641700000000002">
    <ele>1058.89</ele>
   </trkpt>
   <trkpt lat="42.320690000000006" lon="1.4643000000000002">
    <ele>1057.3300000000002</ele>
   </trkpt>
   <trkpt lat="42.320690000000006" lon="1.4645400000000002">
    <ele>1056.3200000000002</ele>
   </trkpt>
   <trkpt lat="42.320660000000004" lon="1.4646500000000002">
    <ele>1053.49</ele>
   </trkpt>
   <trkpt lat="42.320600000000006" lon="1.4647000000000001">
    <ele>1053.49</ele>
   </trkpt>
   <trkpt lat="42.32054" lon="1.46466">
    <ele>1051.64</ele>
   </trkpt>
   <trkpt lat="42.32047" lon="1.46449">
    <ele>1050.5300000000002</ele>
   </trkpt>
   <trkpt lat="42.320440000000005" lon="1.4643300000000001">
    <ele>1049.0900000000001</ele>
   </trkpt>
   <trkpt lat="42.320370000000004" lon="1.46368">
    <ele>1041.94</ele>
   </trkpt>
   <trkpt lat="42.32027" lon="1.46317">
    <ele>1032.7</ele>
   </trkpt>
   <trkpt lat="42.320220000000006" lon="1.4631">
    <ele>1032.7</ele>
   </trkpt>
   <trkpt lat="42.32007" lon="1.4630200000000002">
    <ele>1029.7800000000002</ele>
   </trkpt>
   <trkpt lat="42.32002000000001" lon="1.4629400000000001">
    <ele>1027.94</ele>
   </trkpt>
   <trkpt lat="42.32003" lon="1.46286">
    <ele>1025.46</ele>
   </trkpt>
   <trkpt lat="42.320080000000004" lon="1.46279">
    <ele>1025.46</ele>
   </trkpt>
   <trkpt lat="42.320190000000004" lon="1.46273">
    <ele>1022.9400000000002</ele>
   </trkpt>
   <trkpt lat="42.32039" lon="1.46273">
    <ele>1019.8500000000001</ele>
   </trkpt>
   <trkpt lat="42.320440000000005" lon="1.4626700000000001">
    <ele>1017.47</ele>
   </trkpt>
   <trkpt lat="42.320440000000005" lon="1.4626000000000001">
    <ele>1017.47</ele>
   </trkpt>
   <trkpt lat="42.32039" lon="1.4625400000000002">
    <ele>1016.72</ele>
   </trkpt>
   <trkpt lat="42.320310000000006" lon="1.4624800000000002">
    <ele>1015.3700000000001</ele>
   </trkpt>
   <trkpt lat="42.320040000000006" lon="1.46238">
    <ele>1011.2700000000001</ele>
   </trkpt>
   <trkpt lat="42.31971" lon="1.46235">
    <ele>1006.9700000000001</ele>
   </trkpt>
   <trkpt lat="42.319520000000004" lon="1.46236">
    <ele>1004.98</ele>
   </trkpt>
   <trkpt lat="42.31947" lon="1.46232">
    <ele>1004.98</ele>
   </trkpt>
   <trkpt lat="42.31947" lon="1.4622700000000002">
    <ele>1004.98</ele>
   </trkpt>
   <trkpt lat="42.31951" lon="1.46219">
    <ele>1002.83</ele>
   </trkpt>
   <trkpt lat="42.320130000000006" lon="1.46202">
    <ele>998.2200000000001</ele>
   </trkpt>
   <trkpt lat="42.32016" lon="1.46198">
    <ele>997.83</ele>
   </trkpt>
   <trkpt lat="42.32016" lon="1.4619000000000002">
    <ele>997.3600000000001</ele>
   </trkpt>
   <trkpt lat="42.32007" lon="1.46184">
    <ele>996.83</ele>
   </trkpt>
   <trkpt lat="42.31976" lon="1.46188">
    <ele>992.74</ele>
   </trkpt>
   <trkpt lat="42.3196" lon="1.4617900000000001">
    <ele>991.0000000000001</ele>
   </trkpt>
   <trkpt lat="42.319480000000006" lon="1.4617600000000002">
    <ele>990.6800000000001</ele>
   </trkpt>
   <trkpt lat="42.31933" lon="1.4618000000000002">
    <ele>989.21</ele>
   </trkpt>
   <trkpt lat="42.31911" lon="1.46181">
    <ele>987.4300000000001</ele>
   </trkpt>
   <trkpt lat="42.31898" lon="1.4618700000000002">
    <ele>986.89</ele>
   </trkpt>
   <trkpt lat="42.31891" lon="1.46188">
    <ele>986.6800000000001</ele>
   </trkpt>
   <trkpt lat="42.31888" lon="1.4618300000000002">
    <ele>986.4300000000001</ele>
   </trkpt>
   <trkpt lat="42.318900000000006" lon="1.46174">
    <ele>985.7300000000001</ele>
   </trkpt>
   <trkpt lat="42.319250000000004" lon="1.4615500000000001">
    <ele>981.6700000000001</ele>
   </trkpt>
   <trkpt lat="42.31947" lon="1.4613800000000001">
    <ele>979.4800000000001</ele>
   </trkpt>
   <trkpt lat="42.319590000000005" lon="1.4613500000000001">
    <ele>978.7300000000001</ele>
   </trkpt>
   <trkpt lat="42.319810000000004" lon="1.4613500000000001">
    <ele>976.83</ele>
   </trkpt>
   <trkpt lat="42.32007" lon="1.4612200000000002">
    <ele>973.71</ele>
   </trkpt>
   <trkpt lat="42.32056" lon="1.4612500000000002">
    <ele>967.32</ele>
   </trkpt>
   <trkpt lat="42.32063" lon="1.46124">
    <ele>966.83</ele>
   </trkpt>
   <trkpt lat="42.32072" lon="1.46117">
    <ele>965.74</ele>
   </trkpt>
   <trkpt lat="42.320890000000006" lon="1.4608700000000001">
    <ele>960.0600000000001</ele>
   </trkpt>
   <trkpt lat="42.32095" lon="1.46083">
    <ele>960.0600000000001</ele>
   </trkpt>
   <trkpt lat="42.32104" lon="1.4608400000000001">
    <ele>959.35</ele>
   </trkpt>
   <trkpt lat="42.32157" lon="1.4611900000000002">
    <ele>951.2700000000001</ele>
   </trkpt>
   <trkpt lat="42.32164" lon="1.4612200000000002">
    <ele>949.8700000000001</ele>
   </trkpt>
   <trkpt lat="42.32170000000001" lon="1.4612100000000001">
    <ele>948.21</ele>
   </trkpt>
   <trkpt lat="42.321780000000004" lon="1.46116">
    <ele>947.4300000000001</ele>
   </trkpt>
   <trkpt lat="42.321920000000006" lon="1.4609400000000001">
    <ele>944.2300000000001</ele>
   </trkpt>
   <trkpt lat="42.32206" lon="1.46056">
    <ele>940.1400000000001</ele>
   </trkpt>
   <trkpt lat="42.322250000000004" lon="1.4602100000000002">
    <ele>938.5200000000001</ele>
   </trkpt>
   <trkpt lat="42.32236" lon="1.4600700000000002">
    <ele>936.9100000000001</ele>
   </trkpt>
   <trkpt lat="42.32249" lon="1.45998">
    <ele>935.3500000000001</ele>
   </trkpt>
   <trkpt lat="42.32274" lon="1.4598700000000002">
    <ele>932.1100000000001</ele>
   </trkpt>
   <trkpt lat="42.32303" lon="1.45981">
    <ele>929.22</ele>
   </trkpt>
   <trkpt lat="42.32309" lon="1.4596500000000001">
    <ele>927.8000000000001</ele>
   </trkpt>
  </trkseg>
 </trk>
</gpx>
