<?xml version="1.0" encoding="UTF-8"?>
<gpx creator="StravaGPX" version="1.1" xmlns="http://www.topografix.com/GPX/1/1" xmlns:xsi="http://www.w3.org/2001/XMLSchema-instance" xsi:schemaLocation="http://www.topografix.com/GPX/1/1 http://www.topografix.com/GPX/1/1/gpx.xsd">
 <metadata>
  <name>244</name>
  <author>
   <name>Marc Fargas Fargas</name>
   <link href="https://www.strava.com/athletes/59113394"/>
  </author>
  <copyright author="OpenStreetMap contributors">
   <year>2020</year>
   <license>https://www.openstreetmap.org/copyright</license>
  </copyright>
  <link href="https://www.strava.com/routes/3521850086907833708"/>
 </metadata>
 <trk>
  <name>244</name>
  <link href="https://www.strava.com/routes/3521850086907833708"/>
  <type>ebikeride</type>
  <trkseg>
   <trkpt lat="42.31696" lon="1.47106">
    <ele>1134.8100000000002</ele>
   </trkpt>
   <trkpt lat="42.316660000000006" lon="1.4711800000000002">
    <ele>1137.6000000000001</ele>
   </trkpt>
   <trkpt lat="42.3164" lon="1.4714200000000002">
    <ele>1139.89</ele>
   </trkpt>
   <trkpt lat="42.31627" lon="1.47168">
    <ele>1141.55</ele>
   </trkpt>
   <trkpt lat="42.315960000000004" lon="1.4725000000000001">
    <ele>1147.6000000000001</ele>
   </trkpt>
   <trkpt lat="42.315630000000006" lon="1.47317">
    <ele>1152.49</ele>
   </trkpt>
  </trkseg>
 </trk>
</gpx>
