<?xml version="1.0" encoding="UTF-8"?>
<gpx creator="StravaGPX" version="1.1" xmlns="http://www.topografix.com/GPX/1/1" xmlns:xsi="http://www.w3.org/2001/XMLSchema-instance" xsi:schemaLocation="http://www.topografix.com/GPX/1/1 http://www.topografix.com/GPX/1/1/gpx.xsd">
 <metadata>
  <name>261</name>
  <author>
   <name>Marc Fargas Fargas</name>
   <link href="https://www.strava.com/athletes/59113394"/>
  </author>
  <copyright author="OpenStreetMap contributors">
   <year>2020</year>
   <license>https://www.openstreetmap.org/copyright</license>
  </copyright>
  <link href="https://www.strava.com/routes/3521850086907833708"/>
 </metadata>
 <trk>
  <name>261</name>
  <link href="https://www.strava.com/routes/3521850086907833708"/>
  <type>ebikeride</type>
  <trkseg>
   <trkpt lat="42.30678" lon="1.5442900000000002">
    <ele>1482.52</ele>
   </trkpt>
   <trkpt lat="42.306670000000004" lon="1.5443000000000002">
    <ele>1481.3500000000001</ele>
   </trkpt>
   <trkpt lat="42.30673" lon="1.5444200000000001">
    <ele>1478.82</ele>
   </trkpt>
   <trkpt lat="42.30671" lon="1.54455">
    <ele>1478.25</ele>
   </trkpt>
   <trkpt lat="42.30659" lon="1.54471">
    <ele>1475.3100000000002</ele>
   </trkpt>
   <trkpt lat="42.306340000000006" lon="1.5449100000000002">
    <ele>1474.25</ele>
   </trkpt>
   <trkpt lat="42.30621" lon="1.54498">
    <ele>1474.2</ele>
   </trkpt>
   <trkpt lat="42.305910000000004" lon="1.5449700000000002">
    <ele>1474.6000000000001</ele>
   </trkpt>
   <trkpt lat="42.30565" lon="1.5450400000000002">
    <ele>1475.72</ele>
   </trkpt>
   <trkpt lat="42.305330000000005" lon="1.5454400000000001">
    <ele>1479.8000000000002</ele>
   </trkpt>
   <trkpt lat="42.3051" lon="1.54563">
    <ele>1482.55</ele>
   </trkpt>
   <trkpt lat="42.30482000000001" lon="1.54597">
    <ele>1484.48</ele>
   </trkpt>
   <trkpt lat="42.3046" lon="1.5461500000000001">
    <ele>1485.3400000000001</ele>
   </trkpt>
   <trkpt lat="42.30431" lon="1.54621">
    <ele>1486.18</ele>
   </trkpt>
   <trkpt lat="42.304100000000005" lon="1.5461900000000002">
    <ele>1487.5900000000001</ele>
   </trkpt>
   <trkpt lat="42.30398" lon="1.54614">
    <ele>1488.92</ele>
   </trkpt>
   <trkpt lat="42.30388000000001" lon="1.5460300000000002">
    <ele>1490.3300000000002</ele>
   </trkpt>
   <trkpt lat="42.303810000000006" lon="1.5460200000000002">
    <ele>1490.3300000000002</ele>
   </trkpt>
   <trkpt lat="42.303740000000005" lon="1.54604">
    <ele>1491.43</ele>
   </trkpt>
   <trkpt lat="42.30337" lon="1.5463300000000002">
    <ele>1495.64</ele>
   </trkpt>
   <trkpt lat="42.303250000000006" lon="1.5464000000000002">
    <ele>1496.46</ele>
   </trkpt>
   <trkpt lat="42.30284" lon="1.54637">
    <ele>1499.2800000000002</ele>
   </trkpt>
   <trkpt lat="42.302730000000004" lon="1.5464700000000002">
    <ele>1500.3200000000002</ele>
   </trkpt>
   <trkpt lat="42.30265000000001" lon="1.5466300000000002">
    <ele>1501.29</ele>
   </trkpt>
   <trkpt lat="42.30261" lon="1.5469000000000002">
    <ele>1502.68</ele>
   </trkpt>
   <trkpt lat="42.302710000000005" lon="1.54742">
    <ele>1505.54</ele>
   </trkpt>
   <trkpt lat="42.302870000000006" lon="1.5477800000000002">
    <ele>1507.09</ele>
   </trkpt>
   <trkpt lat="42.303020000000004" lon="1.54807">
    <ele>1508.73</ele>
   </trkpt>
   <trkpt lat="42.303070000000005" lon="1.5483300000000002">
    <ele>1510.42</ele>
   </trkpt>
   <trkpt lat="42.303020000000004" lon="1.54851">
    <ele>1511.65</ele>
   </trkpt>
   <trkpt lat="42.3029" lon="1.5486600000000001">
    <ele>1512.97</ele>
   </trkpt>
   <trkpt lat="42.302870000000006" lon="1.54875">
    <ele>1512.97</ele>
   </trkpt>
   <trkpt lat="42.302890000000005" lon="1.5491300000000001">
    <ele>1514.75</ele>
   </trkpt>
   <trkpt lat="42.30286" lon="1.5494100000000002">
    <ele>1515.8200000000002</ele>
   </trkpt>
   <trkpt lat="42.302890000000005" lon="1.5495800000000002">
    <ele>1516.2900000000002</ele>
   </trkpt>
   <trkpt lat="42.303070000000005" lon="1.5497800000000002">
    <ele>1517.4</ele>
   </trkpt>
   <trkpt lat="42.30306" lon="1.5499600000000002">
    <ele>1518.94</ele>
   </trkpt>
   <trkpt lat="42.302890000000005" lon="1.5503600000000002">
    <ele>1521.47</ele>
   </trkpt>
   <trkpt lat="42.30277" lon="1.55078">
    <ele>1523.0400000000002</ele>
   </trkpt>
   <trkpt lat="42.30261" lon="1.5511000000000001">
    <ele>1524.3500000000001</ele>
   </trkpt>
   <trkpt lat="42.30259" lon="1.55119">
    <ele>1524.68</ele>
   </trkpt>
   <trkpt lat="42.30263" lon="1.5517400000000001">
    <ele>1524.9800000000002</ele>
   </trkpt>
   <trkpt lat="42.30268" lon="1.5519">
    <ele>1524.7100000000003</ele>
   </trkpt>
   <trkpt lat="42.302760000000006" lon="1.5520600000000002">
    <ele>1524.0300000000002</ele>
   </trkpt>
   <trkpt lat="42.30275" lon="1.5521500000000001">
    <ele>1523.2800000000002</ele>
   </trkpt>
   <trkpt lat="42.30272" lon="1.5522300000000002">
    <ele>1522.96</ele>
   </trkpt>
   <trkpt lat="42.302640000000004" lon="1.5523000000000002">
    <ele>1522.44</ele>
   </trkpt>
   <trkpt lat="42.3023" lon="1.5524300000000002">
    <ele>1521.6200000000001</ele>
   </trkpt>
   <trkpt lat="42.30192" lon="1.5527000000000002">
    <ele>1521.22</ele>
   </trkpt>
   <trkpt lat="42.30176" lon="1.5528600000000001">
    <ele>1520.04</ele>
   </trkpt>
   <trkpt lat="42.30125" lon="1.55346">
    <ele>1516.45</ele>
   </trkpt>
   <trkpt lat="42.301010000000005" lon="1.5536500000000002">
    <ele>1514.42</ele>
   </trkpt>
   <trkpt lat="42.30075" lon="1.5537500000000002">
    <ele>1513.5700000000002</ele>
   </trkpt>
   <trkpt lat="42.30066" lon="1.5538800000000001">
    <ele>1513.26</ele>
   </trkpt>
   <trkpt lat="42.300720000000005" lon="1.5541300000000002">
    <ele>1513.1000000000001</ele>
   </trkpt>
   <trkpt lat="42.300830000000005" lon="1.5543500000000001">
    <ele>1513.6900000000003</ele>
   </trkpt>
   <trkpt lat="42.30102" lon="1.5549400000000002">
    <ele>1513.3200000000002</ele>
   </trkpt>
   <trkpt lat="42.301390000000005" lon="1.5554100000000002">
    <ele>1513.06</ele>
   </trkpt>
   <trkpt lat="42.301500000000004" lon="1.5555">
    <ele>1512.96</ele>
   </trkpt>
   <trkpt lat="42.30165" lon="1.5557900000000002">
    <ele>1513.0500000000002</ele>
   </trkpt>
   <trkpt lat="42.30187" lon="1.5559800000000001">
    <ele>1513.4</ele>
   </trkpt>
   <trkpt lat="42.30198" lon="1.5561900000000002">
    <ele>1513.8400000000001</ele>
   </trkpt>
   <trkpt lat="42.302020000000006" lon="1.5566000000000002">
    <ele>1514.42</ele>
   </trkpt>
   <trkpt lat="42.30227" lon="1.55708">
    <ele>1510.58</ele>
   </trkpt>
   <trkpt lat="42.30237" lon="1.5572100000000002">
    <ele>1508.8000000000002</ele>
   </trkpt>
   <trkpt lat="42.302440000000004" lon="1.5571400000000002">
    <ele>1508.8000000000002</ele>
   </trkpt>
   <trkpt lat="42.30257" lon="1.5567700000000002">
    <ele>1504.5000000000002</ele>
   </trkpt>
   <trkpt lat="42.302730000000004" lon="1.5565300000000002">
    <ele>1503.5600000000002</ele>
   </trkpt>
   <trkpt lat="42.30277" lon="1.5565200000000001">
    <ele>1503.5600000000002</ele>
   </trkpt>
   <trkpt lat="42.30285000000001" lon="1.55658">
    <ele>1501.3200000000002</ele>
   </trkpt>
   <trkpt lat="42.30295" lon="1.5569400000000002">
    <ele>1498.65</ele>
   </trkpt>
   <trkpt lat="42.302910000000004" lon="1.5575200000000002">
    <ele>1493.8300000000002</ele>
   </trkpt>
   <trkpt lat="42.30295" lon="1.5576200000000002">
    <ele>1493.42</ele>
   </trkpt>
   <trkpt lat="42.30299" lon="1.5576400000000001">
    <ele>1493.42</ele>
   </trkpt>
   <trkpt lat="42.30308" lon="1.5576">
    <ele>1492.42</ele>
   </trkpt>
   <trkpt lat="42.303200000000004" lon="1.5574700000000001">
    <ele>1491.57</ele>
   </trkpt>
   <trkpt lat="42.3033" lon="1.55706">
    <ele>1489.2900000000002</ele>
   </trkpt>
   <trkpt lat="42.303430000000006" lon="1.55702">
    <ele>1488.43</ele>
   </trkpt>
   <trkpt lat="42.30350000000001" lon="1.5570700000000002">
    <ele>1486.6000000000001</ele>
   </trkpt>
   <trkpt lat="42.303580000000004" lon="1.5572400000000002">
    <ele>1485.6200000000001</ele>
   </trkpt>
   <trkpt lat="42.30364" lon="1.5574800000000002">
    <ele>1483.6</ele>
   </trkpt>
   <trkpt lat="42.303430000000006" lon="1.558">
    <ele>1479.4600000000003</ele>
   </trkpt>
   <trkpt lat="42.303340000000006" lon="1.5583900000000002">
    <ele>1478.17</ele>
   </trkpt>
   <trkpt lat="42.30328" lon="1.55848">
    <ele>1477.6100000000001</ele>
   </trkpt>
   <trkpt lat="42.30295" lon="1.55855">
    <ele>1475.84</ele>
   </trkpt>
   <trkpt lat="42.30259" lon="1.55889">
    <ele>1473.44</ele>
   </trkpt>
   <trkpt lat="42.30246" lon="1.5591000000000002">
    <ele>1471.7900000000002</ele>
   </trkpt>
   <trkpt lat="42.302330000000005" lon="1.5595500000000002">
    <ele>1469.2</ele>
   </trkpt>
   <trkpt lat="42.30223" lon="1.55977">
    <ele>1468.42</ele>
   </trkpt>
   <trkpt lat="42.30214" lon="1.5599">
    <ele>1467.16</ele>
   </trkpt>
   <trkpt lat="42.302020000000006" lon="1.56">
    <ele>1466.3600000000001</ele>
   </trkpt>
   <trkpt lat="42.301880000000004" lon="1.5600100000000001">
    <ele>1466.0300000000002</ele>
   </trkpt>
   <trkpt lat="42.30174" lon="1.5599600000000002">
    <ele>1463.8700000000001</ele>
   </trkpt>
   <trkpt lat="42.30165" lon="1.5599800000000001">
    <ele>1463.8700000000001</ele>
   </trkpt>
   <trkpt lat="42.30136" lon="1.56017">
    <ele>1460.7</ele>
   </trkpt>
   <trkpt lat="42.300760000000004" lon="1.56072">
    <ele>1455.6100000000001</ele>
   </trkpt>
   <trkpt lat="42.30071" lon="1.56072">
    <ele>1453.2200000000003</ele>
   </trkpt>
   <trkpt lat="42.30055" lon="1.5606300000000002">
    <ele>1451.9</ele>
   </trkpt>
   <trkpt lat="42.30015" lon="1.5605600000000002">
    <ele>1445.69</ele>
   </trkpt>
   <trkpt lat="42.30002" lon="1.5605900000000001">
    <ele>1444.52</ele>
   </trkpt>
   <trkpt lat="42.2997" lon="1.5605700000000002">
    <ele>1442.67</ele>
   </trkpt>
   <trkpt lat="42.29946" lon="1.56075">
    <ele>1442.4</ele>
   </trkpt>
   <trkpt lat="42.299150000000004" lon="1.5608600000000001">
    <ele>1441.66</ele>
   </trkpt>
   <trkpt lat="42.29903" lon="1.5609400000000002">
    <ele>1440.66</ele>
   </trkpt>
   <trkpt lat="42.29907" lon="1.5611100000000002">
    <ele>1440.2100000000003</ele>
   </trkpt>
   <trkpt lat="42.299170000000004" lon="1.56125">
    <ele>1440.0900000000001</ele>
   </trkpt>
   <trkpt lat="42.29965000000001" lon="1.5615100000000002">
    <ele>1439.63</ele>
   </trkpt>
   <trkpt lat="42.299730000000004" lon="1.56159">
    <ele>1439.04</ele>
   </trkpt>
   <trkpt lat="42.29981" lon="1.5618100000000001">
    <ele>1437.4</ele>
   </trkpt>
   <trkpt lat="42.29986" lon="1.56204">
    <ele>1437.18</ele>
   </trkpt>
   <trkpt lat="42.29993" lon="1.5630400000000002">
    <ele>1441.66</ele>
   </trkpt>
   <trkpt lat="42.299980000000005" lon="1.5631800000000002">
    <ele>1442.39</ele>
   </trkpt>
   <trkpt lat="42.30013" lon="1.5631300000000001">
    <ele>1443.5000000000002</ele>
   </trkpt>
   <trkpt lat="42.30033" lon="1.5631000000000002">
    <ele>1445.04</ele>
   </trkpt>
   <trkpt lat="42.30051" lon="1.5631100000000002">
    <ele>1445.5600000000002</ele>
   </trkpt>
   <trkpt lat="42.30066" lon="1.56315">
    <ele>1447.0900000000001</ele>
   </trkpt>
   <trkpt lat="42.30086" lon="1.56325">
    <ele>1448.11</ele>
   </trkpt>
   <trkpt lat="42.30107" lon="1.5634000000000001">
    <ele>1450.26</ele>
   </trkpt>
   <trkpt lat="42.30131" lon="1.5634800000000002">
    <ele>1452.5800000000002</ele>
   </trkpt>
   <trkpt lat="42.30174" lon="1.5635800000000002">
    <ele>1456.62</ele>
   </trkpt>
   <trkpt lat="42.301950000000005" lon="1.5637900000000002">
    <ele>1458.72</ele>
   </trkpt>
   <trkpt lat="42.3021" lon="1.5641100000000001">
    <ele>1462.42</ele>
   </trkpt>
   <trkpt lat="42.302290000000006" lon="1.56414">
    <ele>1464.19</ele>
   </trkpt>
   <trkpt lat="42.30265000000001" lon="1.5642600000000002">
    <ele>1466.04</ele>
   </trkpt>
   <trkpt lat="42.30285000000001" lon="1.56441">
    <ele>1466.0300000000002</ele>
   </trkpt>
   <trkpt lat="42.30308" lon="1.5645200000000001">
    <ele>1464.91</ele>
   </trkpt>
   <trkpt lat="42.30341000000001" lon="1.5649000000000002">
    <ele>1463.6100000000001</ele>
   </trkpt>
   <trkpt lat="42.303850000000004" lon="1.56519">
    <ele>1462.3700000000001</ele>
   </trkpt>
   <trkpt lat="42.30404" lon="1.56536">
    <ele>1462.08</ele>
   </trkpt>
   <trkpt lat="42.30433" lon="1.56594">
    <ele>1459.98</ele>
   </trkpt>
   <trkpt lat="42.30447" lon="1.56614">
    <ele>1459.3400000000001</ele>
   </trkpt>
   <trkpt lat="42.30433" lon="1.56657">
    <ele>1458.3000000000002</ele>
   </trkpt>
   <trkpt lat="42.3044" lon="1.5669000000000002">
    <ele>1457.57</ele>
   </trkpt>
   <trkpt lat="42.30449" lon="1.5671700000000002">
    <ele>1456.14</ele>
   </trkpt>
   <trkpt lat="42.30451" lon="1.56759">
    <ele>1454.02</ele>
   </trkpt>
   <trkpt lat="42.30445" lon="1.56807">
    <ele>1452.3400000000001</ele>
   </trkpt>
   <trkpt lat="42.3042" lon="1.5687900000000001">
    <ele>1445.3200000000002</ele>
   </trkpt>
   <trkpt lat="42.304030000000004" lon="1.56946">
    <ele>1441.14</ele>
   </trkpt>
   <trkpt lat="42.30402" lon="1.5699">
    <ele>1437.89</ele>
   </trkpt>
   <trkpt lat="42.304230000000004" lon="1.5699400000000001">
    <ele>1436.0000000000002</ele>
   </trkpt>
   <trkpt lat="42.304370000000006" lon="1.56987">
    <ele>1436.0000000000002</ele>
   </trkpt>
   <trkpt lat="42.30449" lon="1.5696800000000002">
    <ele>1433.93</ele>
   </trkpt>
   <trkpt lat="42.30456" lon="1.56943">
    <ele>1430.74</ele>
   </trkpt>
   <trkpt lat="42.30467" lon="1.5694400000000002">
    <ele>1430.2100000000003</ele>
   </trkpt>
   <trkpt lat="42.30476" lon="1.56979">
    <ele>1427.95</ele>
   </trkpt>
   <trkpt lat="42.30484500520031" lon="1.5708849984147926">
    <ele>1420.16</ele>
   </trkpt>
   <trkpt lat="42.304930000000006" lon="1.5719800000000002">
    <ele>1427.68</ele>
   </trkpt>
   <trkpt lat="42.30505" lon="1.57315">
    <ele>1435.01</ele>
   </trkpt>
   <trkpt lat="42.30518" lon="1.57325">
    <ele>1437.68</ele>
   </trkpt>
   <trkpt lat="42.30529000000001" lon="1.57356">
    <ele>1440.2</ele>
   </trkpt>
   <trkpt lat="42.305510000000005" lon="1.57434">
    <ele>1449.8500000000001</ele>
   </trkpt>
   <trkpt lat="42.305690000000006" lon="1.5746700000000002">
    <ele>1451.8600000000001</ele>
   </trkpt>
   <trkpt lat="42.305640000000004" lon="1.5747200000000001">
    <ele>1452.29</ele>
   </trkpt>
   <trkpt lat="42.305600000000005" lon="1.5746700000000002">
    <ele>1453.21</ele>
   </trkpt>
   <trkpt lat="42.30554" lon="1.57464">
    <ele>1453.21</ele>
   </trkpt>
   <trkpt lat="42.305420000000005" lon="1.5745300000000002">
    <ele>1453.21</ele>
   </trkpt>
   <trkpt lat="42.305040000000005" lon="1.57427">
    <ele>1459.42</ele>
   </trkpt>
   <trkpt lat="42.304550000000006" lon="1.5740900000000002">
    <ele>1462.8100000000002</ele>
   </trkpt>
   <trkpt lat="42.30436" lon="1.57413">
    <ele>1465.3500000000001</ele>
   </trkpt>
   <trkpt lat="42.304010000000005" lon="1.57434">
    <ele>1467.8600000000001</ele>
   </trkpt>
   <trkpt lat="42.3042" lon="1.5744200000000002">
    <ele>1469.96</ele>
   </trkpt>
   <trkpt lat="42.304390000000005" lon="1.5744500000000001">
    <ele>1472.3000000000002</ele>
   </trkpt>
   <trkpt lat="42.30454" lon="1.57457">
    <ele>1473.6100000000001</ele>
   </trkpt>
   <trkpt lat="42.3046" lon="1.57464">
    <ele>1475.18</ele>
   </trkpt>
   <trkpt lat="42.30474" lon="1.5749400000000002">
    <ele>1477.3700000000001</ele>
   </trkpt>
   <trkpt lat="42.30509000000001" lon="1.5756100000000002">
    <ele>1483.65</ele>
   </trkpt>
   <trkpt lat="42.30532" lon="1.57596">
    <ele>1487.94</ele>
   </trkpt>
   <trkpt lat="42.305530000000005" lon="1.57624">
    <ele>1489.81</ele>
   </trkpt>
   <trkpt lat="42.30545" lon="1.5762800000000001">
    <ele>1491.51</ele>
   </trkpt>
   <trkpt lat="42.304910000328825" lon="1.5759849974427937">
    <ele>1497.74</ele>
   </trkpt>
   <trkpt lat="42.304370000000006" lon="1.57569">
    <ele>1503.18</ele>
   </trkpt>
   <trkpt lat="42.30395" lon="1.57553">
    <ele>1507.2800000000002</ele>
   </trkpt>
   <trkpt lat="42.30393" lon="1.5755800000000002">
    <ele>1507.2800000000002</ele>
   </trkpt>
   <trkpt lat="42.304120000000005" lon="1.5758500000000002">
    <ele>1510.75</ele>
   </trkpt>
   <trkpt lat="42.30466000219069" lon="1.5765499940763943">
    <ele>1518.01</ele>
   </trkpt>
   <trkpt lat="42.305200000000006" lon="1.57725">
    <ele>1524.82</ele>
   </trkpt>
   <trkpt lat="42.305530000000005" lon="1.57752">
    <ele>1527.66</ele>
   </trkpt>
   <trkpt lat="42.30585000000001" lon="1.57766">
    <ele>1530.15</ele>
   </trkpt>
   <trkpt lat="42.305960000000006" lon="1.57837">
    <ele>1533.9900000000002</ele>
   </trkpt>
   <trkpt lat="42.30606" lon="1.57864">
    <ele>1535.2</ele>
   </trkpt>
   <trkpt lat="42.306070000000005" lon="1.5787900000000001">
    <ele>1536.3500000000001</ele>
   </trkpt>
   <trkpt lat="42.306050000000006" lon="1.5791300000000001">
    <ele>1537.66</ele>
   </trkpt>
   <trkpt lat="42.30592" lon="1.5794800000000002">
    <ele>1536.9800000000002</ele>
   </trkpt>
   <trkpt lat="42.305800000000005" lon="1.5795700000000001">
    <ele>1536.71</ele>
   </trkpt>
   <trkpt lat="42.30557" lon="1.5799100000000001">
    <ele>1535.4800000000002</ele>
   </trkpt>
   <trkpt lat="42.30539" lon="1.5804200000000002">
    <ele>1535.6000000000001</ele>
   </trkpt>
   <trkpt lat="42.30537" lon="1.5806900000000002">
    <ele>1535.16</ele>
   </trkpt>
   <trkpt lat="42.305420000000005" lon="1.5811400000000002">
    <ele>1532.8100000000002</ele>
   </trkpt>
   <trkpt lat="42.30541" lon="1.58132">
    <ele>1532.6000000000001</ele>
   </trkpt>
   <trkpt lat="42.30527" lon="1.5817500000000002">
    <ele>1532.0</ele>
   </trkpt>
   <trkpt lat="42.30532" lon="1.58179">
    <ele>1531.8500000000001</ele>
   </trkpt>
   <trkpt lat="42.30543" lon="1.5817800000000002">
    <ele>1531.63</ele>
   </trkpt>
   <trkpt lat="42.305490000000006" lon="1.5818400000000001">
    <ele>1531.4800000000002</ele>
   </trkpt>
   <trkpt lat="42.30572" lon="1.5825600000000002">
    <ele>1528.7700000000002</ele>
   </trkpt>
   <trkpt lat="42.30579" lon="1.5826000000000002">
    <ele>1527.95</ele>
   </trkpt>
   <trkpt lat="42.30584" lon="1.5825600000000002">
    <ele>1527.95</ele>
   </trkpt>
   <trkpt lat="42.30586" lon="1.5824600000000002">
    <ele>1526.43</ele>
   </trkpt>
   <trkpt lat="42.30584" lon="1.58223">
    <ele>1525.64</ele>
   </trkpt>
   <trkpt lat="42.30588" lon="1.5820800000000002">
    <ele>1524.28</ele>
   </trkpt>
   <trkpt lat="42.30592" lon="1.58146">
    <ele>1519.46</ele>
   </trkpt>
   <trkpt lat="42.30583" lon="1.58129">
    <ele>1518.61</ele>
   </trkpt>
   <trkpt lat="42.305870000000006" lon="1.5812000000000002">
    <ele>1516.65</ele>
   </trkpt>
   <trkpt lat="42.305980000000005" lon="1.58109">
    <ele>1515.91</ele>
   </trkpt>
   <trkpt lat="42.306070000000005" lon="1.58088">
    <ele>1514.69</ele>
   </trkpt>
   <trkpt lat="42.30615" lon="1.5807700000000002">
    <ele>1514.0800000000002</ele>
   </trkpt>
   <trkpt lat="42.306200000000004" lon="1.5807900000000001">
    <ele>1514.0800000000002</ele>
   </trkpt>
   <trkpt lat="42.30624" lon="1.5809000000000002">
    <ele>1512.48</ele>
   </trkpt>
   <trkpt lat="42.306180000000005" lon="1.58102">
    <ele>1509.91</ele>
   </trkpt>
   <trkpt lat="42.306140000000006" lon="1.58118">
    <ele>1509.3100000000002</ele>
   </trkpt>
   <trkpt lat="42.306200000000004" lon="1.5812700000000002">
    <ele>1508.16</ele>
   </trkpt>
   <trkpt lat="42.306430000000006" lon="1.58129">
    <ele>1504.1700000000003</ele>
   </trkpt>
   <trkpt lat="42.306560000000005" lon="1.5814000000000001">
    <ele>1502.43</ele>
   </trkpt>
   <trkpt lat="42.30664" lon="1.5816100000000002">
    <ele>1501.53</ele>
   </trkpt>
   <trkpt lat="42.30664" lon="1.5817">
    <ele>1499.97</ele>
   </trkpt>
   <trkpt lat="42.306560000000005" lon="1.58193">
    <ele>1497.77</ele>
   </trkpt>
   <trkpt lat="42.30662" lon="1.5819900000000002">
    <ele>1497.77</ele>
   </trkpt>
   <trkpt lat="42.306960000000004" lon="1.5820100000000001">
    <ele>1495.4900000000002</ele>
   </trkpt>
   <trkpt lat="42.307370000000006" lon="1.5819100000000001">
    <ele>1495.48</ele>
   </trkpt>
   <trkpt lat="42.307460000000006" lon="1.5819800000000002">
    <ele>1495.2900000000002</ele>
   </trkpt>
   <trkpt lat="42.30754" lon="1.5821100000000001">
    <ele>1494.89</ele>
   </trkpt>
   <trkpt lat="42.30758" lon="1.58213">
    <ele>1494.89</ele>
   </trkpt>
   <trkpt lat="42.307990000000004" lon="1.58179">
    <ele>1494.94</ele>
   </trkpt>
   <trkpt lat="42.308080000000004" lon="1.5816500000000002">
    <ele>1495.0500000000002</ele>
   </trkpt>
   <trkpt lat="42.3085" lon="1.58163">
    <ele>1493.68</ele>
   </trkpt>
   <trkpt lat="42.30868" lon="1.58146">
    <ele>1492.8500000000001</ele>
   </trkpt>
   <trkpt lat="42.30877" lon="1.5814400000000002">
    <ele>1492.5700000000002</ele>
   </trkpt>
   <trkpt lat="42.308840000000004" lon="1.5815100000000002">
    <ele>1491.2900000000002</ele>
   </trkpt>
   <trkpt lat="42.308980000000005" lon="1.58193">
    <ele>1490.0300000000002</ele>
   </trkpt>
   <trkpt lat="42.30906" lon="1.58206">
    <ele>1489.0400000000002</ele>
   </trkpt>
   <trkpt lat="42.30932000000001" lon="1.5822800000000001">
    <ele>1485.92</ele>
   </trkpt>
   <trkpt lat="42.30935" lon="1.5823300000000002">
    <ele>1485.92</ele>
   </trkpt>
   <trkpt lat="42.309340000000006" lon="1.5826300000000002">
    <ele>1483.99</ele>
   </trkpt>
   <trkpt lat="42.309520000000006" lon="1.5829000000000002">
    <ele>1480.8000000000002</ele>
   </trkpt>
   <trkpt lat="42.30968" lon="1.5829000000000002">
    <ele>1479.88</ele>
   </trkpt>
   <trkpt lat="42.30984" lon="1.58305">
    <ele>1479.18</ele>
   </trkpt>
   <trkpt lat="42.30995" lon="1.5832100000000002">
    <ele>1479.4600000000003</ele>
   </trkpt>
   <trkpt lat="42.31004" lon="1.5836000000000001">
    <ele>1481.47</ele>
   </trkpt>
   <trkpt lat="42.31016" lon="1.5838100000000002">
    <ele>1482.04</ele>
   </trkpt>
   <trkpt lat="42.310140000000004" lon="1.5841">
    <ele>1482.4</ele>
   </trkpt>
   <trkpt lat="42.31011" lon="1.5842600000000002">
    <ele>1482.8400000000001</ele>
   </trkpt>
   <trkpt lat="42.31015" lon="1.58468">
    <ele>1482.8300000000002</ele>
   </trkpt>
   <trkpt lat="42.31027" lon="1.58488">
    <ele>1482.6000000000001</ele>
   </trkpt>
   <trkpt lat="42.3104" lon="1.5851700000000002">
    <ele>1481.6</ele>
   </trkpt>
   <trkpt lat="42.3104" lon="1.5852400000000002">
    <ele>1481.1900000000003</ele>
   </trkpt>
   <trkpt lat="42.31016" lon="1.5856700000000001">
    <ele>1477.18</ele>
   </trkpt>
   <trkpt lat="42.31029" lon="1.5860500000000002">
    <ele>1473.06</ele>
   </trkpt>
   <trkpt lat="42.31036" lon="1.5864">
    <ele>1468.17</ele>
   </trkpt>
   <trkpt lat="42.31074" lon="1.5873000000000002">
    <ele>1458.1000000000001</ele>
   </trkpt>
   <trkpt lat="42.31082000000001" lon="1.58739">
    <ele>1457.75</ele>
   </trkpt>
   <trkpt lat="42.310950000000005" lon="1.5874000000000001">
    <ele>1455.54</ele>
   </trkpt>
   <trkpt lat="42.31123" lon="1.58749">
    <ele>1454.26</ele>
   </trkpt>
   <trkpt lat="42.311460000000004" lon="1.58762">
    <ele>1452.69</ele>
   </trkpt>
   <trkpt lat="42.311510000000006" lon="1.58773">
    <ele>1452.46</ele>
   </trkpt>
   <trkpt lat="42.31159" lon="1.5877700000000001">
    <ele>1452.0900000000001</ele>
   </trkpt>
   <trkpt lat="42.31177" lon="1.5877700000000001">
    <ele>1451.47</ele>
   </trkpt>
   <trkpt lat="42.31188" lon="1.5876700000000001">
    <ele>1451.3500000000001</ele>
   </trkpt>
   <trkpt lat="42.31204" lon="1.5874700000000002">
    <ele>1451.38</ele>
   </trkpt>
   <trkpt lat="42.312180000000005" lon="1.5871400000000002">
    <ele>1452.35</ele>
   </trkpt>
   <trkpt lat="42.312290000000004" lon="1.5870300000000002">
    <ele>1452.9900000000002</ele>
   </trkpt>
   <trkpt lat="42.312785000016895" lon="1.5868700012888466">
    <ele>1453.0800000000002</ele>
   </trkpt>
   <trkpt lat="42.313280000000006" lon="1.58671">
    <ele>1450.88</ele>
   </trkpt>
   <trkpt lat="42.31345" lon="1.58675">
    <ele>1450.3000000000002</ele>
   </trkpt>
   <trkpt lat="42.313700000000004" lon="1.5869300000000002">
    <ele>1448.8899999999999</ele>
   </trkpt>
   <trkpt lat="42.314060000000005" lon="1.58701">
    <ele>1451.69</ele>
   </trkpt>
   <trkpt lat="42.31423" lon="1.5872000000000002">
    <ele>1453.47</ele>
   </trkpt>
   <trkpt lat="42.314310000000006" lon="1.5870600000000001">
    <ele>1454.6100000000001</ele>
   </trkpt>
  </trkseg>
 </trk>
</gpx>
