<?xml version="1.0" encoding="UTF-8"?>
<gpx creator="StravaGPX" version="1.1" xmlns="http://www.topografix.com/GPX/1/1" xmlns:xsi="http://www.w3.org/2001/XMLSchema-instance" xsi:schemaLocation="http://www.topografix.com/GPX/1/1 http://www.topografix.com/GPX/1/1/gpx.xsd">
 <metadata>
  <name>262</name>
  <author>
   <name>Marc Fargas Fargas</name>
   <link href="https://www.strava.com/athletes/59113394"/>
  </author>
  <copyright author="OpenStreetMap contributors">
   <year>2020</year>
   <license>https://www.openstreetmap.org/copyright</license>
  </copyright>
  <link href="https://www.strava.com/routes/3521850086907833708"/>
 </metadata>
 <trk>
  <name>262</name>
  <link href="https://www.strava.com/routes/3521850086907833708"/>
  <type>ebikeride</type>
  <trkseg>
   <trkpt lat="42.30655" lon="1.5447300000000002">
    <ele>1476.39</ele>
   </trkpt>
   <trkpt lat="42.30644" lon="1.5450700000000002">
    <ele>1475.3200000000002</ele>
   </trkpt>
   <trkpt lat="42.306020000039794" lon="1.5453300018917497">
    <ele>1478.3400000000001</ele>
   </trkpt>
   <trkpt lat="42.305600000000005" lon="1.54559">
    <ele>1485.8000000000002</ele>
   </trkpt>
   <trkpt lat="42.305510000000005" lon="1.54594">
    <ele>1480.55</ele>
   </trkpt>
   <trkpt lat="42.30523" lon="1.5462">
    <ele>1478.6000000000001</ele>
   </trkpt>
   <trkpt lat="42.30476" lon="1.5470000000000002">
    <ele>1467.96</ele>
   </trkpt>
   <trkpt lat="42.30429" lon="1.5472400000000002">
    <ele>1468.2700000000002</ele>
   </trkpt>
   <trkpt lat="42.304" lon="1.5473100000000002">
    <ele>1472.5100000000002</ele>
   </trkpt>
   <trkpt lat="42.304" lon="1.5477200000000002">
    <ele>1466.5100000000002</ele>
   </trkpt>
   <trkpt lat="42.30424" lon="1.5479900000000002">
    <ele>1455.42</ele>
   </trkpt>
   <trkpt lat="42.30451" lon="1.5488300000000002">
    <ele>1440.9900000000002</ele>
   </trkpt>
   <trkpt lat="42.304970000000004" lon="1.54906">
    <ele>1426.42</ele>
   </trkpt>
   <trkpt lat="42.305240000000005" lon="1.5498">
    <ele>1427.16</ele>
   </trkpt>
   <trkpt lat="42.30541" lon="1.5504200000000001">
    <ele>1429.7600000000002</ele>
   </trkpt>
   <trkpt lat="42.305670000000006" lon="1.5510300000000001">
    <ele>1430.96</ele>
   </trkpt>
   <trkpt lat="42.305530000000005" lon="1.55159">
    <ele>1431.3200000000002</ele>
   </trkpt>
   <trkpt lat="42.305020000000006" lon="1.55197">
    <ele>1427.5900000000001</ele>
   </trkpt>
   <trkpt lat="42.304790000000004" lon="1.5521800000000001">
    <ele>1424.89</ele>
   </trkpt>
   <trkpt lat="42.30496" lon="1.5526700000000002">
    <ele>1413.52</ele>
   </trkpt>
   <trkpt lat="42.30498" lon="1.5533400000000002">
    <ele>1400.06</ele>
   </trkpt>
   <trkpt lat="42.30454" lon="1.55386">
    <ele>1398.06</ele>
   </trkpt>
   <trkpt lat="42.30487" lon="1.5541600000000002">
    <ele>1394.8700000000001</ele>
   </trkpt>
   <trkpt lat="42.30547000000001" lon="1.55451">
    <ele>1391.66</ele>
   </trkpt>
   <trkpt lat="42.305670000000006" lon="1.5550400000000002">
    <ele>1393.6000000000001</ele>
   </trkpt>
   <trkpt lat="42.306000000000004" lon="1.55529">
    <ele>1389.8400000000001</ele>
   </trkpt>
   <trkpt lat="42.306200000000004" lon="1.5556400000000001">
    <ele>1389.2300000000002</ele>
   </trkpt>
   <trkpt lat="42.306580000000004" lon="1.55577">
    <ele>1384.03</ele>
   </trkpt>
   <trkpt lat="42.30689" lon="1.5562900000000002">
    <ele>1379.3200000000002</ele>
   </trkpt>
   <trkpt lat="42.306700000000006" lon="1.5570700000000002">
    <ele>1382.7600000000002</ele>
   </trkpt>
   <trkpt lat="42.30674000177353" lon="1.5577099995005055">
    <ele>1379.24</ele>
   </trkpt>
   <trkpt lat="42.30678" lon="1.5583500000000001">
    <ele>1374.48</ele>
   </trkpt>
   <trkpt lat="42.30653500182093" lon="1.558990002382076">
    <ele>1374.7600000000002</ele>
   </trkpt>
   <trkpt lat="42.306290000000004" lon="1.55963">
    <ele>1369.8300000000002</ele>
   </trkpt>
   <trkpt lat="42.30579" lon="1.55977">
    <ele>1369.25</ele>
   </trkpt>
   <trkpt lat="42.30528" lon="1.5604000000000002">
    <ele>1357.58</ele>
   </trkpt>
   <trkpt lat="42.30472" lon="1.5608600000000001">
    <ele>1356.09</ele>
   </trkpt>
   <trkpt lat="42.30425" lon="1.5612300000000001">
    <ele>1355.73</ele>
   </trkpt>
   <trkpt lat="42.304640000000006" lon="1.5615500000000002">
    <ele>1347.7400000000002</ele>
   </trkpt>
   <trkpt lat="42.30507" lon="1.5613400000000002">
    <ele>1342.3700000000001</ele>
   </trkpt>
   <trkpt lat="42.30519" lon="1.5618800000000002">
    <ele>1335.42</ele>
   </trkpt>
   <trkpt lat="42.30579" lon="1.5620800000000001">
    <ele>1322.75</ele>
   </trkpt>
   <trkpt lat="42.306470000000004" lon="1.5622300000000002">
    <ele>1314.5300000000002</ele>
   </trkpt>
   <trkpt lat="42.30709" lon="1.56302">
    <ele>1310.1299999999999</ele>
   </trkpt>
   <trkpt lat="42.30767" lon="1.56325">
    <ele>1303.05</ele>
   </trkpt>
   <trkpt lat="42.30818500009441" lon="1.5634299985111817">
    <ele>1294.44</ele>
   </trkpt>
   <trkpt lat="42.3087" lon="1.5636100000000002">
    <ele>1285.44</ele>
   </trkpt>
   <trkpt lat="42.30930500016863" lon="1.5634050019750412">
    <ele>1272.67</ele>
   </trkpt>
   <trkpt lat="42.30991" lon="1.5632000000000001">
    <ele>1262.76</ele>
   </trkpt>
   <trkpt lat="42.3106" lon="1.5634700000000001">
    <ele>1252.52</ele>
   </trkpt>
   <trkpt lat="42.31058" lon="1.56404">
    <ele>1256.3300000000002</ele>
   </trkpt>
   <trkpt lat="42.311080000000004" lon="1.56386">
    <ele>1258.0900000000001</ele>
   </trkpt>
   <trkpt lat="42.31152" lon="1.5634700000000001">
    <ele>1255.5200000000002</ele>
   </trkpt>
  </trkseg>
 </trk>
</gpx>
