<?xml version="1.0" encoding="UTF-8"?>
<gpx creator="StravaGPX" version="1.1" xmlns="http://www.topografix.com/GPX/1/1" xmlns:xsi="http://www.w3.org/2001/XMLSchema-instance" xsi:schemaLocation="http://www.topografix.com/GPX/1/1 http://www.topografix.com/GPX/1/1/gpx.xsd">
 <metadata>
  <name>263</name>
  <author>
   <name>Marc Fargas Fargas</name>
   <link href="https://www.strava.com/athletes/59113394"/>
  </author>
  <copyright author="OpenStreetMap contributors">
   <year>2020</year>
   <license>https://www.openstreetmap.org/copyright</license>
  </copyright>
  <link href="https://www.strava.com/routes/3521850086907833708"/>
 </metadata>
 <trk>
  <name>263</name>
  <link href="https://www.strava.com/routes/3521850086907833708"/>
  <type>ebikeride</type>
  <trkseg>
   <trkpt lat="42.31423" lon="1.5872000000000002">
    <ele>1453.47</ele>
   </trkpt>
   <trkpt lat="42.314330000000005" lon="1.5870400000000002">
    <ele>1454.7</ele>
   </trkpt>
   <trkpt lat="42.314550000000004" lon="1.58692">
    <ele>1456.32</ele>
   </trkpt>
   <trkpt lat="42.31483" lon="1.5867300000000002">
    <ele>1459.6200000000001</ele>
   </trkpt>
   <trkpt lat="42.3155" lon="1.5863800000000001">
    <ele>1464.47</ele>
   </trkpt>
   <trkpt lat="42.31570000000001" lon="1.5863300000000002">
    <ele>1464.8500000000001</ele>
   </trkpt>
   <trkpt lat="42.31595" lon="1.5863300000000002">
    <ele>1465.5600000000002</ele>
   </trkpt>
   <trkpt lat="42.316320000000005" lon="1.5861600000000002">
    <ele>1468.11</ele>
   </trkpt>
   <trkpt lat="42.31669" lon="1.5860800000000002">
    <ele>1471.77</ele>
   </trkpt>
   <trkpt lat="42.316860000000005" lon="1.5861500000000002">
    <ele>1472.76</ele>
   </trkpt>
   <trkpt lat="42.317330000000005" lon="1.5862600000000002">
    <ele>1474.52</ele>
   </trkpt>
   <trkpt lat="42.31743" lon="1.5862500000000002">
    <ele>1474.52</ele>
   </trkpt>
   <trkpt lat="42.31786" lon="1.5863300000000002">
    <ele>1475.81</ele>
   </trkpt>
   <trkpt lat="42.31759" lon="1.5862">
    <ele>1472.0900000000001</ele>
   </trkpt>
   <trkpt lat="42.31729000000001" lon="1.5861200000000002">
    <ele>1466.42</ele>
   </trkpt>
   <trkpt lat="42.31723" lon="1.58613">
    <ele>1465.1900000000003</ele>
   </trkpt>
   <trkpt lat="42.31703" lon="1.586">
    <ele>1462.99</ele>
   </trkpt>
   <trkpt lat="42.316930000000006" lon="1.5859900000000002">
    <ele>1462.63</ele>
   </trkpt>
   <trkpt lat="42.316860000000005" lon="1.5859200000000002">
    <ele>1461.63</ele>
   </trkpt>
   <trkpt lat="42.31678" lon="1.5858">
    <ele>1460.1200000000001</ele>
   </trkpt>
   <trkpt lat="42.31655000000001" lon="1.5857">
    <ele>1458.65</ele>
   </trkpt>
   <trkpt lat="42.316250000000004" lon="1.58579">
    <ele>1455.03</ele>
   </trkpt>
   <trkpt lat="42.31613" lon="1.5858">
    <ele>1451.93</ele>
   </trkpt>
   <trkpt lat="42.315990000000006" lon="1.58586">
    <ele>1449.1000000000001</ele>
   </trkpt>
   <trkpt lat="42.31591" lon="1.5858500000000002">
    <ele>1447.5600000000002</ele>
   </trkpt>
   <trkpt lat="42.31582" lon="1.5857500000000002">
    <ele>1446.35</ele>
   </trkpt>
   <trkpt lat="42.31570000000001" lon="1.5854800000000002">
    <ele>1443.74</ele>
   </trkpt>
   <trkpt lat="42.31562" lon="1.5853400000000002">
    <ele>1440.14</ele>
   </trkpt>
   <trkpt lat="42.315540000000006" lon="1.5852600000000001">
    <ele>1440.14</ele>
   </trkpt>
   <trkpt lat="42.31541" lon="1.5852000000000002">
    <ele>1437.04</ele>
   </trkpt>
   <trkpt lat="42.31512" lon="1.58515">
    <ele>1431.92</ele>
   </trkpt>
   <trkpt lat="42.31505000000001" lon="1.58509">
    <ele>1431.0200000000002</ele>
   </trkpt>
   <trkpt lat="42.315000000000005" lon="1.5849300000000002">
    <ele>1426.0900000000001</ele>
   </trkpt>
   <trkpt lat="42.314980000000006" lon="1.5847000000000002">
    <ele>1423.31</ele>
   </trkpt>
   <trkpt lat="42.31485000000001" lon="1.5843900000000002">
    <ele>1416.9</ele>
   </trkpt>
   <trkpt lat="42.314820000000005" lon="1.5843500000000001">
    <ele>1415.48</ele>
   </trkpt>
   <trkpt lat="42.314730000000004" lon="1.5843200000000002">
    <ele>1413.37</ele>
   </trkpt>
   <trkpt lat="42.31466" lon="1.5842500000000002">
    <ele>1412.6100000000001</ele>
   </trkpt>
   <trkpt lat="42.314640000000004" lon="1.5840900000000002">
    <ele>1410.43</ele>
   </trkpt>
   <trkpt lat="42.31461" lon="1.58403">
    <ele>1409.5700000000002</ele>
   </trkpt>
   <trkpt lat="42.31454" lon="1.5839800000000002">
    <ele>1406.76</ele>
   </trkpt>
   <trkpt lat="42.314490000000006" lon="1.5838400000000001">
    <ele>1405.8799999999999</ele>
   </trkpt>
   <trkpt lat="42.314440000000005" lon="1.5837700000000001">
    <ele>1404.22</ele>
   </trkpt>
   <trkpt lat="42.31414" lon="1.58346">
    <ele>1396.8100000000002</ele>
   </trkpt>
   <trkpt lat="42.31414" lon="1.58345">
    <ele>1396.32</ele>
   </trkpt>
   <trkpt lat="42.31411000000001" lon="1.5834100000000002">
    <ele>1396.32</ele>
   </trkpt>
   <trkpt lat="42.3141" lon="1.58332">
    <ele>1393.5600000000002</ele>
   </trkpt>
   <trkpt lat="42.314150000000005" lon="1.5829400000000002">
    <ele>1388.3100000000002</ele>
   </trkpt>
   <trkpt lat="42.31423" lon="1.58275">
    <ele>1388.3100000000002</ele>
   </trkpt>
   <trkpt lat="42.314220000000006" lon="1.58261">
    <ele>1378.88</ele>
   </trkpt>
   <trkpt lat="42.314020000000006" lon="1.58207">
    <ele>1370.1100000000001</ele>
   </trkpt>
   <trkpt lat="42.31398" lon="1.582">
    <ele>1369.31</ele>
   </trkpt>
   <trkpt lat="42.313900000000004" lon="1.58197">
    <ele>1367.89</ele>
   </trkpt>
   <trkpt lat="42.313770000000005" lon="1.5818">
    <ele>1365.2600000000002</ele>
   </trkpt>
   <trkpt lat="42.31373000000001" lon="1.58179">
    <ele>1364.53</ele>
   </trkpt>
   <trkpt lat="42.31363" lon="1.5818100000000002">
    <ele>1362.06</ele>
   </trkpt>
   <trkpt lat="42.313550000000006" lon="1.58186">
    <ele>1361.2900000000002</ele>
   </trkpt>
   <trkpt lat="42.313480000000006" lon="1.5819400000000001">
    <ele>1359.93</ele>
   </trkpt>
   <trkpt lat="42.313370000000006" lon="1.5818200000000002">
    <ele>1358.2900000000002</ele>
   </trkpt>
   <trkpt lat="42.31335000000001" lon="1.58149">
    <ele>1355.5400000000002</ele>
   </trkpt>
   <trkpt lat="42.31329" lon="1.58145">
    <ele>1353.6100000000001</ele>
   </trkpt>
   <trkpt lat="42.31316" lon="1.58152">
    <ele>1352.4600000000003</ele>
   </trkpt>
   <trkpt lat="42.313050000000004" lon="1.5816500000000002">
    <ele>1352.57</ele>
   </trkpt>
   <trkpt lat="42.31298" lon="1.58166">
    <ele>1352.97</ele>
   </trkpt>
   <trkpt lat="42.31298" lon="1.5815500000000002">
    <ele>1352.97</ele>
   </trkpt>
   <trkpt lat="42.312920000000005" lon="1.58142">
    <ele>1352.8300000000002</ele>
   </trkpt>
   <trkpt lat="42.31289" lon="1.5812400000000002">
    <ele>1352.71</ele>
   </trkpt>
   <trkpt lat="42.31289" lon="1.5811100000000002">
    <ele>1352.0100000000002</ele>
   </trkpt>
   <trkpt lat="42.312990000000006" lon="1.58057">
    <ele>1347.6000000000001</ele>
   </trkpt>
   <trkpt lat="42.313" lon="1.5803800000000001">
    <ele>1347.15</ele>
   </trkpt>
   <trkpt lat="42.31298" lon="1.5801500000000002">
    <ele>1344.84</ele>
   </trkpt>
   <trkpt lat="42.312870000000004" lon="1.5801">
    <ele>1345.02</ele>
   </trkpt>
   <trkpt lat="42.312830000000005" lon="1.5800200000000002">
    <ele>1345.42</ele>
   </trkpt>
   <trkpt lat="42.31282" lon="1.5799500000000002">
    <ele>1345.8000000000002</ele>
   </trkpt>
   <trkpt lat="42.31289" lon="1.5796700000000001">
    <ele>1348.8500000000001</ele>
   </trkpt>
   <trkpt lat="42.31304" lon="1.57946">
    <ele>1351.97</ele>
   </trkpt>
   <trkpt lat="42.31306" lon="1.5794100000000002">
    <ele>1351.97</ele>
   </trkpt>
   <trkpt lat="42.313120000000005" lon="1.5790400000000002">
    <ele>1356.8600000000001</ele>
   </trkpt>
   <trkpt lat="42.31311" lon="1.5789700000000002">
    <ele>1358.19</ele>
   </trkpt>
   <trkpt lat="42.313030000000005" lon="1.57875">
    <ele>1360.48</ele>
   </trkpt>
   <trkpt lat="42.313030000000005" lon="1.5781800000000001">
    <ele>1363.9</ele>
   </trkpt>
   <trkpt lat="42.313" lon="1.5780500000000002">
    <ele>1365.58</ele>
   </trkpt>
   <trkpt lat="42.312900000000006" lon="1.57787">
    <ele>1368.46</ele>
   </trkpt>
   <trkpt lat="42.31286" lon="1.57769">
    <ele>1369.79</ele>
   </trkpt>
   <trkpt lat="42.312740000000005" lon="1.5773800000000002">
    <ele>1373.65</ele>
   </trkpt>
   <trkpt lat="42.312740000000005" lon="1.5773300000000001">
    <ele>1373.65</ele>
   </trkpt>
   <trkpt lat="42.312740000000005" lon="1.5773100000000002">
    <ele>1373.89</ele>
   </trkpt>
   <trkpt lat="42.312760000000004" lon="1.5772000000000002">
    <ele>1375.0900000000001</ele>
   </trkpt>
   <trkpt lat="42.312920000000005" lon="1.5769400000000002">
    <ele>1377.64</ele>
   </trkpt>
   <trkpt lat="42.312960000000004" lon="1.5768300000000002">
    <ele>1378.12</ele>
   </trkpt>
   <trkpt lat="42.313010000000006" lon="1.57661">
    <ele>1378.77</ele>
   </trkpt>
   <trkpt lat="42.31302" lon="1.5764300000000002">
    <ele>1378.8100000000002</ele>
   </trkpt>
   <trkpt lat="42.31284" lon="1.5757200000000002">
    <ele>1382.56</ele>
   </trkpt>
   <trkpt lat="42.31273" lon="1.5751400000000002">
    <ele>1390.21</ele>
   </trkpt>
   <trkpt lat="42.31277" lon="1.5747200000000001">
    <ele>1390.97</ele>
   </trkpt>
   <trkpt lat="42.312760000000004" lon="1.5746300000000002">
    <ele>1390.8700000000001</ele>
   </trkpt>
   <trkpt lat="42.312720000000006" lon="1.57454">
    <ele>1390.8200000000002</ele>
   </trkpt>
   <trkpt lat="42.31257" lon="1.57437">
    <ele>1391.3300000000002</ele>
   </trkpt>
   <trkpt lat="42.312200000000004" lon="1.57404">
    <ele>1393.46</ele>
   </trkpt>
   <trkpt lat="42.31215" lon="1.57396">
    <ele>1393.52</ele>
   </trkpt>
   <trkpt lat="42.31213" lon="1.57387">
    <ele>1393.45</ele>
   </trkpt>
   <trkpt lat="42.312360000000005" lon="1.5731000000000002">
    <ele>1394.5900000000001</ele>
   </trkpt>
   <trkpt lat="42.31244" lon="1.5725300000000002">
    <ele>1400.23</ele>
   </trkpt>
   <trkpt lat="42.31244" lon="1.5724300000000002">
    <ele>1401.2000000000003</ele>
   </trkpt>
   <trkpt lat="42.31241000000001" lon="1.57227">
    <ele>1401.8400000000001</ele>
   </trkpt>
   <trkpt lat="42.31232000000001" lon="1.57203">
    <ele>1403.52</ele>
   </trkpt>
   <trkpt lat="42.312310000000004" lon="1.5719400000000001">
    <ele>1404.0400000000002</ele>
   </trkpt>
   <trkpt lat="42.312340000000006" lon="1.5717700000000001">
    <ele>1406.1100000000001</ele>
   </trkpt>
   <trkpt lat="42.312490000000004" lon="1.5714500000000002">
    <ele>1414.6900000000003</ele>
   </trkpt>
   <trkpt lat="42.31268" lon="1.5713300000000001">
    <ele>1417.45</ele>
   </trkpt>
   <trkpt lat="42.31279000000001" lon="1.5711600000000001">
    <ele>1419.5700000000002</ele>
   </trkpt>
   <trkpt lat="42.31304" lon="1.5705900000000002">
    <ele>1429.63</ele>
   </trkpt>
   <trkpt lat="42.313050000000004" lon="1.5704600000000002">
    <ele>1433.1100000000001</ele>
   </trkpt>
   <trkpt lat="42.313" lon="1.5701600000000002">
    <ele>1436.18</ele>
   </trkpt>
   <trkpt lat="42.313010000000006" lon="1.57">
    <ele>1434.8200000000002</ele>
   </trkpt>
   <trkpt lat="42.313120000000005" lon="1.5695700000000001">
    <ele>1428.91</ele>
   </trkpt>
   <trkpt lat="42.313250000000004" lon="1.56922">
    <ele>1424.3100000000002</ele>
   </trkpt>
   <trkpt lat="42.31329" lon="1.5690300000000001">
    <ele>1420.2400000000002</ele>
   </trkpt>
   <trkpt lat="42.313280000000006" lon="1.5689400000000002">
    <ele>1420.2400000000002</ele>
   </trkpt>
   <trkpt lat="42.313190000000006" lon="1.56875">
    <ele>1414.5100000000002</ele>
   </trkpt>
   <trkpt lat="42.31304" lon="1.5687000000000002">
    <ele>1409.52</ele>
   </trkpt>
   <trkpt lat="42.313" lon="1.5686600000000002">
    <ele>1409.52</ele>
   </trkpt>
   <trkpt lat="42.313010000000006" lon="1.56861">
    <ele>1409.52</ele>
   </trkpt>
   <trkpt lat="42.31315" lon="1.5683500000000001">
    <ele>1402.18</ele>
   </trkpt>
   <trkpt lat="42.31333" lon="1.5677800000000002">
    <ele>1393.3600000000001</ele>
   </trkpt>
   <trkpt lat="42.313390000000005" lon="1.5676500000000002">
    <ele>1388.91</ele>
   </trkpt>
   <trkpt lat="42.313430000000004" lon="1.56746">
    <ele>1388.91</ele>
   </trkpt>
   <trkpt lat="42.31367" lon="1.56692">
    <ele>1376.23</ele>
   </trkpt>
   <trkpt lat="42.31383" lon="1.56648">
    <ele>1360.4</ele>
   </trkpt>
   <trkpt lat="42.313840000000006" lon="1.5663900000000002">
    <ele>1357.92</ele>
   </trkpt>
   <trkpt lat="42.313810000000004" lon="1.5663500000000001">
    <ele>1356.14</ele>
   </trkpt>
   <trkpt lat="42.31374" lon="1.5663300000000002">
    <ele>1353.6000000000001</ele>
   </trkpt>
   <trkpt lat="42.31369" lon="1.5662900000000002">
    <ele>1353.6000000000001</ele>
   </trkpt>
   <trkpt lat="42.31367" lon="1.5662300000000002">
    <ele>1353.6000000000001</ele>
   </trkpt>
   <trkpt lat="42.313700000000004" lon="1.5660800000000001">
    <ele>1346.7900000000002</ele>
   </trkpt>
   <trkpt lat="42.313660000000006" lon="1.56587">
    <ele>1342.41</ele>
   </trkpt>
   <trkpt lat="42.31367" lon="1.56573">
    <ele>1341.2</ele>
   </trkpt>
   <trkpt lat="42.31372" lon="1.56552">
    <ele>1335.68</ele>
   </trkpt>
   <trkpt lat="42.313700000000004" lon="1.56542">
    <ele>1334.43</ele>
   </trkpt>
   <trkpt lat="42.31365" lon="1.5653700000000002">
    <ele>1333.32</ele>
   </trkpt>
   <trkpt lat="42.313550000000006" lon="1.56539">
    <ele>1330.1900000000003</ele>
   </trkpt>
   <trkpt lat="42.3134" lon="1.56552">
    <ele>1325.53</ele>
   </trkpt>
   <trkpt lat="42.313320000000004" lon="1.56553">
    <ele>1324.5</ele>
   </trkpt>
   <trkpt lat="42.31295" lon="1.5653700000000002">
    <ele>1314.27</ele>
   </trkpt>
   <trkpt lat="42.312870000000004" lon="1.5653100000000002">
    <ele>1312.33</ele>
   </trkpt>
   <trkpt lat="42.31269" lon="1.5650600000000001">
    <ele>1309.26</ele>
   </trkpt>
   <trkpt lat="42.31244" lon="1.5644600000000002">
    <ele>1302.9400000000003</ele>
   </trkpt>
   <trkpt lat="42.31241000000001" lon="1.5642500000000001">
    <ele>1299.0400000000002</ele>
   </trkpt>
   <trkpt lat="42.312380000000005" lon="1.5641800000000001">
    <ele>1299.0400000000002</ele>
   </trkpt>
   <trkpt lat="42.312250000000006" lon="1.56403">
    <ele>1293.66</ele>
   </trkpt>
   <trkpt lat="42.31214000000001" lon="1.5639600000000002">
    <ele>1288.8300000000002</ele>
   </trkpt>
   <trkpt lat="42.31195" lon="1.5638800000000002">
    <ele>1284.13</ele>
   </trkpt>
   <trkpt lat="42.31175" lon="1.5639200000000002">
    <ele>1279.13</ele>
   </trkpt>
   <trkpt lat="42.311690000000006" lon="1.5639">
    <ele>1277.93</ele>
   </trkpt>
   <trkpt lat="42.31154" lon="1.56376">
    <ele>1273.26</ele>
   </trkpt>
   <trkpt lat="42.311490000000006" lon="1.56369">
    <ele>1267.32</ele>
   </trkpt>
   <trkpt lat="42.31147" lon="1.5636100000000002">
    <ele>1265.47</ele>
   </trkpt>
   <trkpt lat="42.31148" lon="1.56353">
    <ele>1263.77</ele>
   </trkpt>
   <trkpt lat="42.311800000000005" lon="1.56305">
    <ele>1247.8400000000001</ele>
   </trkpt>
  </trkseg>
 </trk>
</gpx>
