<?xml version="1.0" encoding="UTF-8"?>
<gpx creator="StravaGPX" version="1.1" xmlns="http://www.topografix.com/GPX/1/1" xmlns:xsi="http://www.w3.org/2001/XMLSchema-instance" xsi:schemaLocation="http://www.topografix.com/GPX/1/1 http://www.topografix.com/GPX/1/1/gpx.xsd">
 <metadata>
  <name>264</name>
  <author>
   <name>Marc Fargas Fargas</name>
   <link href="https://www.strava.com/athletes/59113394"/>
  </author>
  <copyright author="OpenStreetMap contributors">
   <year>2020</year>
   <license>https://www.openstreetmap.org/copyright</license>
  </copyright>
  <link href="https://www.strava.com/routes/3521850086907833708"/>
 </metadata>
 <trk>
  <name>264</name>
  <link href="https://www.strava.com/routes/3521850086907833708"/>
  <type>ebikeride</type>
  <trkseg>
   <trkpt lat="42.311800000000005" lon="1.56305">
    <ele>1247.8400000000001</ele>
   </trkpt>
   <trkpt lat="42.31188" lon="1.5630100000000002">
    <ele>1247.5900000000001</ele>
   </trkpt>
   <trkpt lat="42.31221" lon="1.5629300000000002">
    <ele>1247.0100000000002</ele>
   </trkpt>
   <trkpt lat="42.31232000000001" lon="1.5628400000000002">
    <ele>1245.7900000000002</ele>
   </trkpt>
   <trkpt lat="42.312430000000006" lon="1.5627000000000002">
    <ele>1245.23</ele>
   </trkpt>
   <trkpt lat="42.31262" lon="1.5619800000000001">
    <ele>1238.88</ele>
   </trkpt>
   <trkpt lat="42.31270000000001" lon="1.5618900000000002">
    <ele>1237.84</ele>
   </trkpt>
   <trkpt lat="42.31279000000001" lon="1.5617100000000002">
    <ele>1235.57</ele>
   </trkpt>
   <trkpt lat="42.31288000000001" lon="1.5616100000000002">
    <ele>1234.63</ele>
   </trkpt>
   <trkpt lat="42.31297" lon="1.5616">
    <ele>1234.24</ele>
   </trkpt>
   <trkpt lat="42.313" lon="1.56152">
    <ele>1233.5</ele>
   </trkpt>
   <trkpt lat="42.31298" lon="1.5614800000000002">
    <ele>1233.09</ele>
   </trkpt>
   <trkpt lat="42.31289" lon="1.56146">
    <ele>1232.0900000000001</ele>
   </trkpt>
   <trkpt lat="42.3128" lon="1.56149">
    <ele>1230.21</ele>
   </trkpt>
   <trkpt lat="42.312630000000006" lon="1.56159">
    <ele>1228.55</ele>
   </trkpt>
   <trkpt lat="42.31257" lon="1.56156">
    <ele>1227.21</ele>
   </trkpt>
   <trkpt lat="42.31259" lon="1.5615">
    <ele>1227.21</ele>
   </trkpt>
   <trkpt lat="42.31273" lon="1.5613800000000002">
    <ele>1224.7</ele>
   </trkpt>
   <trkpt lat="42.31298" lon="1.5611000000000002">
    <ele>1222.69</ele>
   </trkpt>
   <trkpt lat="42.31327" lon="1.5609700000000002">
    <ele>1219.51</ele>
   </trkpt>
   <trkpt lat="42.31364000000001" lon="1.56095">
    <ele>1218.8300000000002</ele>
   </trkpt>
   <trkpt lat="42.313770000000005" lon="1.5609600000000001">
    <ele>1214.4099999999999</ele>
   </trkpt>
   <trkpt lat="42.31418" lon="1.5612400000000002">
    <ele>1212.04</ele>
   </trkpt>
   <trkpt lat="42.31432" lon="1.5614500000000002">
    <ele>1211.3100000000002</ele>
   </trkpt>
   <trkpt lat="42.314370000000004" lon="1.5615800000000002">
    <ele>1209.27</ele>
   </trkpt>
   <trkpt lat="42.31441" lon="1.5615700000000001">
    <ele>1209.27</ele>
   </trkpt>
   <trkpt lat="42.31441" lon="1.56149">
    <ele>1209.27</ele>
   </trkpt>
   <trkpt lat="42.314330000000005" lon="1.5612400000000002">
    <ele>1206.22</ele>
   </trkpt>
   <trkpt lat="42.314150000000005" lon="1.56092">
    <ele>1203.4900000000002</ele>
   </trkpt>
   <trkpt lat="42.314130000000006" lon="1.56082">
    <ele>1203.4900000000002</ele>
   </trkpt>
   <trkpt lat="42.31418" lon="1.5608300000000002">
    <ele>1202.99</ele>
   </trkpt>
   <trkpt lat="42.314550000000004" lon="1.5611800000000002">
    <ele>1199.5800000000002</ele>
   </trkpt>
   <trkpt lat="42.314690000000006" lon="1.5614800000000002">
    <ele>1199.5600000000002</ele>
   </trkpt>
   <trkpt lat="42.314980000000006" lon="1.56173">
    <ele>1203.43</ele>
   </trkpt>
   <trkpt lat="42.31501" lon="1.5620900000000002">
    <ele>1205.45</ele>
   </trkpt>
   <trkpt lat="42.3151" lon="1.5621600000000002">
    <ele>1205.8500000000001</ele>
   </trkpt>
   <trkpt lat="42.31519" lon="1.56213">
    <ele>1206.31</ele>
   </trkpt>
   <trkpt lat="42.31532000000001" lon="1.5620200000000002">
    <ele>1207.3700000000001</ele>
   </trkpt>
   <trkpt lat="42.31557" lon="1.5618800000000002">
    <ele>1208.4</ele>
   </trkpt>
   <trkpt lat="42.31577" lon="1.56173">
    <ele>1208.99</ele>
   </trkpt>
   <trkpt lat="42.316010000000006" lon="1.5612800000000002">
    <ele>1209.3400000000001</ele>
   </trkpt>
   <trkpt lat="42.316190000000006" lon="1.5610700000000002">
    <ele>1209.15</ele>
   </trkpt>
   <trkpt lat="42.31627" lon="1.56089">
    <ele>1208.8500000000001</ele>
   </trkpt>
   <trkpt lat="42.31633" lon="1.5603200000000002">
    <ele>1206.69</ele>
   </trkpt>
   <trkpt lat="42.316430000000004" lon="1.5598500000000002">
    <ele>1205.92</ele>
   </trkpt>
   <trkpt lat="42.31647" lon="1.55963">
    <ele>1205.2900000000002</ele>
   </trkpt>
   <trkpt lat="42.31644" lon="1.55952">
    <ele>1204.63</ele>
   </trkpt>
   <trkpt lat="42.316370000000006" lon="1.55902">
    <ele>1204.6499999999999</ele>
   </trkpt>
   <trkpt lat="42.31644" lon="1.55899">
    <ele>1204.6499999999999</ele>
   </trkpt>
   <trkpt lat="42.31685" lon="1.5594500000000002">
    <ele>1207.2900000000002</ele>
   </trkpt>
   <trkpt lat="42.316970000000005" lon="1.5597500000000002">
    <ele>1210.0900000000001</ele>
   </trkpt>
   <trkpt lat="42.31701" lon="1.5599900000000002">
    <ele>1211.0</ele>
   </trkpt>
   <trkpt lat="42.317080000000004" lon="1.56024">
    <ele>1213.51</ele>
   </trkpt>
   <trkpt lat="42.31718" lon="1.5604000000000002">
    <ele>1214.49</ele>
   </trkpt>
   <trkpt lat="42.31757" lon="1.5605200000000001">
    <ele>1220.15</ele>
   </trkpt>
   <trkpt lat="42.3177" lon="1.56054">
    <ele>1220.7700000000002</ele>
   </trkpt>
   <trkpt lat="42.31794" lon="1.5604600000000002">
    <ele>1225.3100000000002</ele>
   </trkpt>
   <trkpt lat="42.31821" lon="1.5606700000000002">
    <ele>1228.01</ele>
   </trkpt>
   <trkpt lat="42.31848" lon="1.5608000000000002">
    <ele>1230.2600000000002</ele>
   </trkpt>
   <trkpt lat="42.31875" lon="1.5608400000000002">
    <ele>1234.39</ele>
   </trkpt>
   <trkpt lat="42.31889" lon="1.5610000000000002">
    <ele>1235.3</ele>
   </trkpt>
   <trkpt lat="42.31906" lon="1.5610100000000002">
    <ele>1237.7</ele>
   </trkpt>
   <trkpt lat="42.319370000000006" lon="1.5608300000000002">
    <ele>1242.6200000000001</ele>
   </trkpt>
   <trkpt lat="42.31951" lon="1.56065">
    <ele>1243.7900000000002</ele>
   </trkpt>
   <trkpt lat="42.319810000000004" lon="1.5606300000000002">
    <ele>1247.5800000000002</ele>
   </trkpt>
   <trkpt lat="42.320460000000004" lon="1.5604500000000001">
    <ele>1253.5900000000001</ele>
   </trkpt>
   <trkpt lat="42.32088" lon="1.5605600000000002">
    <ele>1258.15</ele>
   </trkpt>
   <trkpt lat="42.32106" lon="1.56055">
    <ele>1259.6000000000001</ele>
   </trkpt>
   <trkpt lat="42.321200000000005" lon="1.5603600000000002">
    <ele>1262.5600000000002</ele>
   </trkpt>
   <trkpt lat="42.321360000000006" lon="1.5598400000000001">
    <ele>1266.24</ele>
   </trkpt>
   <trkpt lat="42.32153" lon="1.5595700000000001">
    <ele>1268.2300000000002</ele>
   </trkpt>
   <trkpt lat="42.32177" lon="1.5593500000000002">
    <ele>1269.12</ele>
   </trkpt>
   <trkpt lat="42.322070000000004" lon="1.5592700000000002">
    <ele>1270.94</ele>
   </trkpt>
   <trkpt lat="42.322230000000005" lon="1.5591700000000002">
    <ele>1272.48</ele>
   </trkpt>
   <trkpt lat="42.32233" lon="1.55898">
    <ele>1273.3500000000001</ele>
   </trkpt>
   <trkpt lat="42.322430000000004" lon="1.55864">
    <ele>1275.59</ele>
   </trkpt>
   <trkpt lat="42.32258" lon="1.55827">
    <ele>1278.7700000000002</ele>
   </trkpt>
   <trkpt lat="42.322630000000004" lon="1.5580600000000002">
    <ele>1279.93</ele>
   </trkpt>
   <trkpt lat="42.32269" lon="1.55794">
    <ele>1280.42</ele>
   </trkpt>
   <trkpt lat="42.322810000000004" lon="1.5579100000000001">
    <ele>1280.8700000000001</ele>
   </trkpt>
   <trkpt lat="42.322880000000005" lon="1.55787">
    <ele>1280.8700000000001</ele>
   </trkpt>
   <trkpt lat="42.32293000000001" lon="1.5576400000000001">
    <ele>1281.32</ele>
   </trkpt>
   <trkpt lat="42.322990000000004" lon="1.55759">
    <ele>1281.3700000000001</ele>
   </trkpt>
   <trkpt lat="42.323170000000005" lon="1.5576500000000002">
    <ele>1281.3300000000002</ele>
   </trkpt>
   <trkpt lat="42.323330000000006" lon="1.5575700000000001">
    <ele>1281.41</ele>
   </trkpt>
   <trkpt lat="42.323530000000005" lon="1.5575700000000001">
    <ele>1281.66</ele>
   </trkpt>
   <trkpt lat="42.32385" lon="1.5574000000000001">
    <ele>1281.94</ele>
   </trkpt>
   <trkpt lat="42.32396000000001" lon="1.55719">
    <ele>1282.25</ele>
   </trkpt>
   <trkpt lat="42.32406" lon="1.55716">
    <ele>1282.41</ele>
   </trkpt>
   <trkpt lat="42.324250000000006" lon="1.55726">
    <ele>1282.3600000000001</ele>
   </trkpt>
   <trkpt lat="42.324510000000004" lon="1.55719">
    <ele>1282.5900000000001</ele>
   </trkpt>
   <trkpt lat="42.32471" lon="1.5570700000000002">
    <ele>1282.6399999999999</ele>
   </trkpt>
   <trkpt lat="42.32506" lon="1.5571100000000002">
    <ele>1282.61</ele>
   </trkpt>
   <trkpt lat="42.325540000000004" lon="1.55722">
    <ele>1282.43</ele>
   </trkpt>
   <trkpt lat="42.32564" lon="1.5571300000000001">
    <ele>1282.5600000000002</ele>
   </trkpt>
   <trkpt lat="42.32582" lon="1.5568300000000002">
    <ele>1283.3300000000002</ele>
   </trkpt>
   <trkpt lat="42.326" lon="1.55638">
    <ele>1284.72</ele>
   </trkpt>
   <trkpt lat="42.326040000000006" lon="1.5561200000000002">
    <ele>1286.99</ele>
   </trkpt>
   <trkpt lat="42.32612" lon="1.55597">
    <ele>1286.99</ele>
   </trkpt>
   <trkpt lat="42.32659" lon="1.5556200000000002">
    <ele>1291.91</ele>
   </trkpt>
   <trkpt lat="42.326820000000005" lon="1.5555100000000002">
    <ele>1293.22</ele>
   </trkpt>
   <trkpt lat="42.32694" lon="1.55549">
    <ele>1293.22</ele>
   </trkpt>
   <trkpt lat="42.327070000000006" lon="1.55542">
    <ele>1294.38</ele>
   </trkpt>
   <trkpt lat="42.32732" lon="1.55515">
    <ele>1295.5500000000002</ele>
   </trkpt>
   <trkpt lat="42.32752000000001" lon="1.55492">
    <ele>1295.66</ele>
   </trkpt>
   <trkpt lat="42.327600000000004" lon="1.55471">
    <ele>1295.53</ele>
   </trkpt>
   <trkpt lat="42.32782" lon="1.55455">
    <ele>1295.4</ele>
   </trkpt>
   <trkpt lat="42.327960000000004" lon="1.5543000000000002">
    <ele>1295.5400000000002</ele>
   </trkpt>
   <trkpt lat="42.328070000000004" lon="1.5539600000000002">
    <ele>1296.1</ele>
   </trkpt>
   <trkpt lat="42.328120000000006" lon="1.5536800000000002">
    <ele>1296.5900000000001</ele>
   </trkpt>
   <trkpt lat="42.32813" lon="1.5534700000000001">
    <ele>1296.93</ele>
   </trkpt>
   <trkpt lat="42.328300000000006" lon="1.5533100000000002">
    <ele>1297.0400000000002</ele>
   </trkpt>
   <trkpt lat="42.328430000000004" lon="1.55312">
    <ele>1297.18</ele>
   </trkpt>
   <trkpt lat="42.328480000000006" lon="1.5529600000000001">
    <ele>1297.5700000000002</ele>
   </trkpt>
   <trkpt lat="42.328480000000006" lon="1.5527400000000002">
    <ele>1297.5700000000002</ele>
   </trkpt>
   <trkpt lat="42.32856" lon="1.5524900000000001">
    <ele>1297.67</ele>
   </trkpt>
   <trkpt lat="42.32858" lon="1.5523600000000002">
    <ele>1297.7800000000002</ele>
   </trkpt>
   <trkpt lat="42.32856" lon="1.55221">
    <ele>1297.7800000000002</ele>
   </trkpt>
   <trkpt lat="42.328590000000005" lon="1.5520800000000001">
    <ele>1297.88</ele>
   </trkpt>
   <trkpt lat="42.32874" lon="1.55194">
    <ele>1297.8100000000002</ele>
   </trkpt>
   <trkpt lat="42.328790000000005" lon="1.5517900000000002">
    <ele>1297.7</ele>
   </trkpt>
   <trkpt lat="42.328880000000005" lon="1.5516400000000001">
    <ele>1297.25</ele>
   </trkpt>
   <trkpt lat="42.329190000000004" lon="1.55139">
    <ele>1294.0200000000002</ele>
   </trkpt>
   <trkpt lat="42.329390000000004" lon="1.55126">
    <ele>1292.6000000000001</ele>
   </trkpt>
   <trkpt lat="42.32959" lon="1.55125">
    <ele>1291.67</ele>
   </trkpt>
   <trkpt lat="42.32987000000001" lon="1.55136">
    <ele>1291.0100000000002</ele>
   </trkpt>
   <trkpt lat="42.330000000000005" lon="1.55139">
    <ele>1290.8400000000001</ele>
   </trkpt>
   <trkpt lat="42.33017" lon="1.55136">
    <ele>1290.52</ele>
   </trkpt>
   <trkpt lat="42.330490000000005" lon="1.55123">
    <ele>1290.31</ele>
   </trkpt>
   <trkpt lat="42.330670000000005" lon="1.5512100000000002">
    <ele>1290.31</ele>
   </trkpt>
   <trkpt lat="42.330850000000005" lon="1.5511300000000001">
    <ele>1290.38</ele>
   </trkpt>
   <trkpt lat="42.33113" lon="1.55082">
    <ele>1289.08</ele>
   </trkpt>
   <trkpt lat="42.331230000000005" lon="1.5507700000000002">
    <ele>1288.42</ele>
   </trkpt>
   <trkpt lat="42.331480000000006" lon="1.55089">
    <ele>1285.26</ele>
   </trkpt>
   <trkpt lat="42.33175000000001" lon="1.5508600000000001">
    <ele>1283.7900000000002</ele>
   </trkpt>
   <trkpt lat="42.33247" lon="1.5505600000000002">
    <ele>1279.7</ele>
   </trkpt>
   <trkpt lat="42.332930000000005" lon="1.5505000000000002">
    <ele>1279.1800000000003</ele>
   </trkpt>
   <trkpt lat="42.33303" lon="1.5504300000000002">
    <ele>1278.8400000000001</ele>
   </trkpt>
   <trkpt lat="42.33324" lon="1.5503900000000002">
    <ele>1278.52</ele>
   </trkpt>
   <trkpt lat="42.333650000000006" lon="1.5502200000000002">
    <ele>1276.3300000000002</ele>
   </trkpt>
   <trkpt lat="42.33384" lon="1.5502300000000002">
    <ele>1275.3000000000002</ele>
   </trkpt>
   <trkpt lat="42.33399" lon="1.55021">
    <ele>1274.42</ele>
   </trkpt>
   <trkpt lat="42.33417" lon="1.5500600000000002">
    <ele>1273.93</ele>
   </trkpt>
   <trkpt lat="42.334410000000005" lon="1.54993">
    <ele>1274.67</ele>
   </trkpt>
   <trkpt lat="42.33447" lon="1.5498100000000001">
    <ele>1274.67</ele>
   </trkpt>
   <trkpt lat="42.33465" lon="1.5490400000000002">
    <ele>1278.04</ele>
   </trkpt>
   <trkpt lat="42.33476" lon="1.54878">
    <ele>1279.1000000000001</ele>
   </trkpt>
   <trkpt lat="42.335170000000005" lon="1.54845">
    <ele>1281.8400000000001</ele>
   </trkpt>
   <trkpt lat="42.33527" lon="1.54817">
    <ele>1284.45</ele>
   </trkpt>
   <trkpt lat="42.3355" lon="1.5480800000000001">
    <ele>1285.3400000000001</ele>
   </trkpt>
   <trkpt lat="42.335660000000004" lon="1.5479">
    <ele>1286.54</ele>
   </trkpt>
   <trkpt lat="42.33585" lon="1.54784">
    <ele>1287.4500000000003</ele>
   </trkpt>
   <trkpt lat="42.33621" lon="1.5479">
    <ele>1287.9900000000002</ele>
   </trkpt>
   <trkpt lat="42.33653" lon="1.54784">
    <ele>1288.74</ele>
   </trkpt>
   <trkpt lat="42.33686" lon="1.54773">
    <ele>1290.0600000000002</ele>
   </trkpt>
   <trkpt lat="42.33704" lon="1.5477200000000002">
    <ele>1290.65</ele>
   </trkpt>
   <trkpt lat="42.337340000000005" lon="1.5478200000000002">
    <ele>1290.68</ele>
   </trkpt>
   <trkpt lat="42.33751" lon="1.54783">
    <ele>1290.63</ele>
   </trkpt>
   <trkpt lat="42.33762" lon="1.5478800000000001">
    <ele>1290.43</ele>
   </trkpt>
   <trkpt lat="42.337700000000005" lon="1.54803">
    <ele>1290.2900000000002</ele>
   </trkpt>
   <trkpt lat="42.33773" lon="1.5482500000000001">
    <ele>1289.83</ele>
   </trkpt>
   <trkpt lat="42.33798" lon="1.5485300000000002">
    <ele>1288.5900000000001</ele>
   </trkpt>
   <trkpt lat="42.338530000000006" lon="1.5489300000000001">
    <ele>1283.13</ele>
   </trkpt>
   <trkpt lat="42.33896" lon="1.5493100000000002">
    <ele>1279.5400000000002</ele>
   </trkpt>
   <trkpt lat="42.339420000165376" lon="1.549499998613587">
    <ele>1275.65</ele>
   </trkpt>
   <trkpt lat="42.33988" lon="1.5496900000000002">
    <ele>1270.94</ele>
   </trkpt>
   <trkpt lat="42.340210000000006" lon="1.54993">
    <ele>1267.5400000000002</ele>
   </trkpt>
   <trkpt lat="42.34051" lon="1.5502">
    <ele>1264.21</ele>
   </trkpt>
   <trkpt lat="42.340830000000004" lon="1.5503300000000002">
    <ele>1263.03</ele>
   </trkpt>
   <trkpt lat="42.34104000000001" lon="1.5502900000000002">
    <ele>1261.97</ele>
   </trkpt>
   <trkpt lat="42.34118" lon="1.5504000000000002">
    <ele>1260.69</ele>
   </trkpt>
   <trkpt lat="42.341280000000005" lon="1.55055">
    <ele>1260.15</ele>
   </trkpt>
   <trkpt lat="42.341390000000004" lon="1.55065">
    <ele>1259.8700000000001</ele>
   </trkpt>
  </trkseg>
 </trk>
</gpx>
