<?xml version="1.0" encoding="UTF-8"?>
<gpx creator="StravaGPX" version="1.1" xmlns="http://www.topografix.com/GPX/1/1" xmlns:xsi="http://www.w3.org/2001/XMLSchema-instance" xsi:schemaLocation="http://www.topografix.com/GPX/1/1 http://www.topografix.com/GPX/1/1/gpx.xsd">
 <metadata>
  <name>275</name>
  <author>
   <name>Marc Fargas Fargas</name>
   <link href="https://www.strava.com/athletes/59113394"/>
  </author>
  <copyright author="OpenStreetMap contributors">
   <year>2020</year>
   <license>https://www.openstreetmap.org/copyright</license>
  </copyright>
  <link href="https://www.strava.com/routes/3521850086907833708"/>
 </metadata>
 <trk>
  <name>275</name>
  <link href="https://www.strava.com/routes/3521850086907833708"/>
  <type>mountain_biking</type>
  <trkseg>
   <trkpt lat="42.35092" lon="1.57064">
    <ele>1023.1100000000001</ele>
   </trkpt>
   <trkpt lat="42.351000000000006" lon="1.5703200000000002">
    <ele>1020.0600000000002</ele>
   </trkpt>
   <trkpt lat="42.35096" lon="1.57004">
    <ele>1017.22</ele>
   </trkpt>
   <trkpt lat="42.3506" lon="1.5689400000000002">
    <ele>1003.6800000000001</ele>
   </trkpt>
   <trkpt lat="42.350680000000004" lon="1.5687200000000001">
    <ele>1001.1300000000001</ele>
   </trkpt>
   <trkpt lat="42.35072" lon="1.5681100000000001">
    <ele>999.57</ele>
   </trkpt>
   <trkpt lat="42.35072" lon="1.56777">
    <ele>1000.96</ele>
   </trkpt>
   <trkpt lat="42.350820000000006" lon="1.5675800000000002">
    <ele>1000.69</ele>
   </trkpt>
   <trkpt lat="42.35098000000001" lon="1.5674500000000002">
    <ele>999.59</ele>
   </trkpt>
  </trkseg>
 </trk>
</gpx>
