<?xml version="1.0" encoding="UTF-8"?>
<gpx creator="StravaGPX" version="1.1" xmlns="http://www.topografix.com/GPX/1/1" xmlns:xsi="http://www.w3.org/2001/XMLSchema-instance" xsi:schemaLocation="http://www.topografix.com/GPX/1/1 http://www.topografix.com/GPX/1/1/gpx.xsd">
 <metadata>
  <name>279</name>
  <author>
   <name>Marc Fargas Fargas</name>
   <link href="https://www.strava.com/athletes/59113394"/>
  </author>
  <copyright author="OpenStreetMap contributors">
   <year>2020</year>
   <license>https://www.openstreetmap.org/copyright</license>
  </copyright>
  <link href="https://www.strava.com/routes/3538165134095835678"/>
 </metadata>
 <trk>
  <name>279</name>
  <link href="https://www.strava.com/routes/3538165134095835678"/>
  <type>cycling</type>
  <trkseg>
   <trkpt lat="42.35314" lon="1.5175800000000002">
    <ele>892.5200000000001</ele>
   </trkpt>
   <trkpt lat="42.35359500004865" lon="1.5175050005389783">
    <ele>891.5</ele>
   </trkpt>
   <trkpt lat="42.35405" lon="1.51743">
    <ele>883.2800000000001</ele>
   </trkpt>
   <trkpt lat="42.35455" lon="1.51682">
    <ele>869.23</ele>
   </trkpt>
   <trkpt lat="42.355030000000006" lon="1.5165700000000002">
    <ele>851.71</ele>
   </trkpt>
   <trkpt lat="42.355500000000006" lon="1.5166400000000002">
    <ele>831.74</ele>
   </trkpt>
   <trkpt lat="42.35605" lon="1.51685">
    <ele>806.6500000000001</ele>
   </trkpt>
   <trkpt lat="42.35645" lon="1.51686">
    <ele>788.3500000000001</ele>
   </trkpt>
   <trkpt lat="42.356460000000006" lon="1.5163600000000002">
    <ele>792.36</ele>
   </trkpt>
  </trkseg>
 </trk>
</gpx>
