<?xml version="1.0" encoding="UTF-8"?>
<gpx version="1.1" creator="Xarxa de Corriols d'Alàs i Cerc - Punt 4" xmlns="http://www.topografix.com/GPX/1/1">
<metadata><name>Volta 2 - 10 km - EST - candidata</name></metadata><trk><name>Volta 2 - 10 km - EST - candidata</name><trkseg>
<trkpt lat="42.35133841" lon="1.50832496"><ele>768.5</ele></trkpt>
<trkpt lat="42.35104000" lon="1.50867000"><ele>770.8</ele></trkpt>
<trkpt lat="42.35074000" lon="1.50920000"><ele>772.9</ele></trkpt>
<trkpt lat="42.35072000" lon="1.50928000"><ele>772.9</ele></trkpt>
<trkpt lat="42.35082000" lon="1.50960000"><ele>778.0</ele></trkpt>
<trkpt lat="42.35082000" lon="1.50975000"><ele>778.0</ele></trkpt>
<trkpt lat="42.35076000" lon="1.50988000"><ele>779.0</ele></trkpt>
<trkpt lat="42.35063011" lon="1.50982005"><ele>781.1</ele></trkpt>
<trkpt lat="42.35063000" lon="1.50982000"><ele>781.1</ele></trkpt>
<trkpt lat="42.35047000" lon="1.50981000"><ele>784.4</ele></trkpt>
<trkpt lat="42.35037000" lon="1.50987000"><ele>787.6</ele></trkpt>
<trkpt lat="42.35033003" lon="1.50969012"><ele>790.0</ele></trkpt>
<trkpt lat="42.35037000" lon="1.50987000"><ele>787.6</ele></trkpt>
<trkpt lat="42.35031000" lon="1.51023000"><ele>788.6</ele></trkpt>
<trkpt lat="42.35002000" lon="1.51082000"><ele>792.7</ele></trkpt>
<trkpt lat="42.34982000" lon="1.51138000"><ele>791.4</ele></trkpt>
<trkpt lat="42.34983000" lon="1.51146000"><ele>791.2</ele></trkpt>
<trkpt lat="42.34987000" lon="1.51151000"><ele>790.5</ele></trkpt>
<trkpt lat="42.34999000" lon="1.51147000"><ele>789.3</ele></trkpt>
<trkpt lat="42.35009000" lon="1.51138000"><ele>788.5</ele></trkpt>
<trkpt lat="42.35010005" lon="1.51121986"><ele>788.5</ele></trkpt>
<trkpt lat="42.35010000" lon="1.51122000"><ele>788.5</ele></trkpt>
<trkpt lat="42.35010000" lon="1.51144000"><ele>788.5</ele></trkpt>
<trkpt lat="42.35021000" lon="1.51161000"><ele>789.9</ele></trkpt>
<trkpt lat="42.35033000" lon="1.51169000"><ele>791.7</ele></trkpt>
<trkpt lat="42.35094000" lon="1.51170000"><ele>795.5</ele></trkpt>
<trkpt lat="42.35108000" lon="1.51182000"><ele>796.5</ele></trkpt>
<trkpt lat="42.35119000" lon="1.51196000"><ele>797.1</ele></trkpt>
<trkpt lat="42.35121000" lon="1.51202000"><ele>797.4</ele></trkpt>
<trkpt lat="42.35120000" lon="1.51210000"><ele>798.2</ele></trkpt>
<trkpt lat="42.35111000" lon="1.51224000"><ele>799.1</ele></trkpt>
<trkpt lat="42.35078000" lon="1.51249000"><ele>803.7</ele></trkpt>
<trkpt lat="42.35065009" lon="1.51264989"><ele>804.6</ele></trkpt>
<trkpt lat="42.35063000" lon="1.51285000"><ele>807.2</ele></trkpt>
<trkpt lat="42.35062000" lon="1.51290000"><ele>808.0</ele></trkpt>
<trkpt lat="42.35059000" lon="1.51291000"><ele>808.9</ele></trkpt>
<trkpt lat="42.35053000" lon="1.51287000"><ele>809.9</ele></trkpt>
<trkpt lat="42.35051000" lon="1.51297000"><ele>809.9</ele></trkpt>
<trkpt lat="42.35048000" lon="1.51298000"><ele>815.3</ele></trkpt>
<trkpt lat="42.35042000" lon="1.51297000"><ele>815.3</ele></trkpt>
<trkpt lat="42.35039000" lon="1.51303000"><ele>815.3</ele></trkpt>
<trkpt lat="42.35036000" lon="1.51306000"><ele>815.3</ele></trkpt>
<trkpt lat="42.35033000" lon="1.51306000"><ele>818.4</ele></trkpt>
<trkpt lat="42.35026000" lon="1.51313000"><ele>820.5</ele></trkpt>
<trkpt lat="42.35019000" lon="1.51313000"><ele>820.5</ele></trkpt>
<trkpt lat="42.35010000" lon="1.51328000"><ele>826.2</ele></trkpt>
<trkpt lat="42.35010000" lon="1.51330000"><ele>826.2</ele></trkpt>
<trkpt lat="42.35017000" lon="1.51329000"><ele>827.6</ele></trkpt>
<trkpt lat="42.35018000" lon="1.51331000"><ele>827.6</ele></trkpt>
<trkpt lat="42.35013000" lon="1.51343000"><ele>833.2</ele></trkpt>
<trkpt lat="42.35017000" lon="1.51345000"><ele>833.2</ele></trkpt>
<trkpt lat="42.35017000" lon="1.51352000"><ele>834.5</ele></trkpt>
<trkpt lat="42.35022000" lon="1.51363000"><ele>836.8</ele></trkpt>
<trkpt lat="42.35019000" lon="1.51387000"><ele>840.8</ele></trkpt>
<trkpt lat="42.35022000" lon="1.51389000"><ele>841.9</ele></trkpt>
<trkpt lat="42.35027000" lon="1.51385000"><ele>841.9</ele></trkpt>
<trkpt lat="42.35023000" lon="1.51397000"><ele>848.4</ele></trkpt>
<trkpt lat="42.35025000" lon="1.51400000"><ele>848.4</ele></trkpt>
<trkpt lat="42.35036000" lon="1.51406000"><ele>848.4</ele></trkpt>
<trkpt lat="42.35047000" lon="1.51405000"><ele>851.5</ele></trkpt>
<trkpt lat="42.35046000" lon="1.51407000"><ele>851.5</ele></trkpt>
<trkpt lat="42.35047000" lon="1.51430000"><ele>855.9</ele></trkpt>
<trkpt lat="42.35047000" lon="1.51431000"><ele>855.9</ele></trkpt>
<trkpt lat="42.35050000" lon="1.51473000"><ele>862.6</ele></trkpt>
<trkpt lat="42.35066000" lon="1.51555000"><ele>874.9</ele></trkpt>
<trkpt lat="42.35082000" lon="1.51637000"><ele>886.8</ele></trkpt>
<trkpt lat="42.35088000" lon="1.51719000"><ele>893.9</ele></trkpt>
<trkpt lat="42.35066000" lon="1.51778000"><ele>902.3</ele></trkpt>
<trkpt lat="42.35079000" lon="1.51817000"><ele>908.7</ele></trkpt>
<trkpt lat="42.35071000" lon="1.51818000"><ele>909.0</ele></trkpt>
<trkpt lat="42.35047000" lon="1.51865000"><ele>913.9</ele></trkpt>
<trkpt lat="42.35025000" lon="1.51897000"><ele>916.1</ele></trkpt>
<trkpt lat="42.34978000" lon="1.51988000"><ele>922.8</ele></trkpt>
<trkpt lat="42.34978835" lon="1.52013064"><ele>924.3</ele></trkpt>
<trkpt lat="42.34997000" lon="1.52027000"><ele>926.9</ele></trkpt>
<trkpt lat="42.35001316" lon="1.52035200"><ele>926.0</ele></trkpt>
<trkpt lat="42.34988000" lon="1.52048000"><ele>929.3</ele></trkpt>
<trkpt lat="42.34972000" lon="1.52056000"><ele>931.9</ele></trkpt>
<trkpt lat="42.34969000" lon="1.52072000"><ele>933.7</ele></trkpt>
<trkpt lat="42.34968000" lon="1.52095000"><ele>934.6</ele></trkpt>
<trkpt lat="42.34961000" lon="1.52113000"><ele>936.1</ele></trkpt>
<trkpt lat="42.34954000" lon="1.52090000"><ele>936.3</ele></trkpt>
<trkpt lat="42.34943000" lon="1.52061000"><ele>937.1</ele></trkpt>
<trkpt lat="42.34935000" lon="1.52075000"><ele>938.8</ele></trkpt>
<trkpt lat="42.34921000" lon="1.52089000"><ele>942.0</ele></trkpt>
<trkpt lat="42.34888000" lon="1.52111000"><ele>950.8</ele></trkpt>
<trkpt lat="42.34867000" lon="1.52112000"><ele>957.0</ele></trkpt>
<trkpt lat="42.34864000" lon="1.52150000"><ele>960.9</ele></trkpt>
<trkpt lat="42.34850000" lon="1.52162000"><ele>966.0</ele></trkpt>
<trkpt lat="42.34839000" lon="1.52186000"><ele>972.1</ele></trkpt>
<trkpt lat="42.34841000" lon="1.52217000"><ele>975.4</ele></trkpt>
<trkpt lat="42.34839000" lon="1.52259000"><ele>979.1</ele></trkpt>
<trkpt lat="42.34836000" lon="1.52296000"><ele>982.9</ele></trkpt>
<trkpt lat="42.34841009" lon="1.52291998"><ele>980.6</ele></trkpt>
<trkpt lat="42.34865000" lon="1.52287000"><ele>971.9</ele></trkpt>
<trkpt lat="42.34883000" lon="1.52279000"><ele>966.5</ele></trkpt>
<trkpt lat="42.34890000" lon="1.52284000"><ele>963.4</ele></trkpt>
<trkpt lat="42.34901000" lon="1.52291000"><ele>960.4</ele></trkpt>
<trkpt lat="42.34910000" lon="1.52290000"><ele>957.5</ele></trkpt>
<trkpt lat="42.34914000" lon="1.52304000"><ele>956.5</ele></trkpt>
<trkpt lat="42.34922000" lon="1.52305000"><ele>952.9</ele></trkpt>
<trkpt lat="42.34928000" lon="1.52310000"><ele>952.0</ele></trkpt>
<trkpt lat="42.34937000" lon="1.52309000"><ele>947.4</ele></trkpt>
<trkpt lat="42.34947000" lon="1.52319000"><ele>943.5</ele></trkpt>
<trkpt lat="42.34952000" lon="1.52325000"><ele>942.4</ele></trkpt>
<trkpt lat="42.34957000" lon="1.52323000"><ele>939.8</ele></trkpt>
<trkpt lat="42.34963987" lon="1.52335970"><ele>944.8</ele></trkpt>
<trkpt lat="42.34964000" lon="1.52336000"><ele>944.8</ele></trkpt>
<trkpt lat="42.34936000" lon="1.52406000"><ele>945.5</ele></trkpt>
<trkpt lat="42.34921000" lon="1.52436000"><ele>945.7</ele></trkpt>
<trkpt lat="42.34906000" lon="1.52453000"><ele>946.0</ele></trkpt>
<trkpt lat="42.34899000" lon="1.52466000"><ele>946.5</ele></trkpt>
<trkpt lat="42.34930000" lon="1.52492000"><ele>949.9</ele></trkpt>
<trkpt lat="42.34936987" lon="1.52501982"><ele>950.9</ele></trkpt>
<trkpt lat="42.34925000" lon="1.52545000"><ele>956.4</ele></trkpt>
<trkpt lat="42.34930000" lon="1.52581000"><ele>960.7</ele></trkpt>
<trkpt lat="42.34922000" lon="1.52625000"><ele>965.2</ele></trkpt>
<trkpt lat="42.34920000" lon="1.52677000"><ele>975.9</ele></trkpt>
<trkpt lat="42.34927000" lon="1.52733000"><ele>982.7</ele></trkpt>
<trkpt lat="42.34939000" lon="1.52785000"><ele>994.0</ele></trkpt>
<trkpt lat="42.34942000" lon="1.52816000"><ele>1003.7</ele></trkpt>
<trkpt lat="42.34951000" lon="1.52847000"><ele>1007.7</ele></trkpt>
<trkpt lat="42.34972000" lon="1.52884000"><ele>1017.5</ele></trkpt>
<trkpt lat="42.34978000" lon="1.52913000"><ele>1024.1</ele></trkpt>
<trkpt lat="42.34975000" lon="1.52930000"><ele>1027.8</ele></trkpt>
<trkpt lat="42.34976000" lon="1.52958000"><ele>1034.8</ele></trkpt>
<trkpt lat="42.34959000" lon="1.52986000"><ele>1036.8</ele></trkpt>
<trkpt lat="42.34914000" lon="1.53021000"><ele>1050.9</ele></trkpt>
<trkpt lat="42.34913997" lon="1.53021001"><ele>1050.9</ele></trkpt>
<trkpt lat="42.34897000" lon="1.53025000"><ele>1051.4</ele></trkpt>
<trkpt lat="42.34850000" lon="1.53086000"><ele>1065.8</ele></trkpt>
<trkpt lat="42.34849999" lon="1.53086010"><ele>1065.8</ele></trkpt>
<trkpt lat="42.34859000" lon="1.53073000"><ele>1063.6</ele></trkpt>
<trkpt lat="42.34846000" lon="1.53072000"><ele>1067.8</ele></trkpt>
<trkpt lat="42.34832000" lon="1.53059000"><ele>1073.8</ele></trkpt>
<trkpt lat="42.34817000" lon="1.53053000"><ele>1078.4</ele></trkpt>
<trkpt lat="42.34799000" lon="1.53062000"><ele>1084.7</ele></trkpt>
<trkpt lat="42.34776000" lon="1.53063000"><ele>1092.3</ele></trkpt>
<trkpt lat="42.34752000" lon="1.53065000"><ele>1100.9</ele></trkpt>
<trkpt lat="42.34743000" lon="1.53036000"><ele>1105.0</ele></trkpt>
<trkpt lat="42.34716000" lon="1.53060000"><ele>1112.7</ele></trkpt>
<trkpt lat="42.34684000" lon="1.53082000"><ele>1120.3</ele></trkpt>
<trkpt lat="42.34653000" lon="1.53108000"><ele>1126.7</ele></trkpt>
<trkpt lat="42.34628000" lon="1.53144000"><ele>1132.4</ele></trkpt>
<trkpt lat="42.34616000" lon="1.53183000"><ele>1135.1</ele></trkpt>
<trkpt lat="42.34591000" lon="1.53219000"><ele>1140.1</ele></trkpt>
<trkpt lat="42.34580000" lon="1.53251000"><ele>1142.3</ele></trkpt>
<trkpt lat="42.34561000" lon="1.53273000"><ele>1145.8</ele></trkpt>
<trkpt lat="42.34564998" lon="1.53259009"><ele>1144.9</ele></trkpt>
<trkpt lat="42.34557000" lon="1.53288000"><ele>1146.7</ele></trkpt>
<trkpt lat="42.34516000" lon="1.53332000"><ele>1148.1</ele></trkpt>
<trkpt lat="42.34508000" lon="1.53374000"><ele>1147.1</ele></trkpt>
<trkpt lat="42.34509000" lon="1.53408000"><ele>1147.0</ele></trkpt>
<trkpt lat="42.34523000" lon="1.53442000"><ele>1147.3</ele></trkpt>
<trkpt lat="42.34523000" lon="1.53443000"><ele>1147.3</ele></trkpt>
<trkpt lat="42.34531000" lon="1.53461000"><ele>1146.9</ele></trkpt>
<trkpt lat="42.34570000" lon="1.53509000"><ele>1142.4</ele></trkpt>
<trkpt lat="42.34586992" lon="1.53510999"><ele>1141.1</ele></trkpt>
<trkpt lat="42.34602000" lon="1.53516000"><ele>1130.8</ele></trkpt>
<trkpt lat="42.34622000" lon="1.53522000"><ele>1126.6</ele></trkpt>
<trkpt lat="42.34638000" lon="1.53520000"><ele>1125.1</ele></trkpt>
<trkpt lat="42.34656000" lon="1.53502000"><ele>1124.5</ele></trkpt>
<trkpt lat="42.34678000" lon="1.53503000"><ele>1122.7</ele></trkpt>
<trkpt lat="42.34703000" lon="1.53526000"><ele>1118.5</ele></trkpt>
<trkpt lat="42.34715000" lon="1.53553000"><ele>1113.9</ele></trkpt>
<trkpt lat="42.34735000" lon="1.53554000"><ele>1107.8</ele></trkpt>
<trkpt lat="42.34754000" lon="1.53582000"><ele>1093.7</ele></trkpt>
<trkpt lat="42.34741996" lon="1.53597001"><ele>1102.5</ele></trkpt>
<trkpt lat="42.34695000" lon="1.53605000"><ele>1104.7</ele></trkpt>
<trkpt lat="42.34679176" lon="1.53609316"><ele>1105.3</ele></trkpt>
<trkpt lat="42.34690000" lon="1.53619000"><ele>1101.4</ele></trkpt>
<trkpt lat="42.34699000" lon="1.53635000"><ele>1094.5</ele></trkpt>
<trkpt lat="42.34688000" lon="1.53650000"><ele>1089.3</ele></trkpt>
<trkpt lat="42.34676000" lon="1.53670000"><ele>1084.4</ele></trkpt>
<trkpt lat="42.34685000" lon="1.53685000"><ele>1077.0</ele></trkpt>
<trkpt lat="42.34675000" lon="1.53692000"><ele>1075.7</ele></trkpt>
<trkpt lat="42.34669000" lon="1.53713000"><ele>1072.3</ele></trkpt>
<trkpt lat="42.34697000" lon="1.53714000"><ele>1064.6</ele></trkpt>
<trkpt lat="42.34716000" lon="1.53718000"><ele>1059.1</ele></trkpt>
<trkpt lat="42.34743000" lon="1.53745000"><ele>1042.5</ele></trkpt>
<trkpt lat="42.34759000" lon="1.53766000"><ele>1033.4</ele></trkpt>
<trkpt lat="42.34752000" lon="1.53796000"><ele>1039.0</ele></trkpt>
<trkpt lat="42.34743000" lon="1.53809000"><ele>1046.8</ele></trkpt>
<trkpt lat="42.34763000" lon="1.53827000"><ele>1040.5</ele></trkpt>
<trkpt lat="42.34777000" lon="1.53856000"><ele>1041.4</ele></trkpt>
<trkpt lat="42.34796000" lon="1.53884000"><ele>1038.6</ele></trkpt>
<trkpt lat="42.34824000" lon="1.53886000"><ele>1025.3</ele></trkpt>
<trkpt lat="42.34865000" lon="1.53897000"><ele>1010.2</ele></trkpt>
<trkpt lat="42.34897000" lon="1.53886000"><ele>995.4</ele></trkpt>
<trkpt lat="42.34921000" lon="1.53899000"><ele>995.0</ele></trkpt>
<trkpt lat="42.34950000" lon="1.53880000"><ele>982.5</ele></trkpt>
<trkpt lat="42.34983000" lon="1.53846000"><ele>970.1</ele></trkpt>
<trkpt lat="42.35022000" lon="1.53858000"><ele>970.2</ele></trkpt>
<trkpt lat="42.35050000" lon="1.53872000"><ele>965.4</ele></trkpt>
<trkpt lat="42.35082000" lon="1.53844000"><ele>953.5</ele></trkpt>
<trkpt lat="42.35094992" lon="1.53844006"><ele>948.9</ele></trkpt>
<trkpt lat="42.35095000" lon="1.53844000"><ele>948.9</ele></trkpt>
<trkpt lat="42.35102000" lon="1.53830000"><ele>944.4</ele></trkpt>
<trkpt lat="42.35110000" lon="1.53823000"><ele>941.0</ele></trkpt>
<trkpt lat="42.35109000" lon="1.53842000"><ele>942.4</ele></trkpt>
<trkpt lat="42.35119000" lon="1.53837000"><ele>938.1</ele></trkpt>
<trkpt lat="42.35130000" lon="1.53815000"><ele>932.2</ele></trkpt>
<trkpt lat="42.35141000" lon="1.53798000"><ele>923.5</ele></trkpt>
<trkpt lat="42.35150000" lon="1.53784000"><ele>917.1</ele></trkpt>
<trkpt lat="42.35168000" lon="1.53779000"><ele>909.2</ele></trkpt>
<trkpt lat="42.35181000" lon="1.53767000"><ele>902.5</ele></trkpt>
<trkpt lat="42.35188000" lon="1.53746000"><ele>897.9</ele></trkpt>
<trkpt lat="42.35212000" lon="1.53754000"><ele>891.8</ele></trkpt>
<trkpt lat="42.35227000" lon="1.53732000"><ele>888.0</ele></trkpt>
<trkpt lat="42.35251000" lon="1.53730000"><ele>885.6</ele></trkpt>
<trkpt lat="42.35268000" lon="1.53713000"><ele>884.0</ele></trkpt>
<trkpt lat="42.35274000" lon="1.53692000"><ele>881.6</ele></trkpt>
<trkpt lat="42.35285000" lon="1.53699000"><ele>882.6</ele></trkpt>
<trkpt lat="42.35297000" lon="1.53696000"><ele>881.8</ele></trkpt>
<trkpt lat="42.35308000" lon="1.53678000"><ele>878.2</ele></trkpt>
<trkpt lat="42.35315000" lon="1.53695000"><ele>880.0</ele></trkpt>
<trkpt lat="42.35316000" lon="1.53718000"><ele>881.2</ele></trkpt>
<trkpt lat="42.35312000" lon="1.53741000"><ele>880.6</ele></trkpt>
<trkpt lat="42.35310000" lon="1.53744000"><ele>886.9</ele></trkpt>
<trkpt lat="42.35280000" lon="1.53797000"><ele>885.0</ele></trkpt>
<trkpt lat="42.35269000" lon="1.53836000"><ele>884.1</ele></trkpt>
<trkpt lat="42.35259000" lon="1.53858000"><ele>882.9</ele></trkpt>
<trkpt lat="42.35251000" lon="1.53882000"><ele>882.4</ele></trkpt>
<trkpt lat="42.35245000" lon="1.53923000"><ele>881.3</ele></trkpt>
<trkpt lat="42.35246000" lon="1.53997000"><ele>879.8</ele></trkpt>
<trkpt lat="42.35249000" lon="1.54021000"><ele>878.9</ele></trkpt>
<trkpt lat="42.35277000" lon="1.54081000"><ele>876.5</ele></trkpt>
<trkpt lat="42.35286000" lon="1.54137000"><ele>875.2</ele></trkpt>
<trkpt lat="42.35291995" lon="1.54162978"><ele>874.9</ele></trkpt>
<trkpt lat="42.35298830" lon="1.54200810"></trkpt>
<trkpt lat="42.35311000" lon="1.54180000"></trkpt>
<trkpt lat="42.35315003" lon="1.54182989"><ele>880.8</ele></trkpt>
<trkpt lat="42.35319000" lon="1.54165000"><ele>876.6</ele></trkpt>
<trkpt lat="42.35326000" lon="1.54171000"><ele>875.4</ele></trkpt>
<trkpt lat="42.35339000" lon="1.54169000"><ele>870.2</ele></trkpt>
<trkpt lat="42.35350000" lon="1.54174000"><ele>866.6</ele></trkpt>
<trkpt lat="42.35360000" lon="1.54201000"><ele>868.0</ele></trkpt>
<trkpt lat="42.35375000" lon="1.54221000"><ele>867.4</ele></trkpt>
<trkpt lat="42.35384000" lon="1.54231000"><ele>867.4</ele></trkpt>
<trkpt lat="42.35376000" lon="1.54210000"><ele>863.7</ele></trkpt>
<trkpt lat="42.35372000" lon="1.54191000"><ele>860.9</ele></trkpt>
<trkpt lat="42.35387000" lon="1.54202000"><ele>857.2</ele></trkpt>
<trkpt lat="42.35405000" lon="1.54213000"><ele>852.8</ele></trkpt>
<trkpt lat="42.35408000" lon="1.54204000"><ele>848.5</ele></trkpt>
<trkpt lat="42.35403000" lon="1.54179000"><ele>844.1</ele></trkpt>
<trkpt lat="42.35397000" lon="1.54149000"><ele>839.9</ele></trkpt>
<trkpt lat="42.35397000" lon="1.54127000"><ele>835.0</ele></trkpt>
<trkpt lat="42.35407000" lon="1.54118000"><ele>826.0</ele></trkpt>
<trkpt lat="42.35421000" lon="1.54136000"><ele>821.9</ele></trkpt>
<trkpt lat="42.35437000" lon="1.54144000"><ele>814.2</ele></trkpt>
<trkpt lat="42.35436000" lon="1.54128000"><ele>809.8</ele></trkpt>
<trkpt lat="42.35432000" lon="1.54113000"><ele>811.0</ele></trkpt>
<trkpt lat="42.35448000" lon="1.54115000"><ele>800.6</ele></trkpt>
<trkpt lat="42.35443000" lon="1.54096000"><ele>800.0</ele></trkpt>
<trkpt lat="42.35442000" lon="1.54077000"><ele>797.0</ele></trkpt>
<trkpt lat="42.35453000" lon="1.54049000"><ele>788.4</ele></trkpt>
<trkpt lat="42.35472000" lon="1.54043000"><ele>777.2</ele></trkpt>
<trkpt lat="42.35491000" lon="1.54022000"><ele>768.6</ele></trkpt>
<trkpt lat="42.35512000" lon="1.53998000"><ele>762.1</ele></trkpt>
<trkpt lat="42.35524005" lon="1.53990996"><ele>760.0</ele></trkpt>
<trkpt lat="42.35537000" lon="1.53979000"><ele>757.0</ele></trkpt>
<trkpt lat="42.35547000" lon="1.53960000"><ele>756.8</ele></trkpt>
<trkpt lat="42.35550000" lon="1.53948000"><ele>757.2</ele></trkpt>
<trkpt lat="42.35555000" lon="1.53933000"><ele>757.8</ele></trkpt>
<trkpt lat="42.35561000" lon="1.53951000"><ele>755.5</ele></trkpt>
<trkpt lat="42.35569000" lon="1.53944000"><ele>755.3</ele></trkpt>
<trkpt lat="42.35574000" lon="1.53931000"><ele>755.7</ele></trkpt>
<trkpt lat="42.35583000" lon="1.53933000"><ele>755.6</ele></trkpt>
<trkpt lat="42.35596000" lon="1.53907000"><ele>755.6</ele></trkpt>
<trkpt lat="42.35614000" lon="1.53845000"><ele>754.9</ele></trkpt>
<trkpt lat="42.35611000" lon="1.53815000"><ele>754.7</ele></trkpt>
<trkpt lat="42.35603000" lon="1.53805000"><ele>755.2</ele></trkpt>
<trkpt lat="42.35590000" lon="1.53796000"><ele>757.0</ele></trkpt>
<trkpt lat="42.35596000" lon="1.53775000"><ele>755.2</ele></trkpt>
<trkpt lat="42.35597000" lon="1.53746000"><ele>754.3</ele></trkpt>
<trkpt lat="42.35586000" lon="1.53711000"><ele>754.0</ele></trkpt>
<trkpt lat="42.35586000" lon="1.53674000"><ele>753.3</ele></trkpt>
<trkpt lat="42.35578000" lon="1.53637000"><ele>754.3</ele></trkpt>
<trkpt lat="42.35567000" lon="1.53596000"><ele>754.4</ele></trkpt>
<trkpt lat="42.35556000" lon="1.53577000"><ele>755.0</ele></trkpt>
<trkpt lat="42.35537000" lon="1.53562000"><ele>758.0</ele></trkpt>
<trkpt lat="42.35531000" lon="1.53520000"><ele>756.7</ele></trkpt>
<trkpt lat="42.35535000" lon="1.53488000"><ele>755.6</ele></trkpt>
<trkpt lat="42.35523000" lon="1.53480000"><ele>757.6</ele></trkpt>
<trkpt lat="42.35508000" lon="1.53475000"><ele>760.4</ele></trkpt>
<trkpt lat="42.35513000" lon="1.53457000"><ele>759.6</ele></trkpt>
<trkpt lat="42.35524000" lon="1.53435000"><ele>757.5</ele></trkpt>
<trkpt lat="42.35546000" lon="1.53407000"><ele>754.2</ele></trkpt>
<trkpt lat="42.35569000" lon="1.53370000"><ele>749.4</ele></trkpt>
<trkpt lat="42.35590000" lon="1.53343000"><ele>746.2</ele></trkpt>
<trkpt lat="42.35605000" lon="1.53325000"><ele>743.8</ele></trkpt>
<trkpt lat="42.35605000" lon="1.53284000"><ele>743.4</ele></trkpt>
<trkpt lat="42.35583000" lon="1.53243000"><ele>747.8</ele></trkpt>
<trkpt lat="42.35552000" lon="1.53208000"><ele>754.1</ele></trkpt>
<trkpt lat="42.35551002" lon="1.53196027"><ele>753.9</ele></trkpt>
<trkpt lat="42.35551000" lon="1.53196000"><ele>753.9</ele></trkpt>
<trkpt lat="42.35553000" lon="1.53171000"><ele>752.5</ele></trkpt>
<trkpt lat="42.35546000" lon="1.53143000"><ele>752.8</ele></trkpt>
<trkpt lat="42.35537000" lon="1.53127000"><ele>754.0</ele></trkpt>
<trkpt lat="42.35531000" lon="1.53091000"><ele>752.2</ele></trkpt>
<trkpt lat="42.35532000" lon="1.53054000"><ele>749.9</ele></trkpt>
<trkpt lat="42.35533000" lon="1.53031000"><ele>748.6</ele></trkpt>
<trkpt lat="42.35530000" lon="1.53010000"><ele>748.7</ele></trkpt>
<trkpt lat="42.35521000" lon="1.52988000"><ele>749.1</ele></trkpt>
<trkpt lat="42.35493000" lon="1.52934000"><ele>754.7</ele></trkpt>
<trkpt lat="42.35476000" lon="1.52897000"><ele>757.5</ele></trkpt>
<trkpt lat="42.35450000" lon="1.52852000"><ele>760.3</ele></trkpt>
<trkpt lat="42.35446000" lon="1.52807000"><ele>756.1</ele></trkpt>
<trkpt lat="42.35441000" lon="1.52785000"><ele>755.2</ele></trkpt>
<trkpt lat="42.35425000" lon="1.52759000"><ele>755.4</ele></trkpt>
<trkpt lat="42.35412000" lon="1.52746000"><ele>757.1</ele></trkpt>
<trkpt lat="42.35401000" lon="1.52709000"><ele>754.9</ele></trkpt>
<trkpt lat="42.35399000" lon="1.52673000"><ele>751.7</ele></trkpt>
<trkpt lat="42.35396000" lon="1.52636000"><ele>749.3</ele></trkpt>
<trkpt lat="42.35383000" lon="1.52582000"><ele>749.9</ele></trkpt>
<trkpt lat="42.35370000" lon="1.52545000"><ele>751.5</ele></trkpt>
<trkpt lat="42.35347000" lon="1.52508000"><ele>756.5</ele></trkpt>
<trkpt lat="42.35347000" lon="1.52480000"><ele>755.7</ele></trkpt>
<trkpt lat="42.35355000" lon="1.52458000"><ele>753.3</ele></trkpt>
<trkpt lat="42.35362000" lon="1.52433000"><ele>750.8</ele></trkpt>
<trkpt lat="42.35358000" lon="1.52412000"><ele>752.1</ele></trkpt>
<trkpt lat="42.35346000" lon="1.52399000"><ele>756.5</ele></trkpt>
<trkpt lat="42.35335000" lon="1.52387000"><ele>760.2</ele></trkpt>
<trkpt lat="42.35334000" lon="1.52372000"><ele>761.9</ele></trkpt>
<trkpt lat="42.35360000" lon="1.52354000"><ele>751.3</ele></trkpt>
<trkpt lat="42.35393000" lon="1.52331000"><ele>742.5</ele></trkpt>
<trkpt lat="42.35399000" lon="1.52305000"><ele>741.8</ele></trkpt>
<trkpt lat="42.35400000" lon="1.52266000"><ele>743.1</ele></trkpt>
<trkpt lat="42.35384000" lon="1.52231000"><ele>749.7</ele></trkpt>
<trkpt lat="42.35370000" lon="1.52197000"><ele>756.4</ele></trkpt>
<trkpt lat="42.35371000" lon="1.52173000"><ele>759.4</ele></trkpt>
<trkpt lat="42.35387000" lon="1.52168000"><ele>755.3</ele></trkpt>
<trkpt lat="42.35401023" lon="1.52172002"><ele>750.3</ele></trkpt>
<trkpt lat="42.35422000" lon="1.52174000"><ele>744.6</ele></trkpt>
<trkpt lat="42.35453000" lon="1.52123000"><ele>744.1</ele></trkpt>
<trkpt lat="42.35450000" lon="1.52097000"><ele>749.8</ele></trkpt>
<trkpt lat="42.35467000" lon="1.52084000"><ele>746.8</ele></trkpt>
<trkpt lat="42.35498000" lon="1.52051000"><ele>744.8</ele></trkpt>
<trkpt lat="42.35543000" lon="1.51975000"><ele>744.8</ele></trkpt>
<trkpt lat="42.35585000" lon="1.51929000"><ele>742.2</ele></trkpt>
<trkpt lat="42.35614000" lon="1.51873000"><ele>744.6</ele></trkpt>
<trkpt lat="42.35683000" lon="1.51843000"><ele>738.1</ele></trkpt>
<trkpt lat="42.35713000" lon="1.51785000"><ele>742.6</ele></trkpt>
<trkpt lat="42.35739000" lon="1.51736000"><ele>742.4</ele></trkpt>
<trkpt lat="42.35762000" lon="1.51704000"><ele>739.3</ele></trkpt>
<trkpt lat="42.35762756" lon="1.51679432"><ele>739.4</ele></trkpt>
<trkpt lat="42.35772000" lon="1.51680000"><ele>737.0</ele></trkpt>
<trkpt lat="42.35793000" lon="1.51661000"><ele>732.4</ele></trkpt>
<trkpt lat="42.35805000" lon="1.51643000"><ele>729.5</ele></trkpt>
<trkpt lat="42.35791000" lon="1.51559000"><ele>727.6</ele></trkpt>
<trkpt lat="42.35824000" lon="1.51539000"><ele>721.3</ele></trkpt>
<trkpt lat="42.35837000" lon="1.51497000"><ele>718.3</ele></trkpt>
<trkpt lat="42.35807000" lon="1.51433000"><ele>718.1</ele></trkpt>
<trkpt lat="42.35760000" lon="1.51372000"><ele>719.4</ele></trkpt>
<trkpt lat="42.35732000" lon="1.51326000"><ele>719.0</ele></trkpt>
<trkpt lat="42.35701000" lon="1.51311000"><ele>722.2</ele></trkpt>
<trkpt lat="42.35650500" lon="1.51221499"><ele>719.5</ele></trkpt>
<trkpt lat="42.35600000" lon="1.51132000"><ele>717.1</ele></trkpt>
<trkpt lat="42.35587000" lon="1.51139000"><ele>716.9</ele></trkpt>
<trkpt lat="42.35576000" lon="1.51142000"><ele>718.2</ele></trkpt>
<trkpt lat="42.35550000" lon="1.51120000"><ele>720.1</ele></trkpt>
<trkpt lat="42.35543000" lon="1.51112000"><ele>720.2</ele></trkpt>
<trkpt lat="42.35513000" lon="1.51058500"><ele>720.6</ele></trkpt>
<trkpt lat="42.35483000" lon="1.51005000"><ele>722.2</ele></trkpt>
<trkpt lat="42.35475000" lon="1.50998000"><ele>722.3</ele></trkpt>
<trkpt lat="42.35468000" lon="1.50996000"><ele>722.5</ele></trkpt>
<trkpt lat="42.35440000" lon="1.50995000"><ele>723.9</ele></trkpt>
<trkpt lat="42.35393000" lon="1.50985000"><ele>728.0</ele></trkpt>
<trkpt lat="42.35386000" lon="1.50982000"><ele>729.7</ele></trkpt>
<trkpt lat="42.35382000" lon="1.50976000"><ele>729.7</ele></trkpt>
<trkpt lat="42.35382000" lon="1.50967000"><ele>730.5</ele></trkpt>
<trkpt lat="42.35387000" lon="1.50936000"><ele>731.8</ele></trkpt>
<trkpt lat="42.35387000" lon="1.50921000"><ele>732.6</ele></trkpt>
<trkpt lat="42.35383000" lon="1.50895000"><ele>733.6</ele></trkpt>
<trkpt lat="42.35378000" lon="1.50877000"><ele>734.5</ele></trkpt>
<trkpt lat="42.35370000" lon="1.50857000"><ele>736.4</ele></trkpt>
<trkpt lat="42.35353000" lon="1.50837000"><ele>739.7</ele></trkpt>
<trkpt lat="42.35352000" lon="1.50831000"><ele>737.2</ele></trkpt>
<trkpt lat="42.35308000" lon="1.50771000"><ele>743.3</ele></trkpt>
<trkpt lat="42.35311000" lon="1.50776000"><ele>747.6</ele></trkpt>
<trkpt lat="42.35295002" lon="1.50759002"><ele>751.5</ele></trkpt>
<trkpt lat="42.35275000" lon="1.50750000"><ele>754.9</ele></trkpt>
<trkpt lat="42.35259000" lon="1.50749000"><ele>756.2</ele></trkpt>
<trkpt lat="42.35234000" lon="1.50771000"><ele>758.3</ele></trkpt>
<trkpt lat="42.35233996" lon="1.50771003"><ele>758.3</ele></trkpt>
<trkpt lat="42.35232000" lon="1.50742000"><ele>756.2</ele></trkpt>
<trkpt lat="42.35223000" lon="1.50677000"><ele>753.7</ele></trkpt>
<trkpt lat="42.35219000" lon="1.50659000"><ele>753.3</ele></trkpt>
<trkpt lat="42.35219000" lon="1.50660000"><ele>753.3</ele></trkpt>
<trkpt lat="42.35194000" lon="1.50595000"><ele>750.6</ele></trkpt>
<trkpt lat="42.35158000" lon="1.50516000"><ele>749.0</ele></trkpt>
<trkpt lat="42.35158000" lon="1.50482009"><ele>748.7</ele></trkpt>
<trkpt lat="42.35156000" lon="1.50452001"><ele>748.7</ele></trkpt>
<trkpt lat="42.35156000" lon="1.50452000"><ele>748.7</ele></trkpt>
<trkpt lat="42.35147000" lon="1.50449000"><ele>749.0</ele></trkpt>
<trkpt lat="42.35098000" lon="1.50468000"><ele>752.4</ele></trkpt>
<trkpt lat="42.35059000" lon="1.50482000"><ele>761.6</ele></trkpt>
<trkpt lat="42.35075000" lon="1.50561000"><ele>762.7</ele></trkpt>
<trkpt lat="42.35071000" lon="1.50608000"><ele>765.2</ele></trkpt>
<trkpt lat="42.35075000" lon="1.50613000"><ele>765.2</ele></trkpt>
<trkpt lat="42.35089000" lon="1.50618000"><ele>764.1</ele></trkpt>
<trkpt lat="42.35112000" lon="1.50637000"><ele>761.2</ele></trkpt>
<trkpt lat="42.35128000" lon="1.50661000"><ele>759.4</ele></trkpt>
<trkpt lat="42.35134000" lon="1.50704000"><ele>765.8</ele></trkpt>
<trkpt lat="42.35136000" lon="1.50747000"><ele>766.7</ele></trkpt>
<trkpt lat="42.35154000" lon="1.50769000"><ele>765.4</ele></trkpt>
<trkpt lat="42.35176000" lon="1.50812000"><ele>763.6</ele></trkpt>
<trkpt lat="42.35172979" lon="1.50813009"><ele>765.6</ele></trkpt>
<trkpt lat="42.35142000" lon="1.50826000"><ele>768.3</ele></trkpt>
</trkseg></trk></gpx>