<?xml version="1.0" encoding="UTF-8"?>
<gpx version="1.1" creator="Xarxa de Corriols d'Alàs i Cerc - v0.5.10" xmlns="http://www.topografix.com/GPX/1/1">
<metadata><name>Volta 7 - 6 km - v0.5.10 - diversa</name></metadata><trk><name>Volta 7 - 6 km - v0.5.10 - diversa</name><trkseg>
<trkpt lat="42.35142000" lon="1.50826000"><ele>768.3</ele></trkpt>
<trkpt lat="42.35172979" lon="1.50813009"><ele>765.6</ele></trkpt>
<trkpt lat="42.35176000" lon="1.50812000"><ele>763.6</ele></trkpt>
<trkpt lat="42.35154000" lon="1.50769000"><ele>765.4</ele></trkpt>
<trkpt lat="42.35136000" lon="1.50747000"><ele>766.7</ele></trkpt>
<trkpt lat="42.35134000" lon="1.50704000"><ele>765.8</ele></trkpt>
<trkpt lat="42.35128000" lon="1.50661000"><ele>763.8</ele></trkpt>
<trkpt lat="42.35112000" lon="1.50637000"><ele>761.2</ele></trkpt>
<trkpt lat="42.35089000" lon="1.50618000"><ele>764.1</ele></trkpt>
<trkpt lat="42.35075000" lon="1.50613000"><ele>765.2</ele></trkpt>
<trkpt lat="42.35071000" lon="1.50608000"><ele>765.2</ele></trkpt>
<trkpt lat="42.35075000" lon="1.50561000"><ele>762.7</ele></trkpt>
<trkpt lat="42.35059000" lon="1.50482000"><ele>761.6</ele></trkpt>
<trkpt lat="42.35098000" lon="1.50468000"><ele>752.4</ele></trkpt>
<trkpt lat="42.35147000" lon="1.50449000"><ele>749.0</ele></trkpt>
<trkpt lat="42.35156000" lon="1.50452000"><ele>748.7</ele></trkpt>
<trkpt lat="42.35156000" lon="1.50452001"><ele>748.7</ele></trkpt>
<trkpt lat="42.35158000" lon="1.50482009"><ele>748.7</ele></trkpt>
<trkpt lat="42.35158000" lon="1.50516000"><ele>749.0</ele></trkpt>
<trkpt lat="42.35194000" lon="1.50595000"><ele>750.6</ele></trkpt>
<trkpt lat="42.35219000" lon="1.50660000"><ele>753.3</ele></trkpt>
<trkpt lat="42.35219000" lon="1.50659000"><ele>753.3</ele></trkpt>
<trkpt lat="42.35223000" lon="1.50677000"><ele>753.7</ele></trkpt>
<trkpt lat="42.35232000" lon="1.50742000"><ele>756.2</ele></trkpt>
<trkpt lat="42.35234000" lon="1.50771000"><ele>758.3</ele></trkpt>
<trkpt lat="42.35234000" lon="1.50771000"><ele>758.3</ele></trkpt>
<trkpt lat="42.35259000" lon="1.50749000"><ele>756.2</ele></trkpt>
<trkpt lat="42.35275000" lon="1.50750000"><ele>754.9</ele></trkpt>
<trkpt lat="42.35294992" lon="1.50758996"><ele>751.5</ele></trkpt>
<trkpt lat="42.35311000" lon="1.50776000"><ele>747.6</ele></trkpt>
<trkpt lat="42.35313001" lon="1.50752996"><ele>744.2</ele></trkpt>
<trkpt lat="42.35318000" lon="1.50730000"><ele>740.9</ele></trkpt>
<trkpt lat="42.35350000" lon="1.50673000"><ele>733.8</ele></trkpt>
<trkpt lat="42.35364000" lon="1.50668000"><ele>730.8</ele></trkpt>
<trkpt lat="42.35384000" lon="1.50642000"><ele>729.3</ele></trkpt>
<trkpt lat="42.35410000" lon="1.50593000"><ele>720.3</ele></trkpt>
<trkpt lat="42.35429000" lon="1.50549000"><ele>714.8</ele></trkpt>
<trkpt lat="42.35442000" lon="1.50512000"><ele>711.9</ele></trkpt>
<trkpt lat="42.35451627" lon="1.50516242"><ele>711.6</ele></trkpt>
<trkpt lat="42.35463000" lon="1.50469000"><ele>710.1</ele></trkpt>
<trkpt lat="42.35485000" lon="1.50408000"><ele>709.0</ele></trkpt>
<trkpt lat="42.35510000" lon="1.50355000"><ele>707.9</ele></trkpt>
<trkpt lat="42.35548000" lon="1.50311000"><ele>705.7</ele></trkpt>
<trkpt lat="42.35547999" lon="1.50310931"><ele>705.7</ele></trkpt>
<trkpt lat="42.35562501" lon="1.50419500"><ele>705.8</ele></trkpt>
<trkpt lat="42.35577000" lon="1.50528000"><ele>706.3</ele></trkpt>
<trkpt lat="42.35588000" lon="1.50527000"><ele>706.5</ele></trkpt>
<trkpt lat="42.35592000" lon="1.50556000"><ele>706.4</ele></trkpt>
<trkpt lat="42.35592001" lon="1.50556003"><ele>706.4</ele></trkpt>
<trkpt lat="42.35597000" lon="1.50575000"><ele>706.0</ele></trkpt>
<trkpt lat="42.35601000" lon="1.50590000"><ele>706.0</ele></trkpt>
<trkpt lat="42.35606000" lon="1.50599000"><ele>706.0</ele></trkpt>
<trkpt lat="42.35600000" lon="1.50623000"><ele>706.4</ele></trkpt>
<trkpt lat="42.35606000" lon="1.50657000"><ele>706.9</ele></trkpt>
<trkpt lat="42.35607000" lon="1.50711000"><ele>708.3</ele></trkpt>
<trkpt lat="42.35616000" lon="1.50772500"><ele>708.6</ele></trkpt>
<trkpt lat="42.35625000" lon="1.50834000"><ele>710.0</ele></trkpt>
<trkpt lat="42.35625000" lon="1.50836000"><ele>710.0</ele></trkpt>
<trkpt lat="42.35626000" lon="1.50852000"><ele>710.5</ele></trkpt>
<trkpt lat="42.35623000" lon="1.50912000"><ele>712.8</ele></trkpt>
<trkpt lat="42.35617000" lon="1.50930000"><ele>712.8</ele></trkpt>
<trkpt lat="42.35600000" lon="1.50967000"><ele>712.0</ele></trkpt>
<trkpt lat="42.35596000" lon="1.50988000"><ele>711.8</ele></trkpt>
<trkpt lat="42.35595000" lon="1.51045000"><ele>711.9</ele></trkpt>
<trkpt lat="42.35598000" lon="1.51062000"><ele>712.3</ele></trkpt>
<trkpt lat="42.35612000" lon="1.51104000"><ele>713.7</ele></trkpt>
<trkpt lat="42.35610000" lon="1.51115000"><ele>715.3</ele></trkpt>
<trkpt lat="42.35609988" lon="1.51115016"><ele>715.3</ele></trkpt>
<trkpt lat="42.35599000" lon="1.51130000"><ele>715.9</ele></trkpt>
<trkpt lat="42.35587000" lon="1.51139000"><ele>716.9</ele></trkpt>
<trkpt lat="42.35576000" lon="1.51142000"><ele>718.2</ele></trkpt>
<trkpt lat="42.35550000" lon="1.51120000"><ele>720.1</ele></trkpt>
<trkpt lat="42.35543000" lon="1.51112000"><ele>720.2</ele></trkpt>
<trkpt lat="42.35513000" lon="1.51058500"><ele>720.6</ele></trkpt>
<trkpt lat="42.35483000" lon="1.51005000"><ele>722.2</ele></trkpt>
<trkpt lat="42.35475000" lon="1.50998000"><ele>722.3</ele></trkpt>
<trkpt lat="42.35468000" lon="1.50996000"><ele>722.5</ele></trkpt>
<trkpt lat="42.35440000" lon="1.50995000"><ele>723.9</ele></trkpt>
<trkpt lat="42.35393000" lon="1.50985000"><ele>728.0</ele></trkpt>
<trkpt lat="42.35386000" lon="1.50982000"><ele>729.7</ele></trkpt>
<trkpt lat="42.35382000" lon="1.50976000"><ele>729.7</ele></trkpt>
<trkpt lat="42.35382000" lon="1.50967000"><ele>730.5</ele></trkpt>
<trkpt lat="42.35387000" lon="1.50936000"><ele>731.8</ele></trkpt>
<trkpt lat="42.35387000" lon="1.50921000"><ele>732.6</ele></trkpt>
<trkpt lat="42.35383000" lon="1.50895000"><ele>733.6</ele></trkpt>
<trkpt lat="42.35378000" lon="1.50877000"><ele>734.5</ele></trkpt>
<trkpt lat="42.35370000" lon="1.50857000"><ele>736.4</ele></trkpt>
<trkpt lat="42.35353000" lon="1.50837000"><ele>739.7</ele></trkpt>
<trkpt lat="42.35360000" lon="1.50899000"><ele>734.6</ele></trkpt>
<trkpt lat="42.35321000" lon="1.50932000"><ele>740.8</ele></trkpt>
<trkpt lat="42.35308000" lon="1.50965000"><ele>742.6</ele></trkpt>
<trkpt lat="42.35309000" lon="1.51008000"><ele>742.0</ele></trkpt>
<trkpt lat="42.35349000" lon="1.51034000"><ele>739.8</ele></trkpt>
<trkpt lat="42.35375000" lon="1.51104000"><ele>743.7</ele></trkpt>
<trkpt lat="42.35421500" lon="1.51170000"><ele>742.2</ele></trkpt>
<trkpt lat="42.35468000" lon="1.51236000"><ele>743.1</ele></trkpt>
<trkpt lat="42.35454000" lon="1.51270000"><ele>745.2</ele></trkpt>
<trkpt lat="42.35450000" lon="1.51283000"><ele>746.6</ele></trkpt>
<trkpt lat="42.35483000" lon="1.51283000"><ele>752.5</ele></trkpt>
<trkpt lat="42.35516000" lon="1.51328000"><ele>761.2</ele></trkpt>
<trkpt lat="42.35549500" lon="1.51416500"><ele>778.7</ele></trkpt>
<trkpt lat="42.35583000" lon="1.51505000"><ele>794.6</ele></trkpt>
<trkpt lat="42.35623000" lon="1.51579000"><ele>804.0</ele></trkpt>
<trkpt lat="42.35628000" lon="1.51615000"><ele>810.6</ele></trkpt>
<trkpt lat="42.35585000" lon="1.51567000"><ele>812.7</ele></trkpt>
<trkpt lat="42.35535000" lon="1.51519000"><ele>816.2</ele></trkpt>
<trkpt lat="42.35495000" lon="1.51474000"><ele>818.4</ele></trkpt>
<trkpt lat="42.35476000" lon="1.51462000"><ele>819.7</ele></trkpt>
<trkpt lat="42.35459000" lon="1.51458000"><ele>820.4</ele></trkpt>
<trkpt lat="42.35411500" lon="1.51456500"><ele>821.0</ele></trkpt>
<trkpt lat="42.35364000" lon="1.51455000"><ele>820.8</ele></trkpt>
<trkpt lat="42.35323000" lon="1.51457000"><ele>821.4</ele></trkpt>
<trkpt lat="42.35317000" lon="1.51453000"><ele>821.4</ele></trkpt>
<trkpt lat="42.35314000" lon="1.51439000"><ele>822.1</ele></trkpt>
<trkpt lat="42.35317000" lon="1.51419000"><ele>822.6</ele></trkpt>
<trkpt lat="42.35316000" lon="1.51407000"><ele>822.6</ele></trkpt>
<trkpt lat="42.35312000" lon="1.51397000"><ele>824.0</ele></trkpt>
<trkpt lat="42.35304000" lon="1.51388000"><ele>824.6</ele></trkpt>
<trkpt lat="42.35278000" lon="1.51376000"><ele>826.5</ele></trkpt>
<trkpt lat="42.35262000" lon="1.51346000"><ele>823.7</ele></trkpt>
<trkpt lat="42.35250000" lon="1.51359000"><ele>828.5</ele></trkpt>
<trkpt lat="42.35239000" lon="1.51364000"><ele>828.5</ele></trkpt>
<trkpt lat="42.35238988" lon="1.51364010"><ele>828.5</ele></trkpt>
<trkpt lat="42.35232000" lon="1.51385000"><ele>836.1</ele></trkpt>
<trkpt lat="42.35208000" lon="1.51373000"><ele>838.9</ele></trkpt>
<trkpt lat="42.35190000" lon="1.51372000"><ele>839.6</ele></trkpt>
<trkpt lat="42.35166000" lon="1.51386000"><ele>841.6</ele></trkpt>
<trkpt lat="42.35108000" lon="1.51391000"><ele>846.1</ele></trkpt>
<trkpt lat="42.35049000" lon="1.51402000"><ele>851.5</ele></trkpt>
<trkpt lat="42.35047000" lon="1.51405000"><ele>851.5</ele></trkpt>
<trkpt lat="42.35025000" lon="1.51433000"><ele>853.9</ele></trkpt>
<trkpt lat="42.35010000" lon="1.51437000"><ele>855.2</ele></trkpt>
<trkpt lat="42.35007000" lon="1.51442000"><ele>856.5</ele></trkpt>
<trkpt lat="42.35008000" lon="1.51450000"><ele>856.5</ele></trkpt>
<trkpt lat="42.35013000" lon="1.51454000"><ele>857.4</ele></trkpt>
<trkpt lat="42.35034000" lon="1.51449000"><ele>858.8</ele></trkpt>
<trkpt lat="42.35048000" lon="1.51451000"><ele>860.0</ele></trkpt>
<trkpt lat="42.35101000" lon="1.51471000"><ele>863.9</ele></trkpt>
<trkpt lat="42.35111000" lon="1.51485000"><ele>865.9</ele></trkpt>
<trkpt lat="42.35121000" lon="1.51522000"><ele>868.0</ele></trkpt>
<trkpt lat="42.35113000" lon="1.51558000"><ele>869.8</ele></trkpt>
<trkpt lat="42.35122000" lon="1.51622000"><ele>872.6</ele></trkpt>
<trkpt lat="42.35125000" lon="1.51674000"><ele>877.3</ele></trkpt>
<trkpt lat="42.35134000" lon="1.51679000"><ele>878.0</ele></trkpt>
<trkpt lat="42.35161000" lon="1.51671000"><ele>881.7</ele></trkpt>
<trkpt lat="42.35200000" lon="1.51703000"><ele>883.3</ele></trkpt>
<trkpt lat="42.35208000" lon="1.51730000"><ele>890.0</ele></trkpt>
<trkpt lat="42.35190000" lon="1.51784000"><ele>903.2</ele></trkpt>
<trkpt lat="42.35159000" lon="1.51791000"><ele>904.3</ele></trkpt>
<trkpt lat="42.35126000" lon="1.51815000"><ele>905.8</ele></trkpt>
<trkpt lat="42.35079000" lon="1.51817000"><ele>908.7</ele></trkpt>
<trkpt lat="42.35071000" lon="1.51818000"><ele>909.0</ele></trkpt>
<trkpt lat="42.35043000" lon="1.51805000"><ele>912.1</ele></trkpt>
<trkpt lat="42.35032000" lon="1.51790000"><ele>912.1</ele></trkpt>
<trkpt lat="42.35013000" lon="1.51743000"><ele>916.5</ele></trkpt>
<trkpt lat="42.34991000" lon="1.51718000"><ele>917.8</ele></trkpt>
<trkpt lat="42.34959000" lon="1.51698000"><ele>920.7</ele></trkpt>
<trkpt lat="42.34930000" lon="1.51696000"><ele>922.4</ele></trkpt>
<trkpt lat="42.34911000" lon="1.51710000"><ele>923.5</ele></trkpt>
<trkpt lat="42.34888000" lon="1.51741000"><ele>925.2</ele></trkpt>
<trkpt lat="42.34844000" lon="1.51763500"><ele>928.6</ele></trkpt>
<trkpt lat="42.34800000" lon="1.51786000"><ele>930.8</ele></trkpt>
<trkpt lat="42.34759000" lon="1.51794000"><ele>934.7</ele></trkpt>
<trkpt lat="42.34749000" lon="1.51795000"><ele>935.6</ele></trkpt>
<trkpt lat="42.34725000" lon="1.51806000"><ele>936.8</ele></trkpt>
<trkpt lat="42.34705000" lon="1.51847000"><ele>941.7</ele></trkpt>
<trkpt lat="42.34699000" lon="1.51879000"><ele>943.5</ele></trkpt>
<trkpt lat="42.34682000" lon="1.51906000"><ele>946.0</ele></trkpt>
<trkpt lat="42.34680000" lon="1.51908000"><ele>950.3</ele></trkpt>
<trkpt lat="42.34677000" lon="1.51895000"><ele>948.5</ele></trkpt>
<trkpt lat="42.34677000" lon="1.51874000"><ele>945.1</ele></trkpt>
<trkpt lat="42.34684000" lon="1.51843000"><ele>940.7</ele></trkpt>
<trkpt lat="42.34693000" lon="1.51817000"><ele>936.6</ele></trkpt>
<trkpt lat="42.34695000" lon="1.51792000"><ele>932.8</ele></trkpt>
<trkpt lat="42.34687000" lon="1.51763000"><ele>927.9</ele></trkpt>
<trkpt lat="42.34679000" lon="1.51735000"><ele>922.4</ele></trkpt>
<trkpt lat="42.34670000" lon="1.51746000"><ele>924.2</ele></trkpt>
<trkpt lat="42.34663000" lon="1.51749000"><ele>924.2</ele></trkpt>
<trkpt lat="42.34636000" lon="1.51734000"><ele>921.2</ele></trkpt>
<trkpt lat="42.34614000" lon="1.51730000"><ele>918.9</ele></trkpt>
<trkpt lat="42.34606000" lon="1.51726000"><ele>918.3</ele></trkpt>
<trkpt lat="42.34602000" lon="1.51721000"><ele>916.0</ele></trkpt>
<trkpt lat="42.34597000" lon="1.51709000"><ele>916.0</ele></trkpt>
<trkpt lat="42.34594000" lon="1.51693000"><ele>912.3</ele></trkpt>
<trkpt lat="42.34595000" lon="1.51674000"><ele>912.3</ele></trkpt>
<trkpt lat="42.34605000" lon="1.51659000"><ele>909.6</ele></trkpt>
<trkpt lat="42.34626000" lon="1.51640000"><ele>905.6</ele></trkpt>
<trkpt lat="42.34635000" lon="1.51629000"><ele>903.7</ele></trkpt>
<trkpt lat="42.34639000" lon="1.51562000"><ele>893.9</ele></trkpt>
<trkpt lat="42.34648000" lon="1.51536000"><ele>886.3</ele></trkpt>
<trkpt lat="42.34671000" lon="1.51487000"><ele>878.1</ele></trkpt>
<trkpt lat="42.34685000" lon="1.51469000"><ele>876.4</ele></trkpt>
<trkpt lat="42.34705000" lon="1.51449000"><ele>872.4</ele></trkpt>
<trkpt lat="42.34723000" lon="1.51397000"><ele>866.1</ele></trkpt>
<trkpt lat="42.34724000" lon="1.51344000"><ele>860.1</ele></trkpt>
<trkpt lat="42.34730000" lon="1.51315000"><ele>857.3</ele></trkpt>
<trkpt lat="42.34742000" lon="1.51282000"><ele>854.0</ele></trkpt>
<trkpt lat="42.34762000" lon="1.51217000"><ele>846.6</ele></trkpt>
<trkpt lat="42.34789000" lon="1.51147000"><ele>841.2</ele></trkpt>
<trkpt lat="42.34805000" lon="1.51121000"><ele>838.0</ele></trkpt>
<trkpt lat="42.34812000" lon="1.51105000"><ele>835.7</ele></trkpt>
<trkpt lat="42.34835000" lon="1.51082000"><ele>829.6</ele></trkpt>
<trkpt lat="42.34840000" lon="1.51075000"><ele>828.8</ele></trkpt>
<trkpt lat="42.34840001" lon="1.51074983"><ele>828.8</ele></trkpt>
<trkpt lat="42.34839000" lon="1.51056000"><ele>826.6</ele></trkpt>
<trkpt lat="42.34838000" lon="1.51052000"><ele>826.6</ele></trkpt>
<trkpt lat="42.34820000" lon="1.51041000"><ele>826.7</ele></trkpt>
<trkpt lat="42.34812000" lon="1.51034000"><ele>827.1</ele></trkpt>
<trkpt lat="42.34813000" lon="1.51025000"><ele>827.2</ele></trkpt>
<trkpt lat="42.34821000" lon="1.50999000"><ele>827.6</ele></trkpt>
<trkpt lat="42.34815000" lon="1.50973000"><ele>828.0</ele></trkpt>
<trkpt lat="42.34836000" lon="1.50963000"><ele>823.8</ele></trkpt>
<trkpt lat="42.34867000" lon="1.50964000"><ele>821.1</ele></trkpt>
<trkpt lat="42.34876000" lon="1.50952000"><ele>817.3</ele></trkpt>
<trkpt lat="42.34880000" lon="1.50942000"><ele>817.3</ele></trkpt>
<trkpt lat="42.34887000" lon="1.50914000"><ele>814.0</ele></trkpt>
<trkpt lat="42.34891000" lon="1.50907000"><ele>813.3</ele></trkpt>
<trkpt lat="42.34905000" lon="1.50907000"><ele>809.6</ele></trkpt>
<trkpt lat="42.34917000" lon="1.50900000"><ele>808.3</ele></trkpt>
<trkpt lat="42.34927000" lon="1.50890000"><ele>805.2</ele></trkpt>
<trkpt lat="42.34939000" lon="1.50887000"><ele>805.2</ele></trkpt>
<trkpt lat="42.34958000" lon="1.50910000"><ele>801.8</ele></trkpt>
<trkpt lat="42.34979000" lon="1.50941000"><ele>798.6</ele></trkpt>
<trkpt lat="42.34997000" lon="1.50959000"><ele>794.2</ele></trkpt>
<trkpt lat="42.35027000" lon="1.50964000"><ele>791.4</ele></trkpt>
<trkpt lat="42.35033000" lon="1.50969000"><ele>790.0</ele></trkpt>
<trkpt lat="42.35033003" lon="1.50969016"><ele>790.0</ele></trkpt>
<trkpt lat="42.35037000" lon="1.50987000"><ele>787.6</ele></trkpt>
<trkpt lat="42.35047000" lon="1.50981000"><ele>784.4</ele></trkpt>
<trkpt lat="42.35063000" lon="1.50982000"><ele>781.1</ele></trkpt>
<trkpt lat="42.35063011" lon="1.50982005"><ele>781.1</ele></trkpt>
<trkpt lat="42.35076000" lon="1.50988000"><ele>779.0</ele></trkpt>
<trkpt lat="42.35082000" lon="1.50975000"><ele>778.0</ele></trkpt>
<trkpt lat="42.35082000" lon="1.50960000"><ele>778.0</ele></trkpt>
<trkpt lat="42.35072000" lon="1.50928000"><ele>772.9</ele></trkpt>
<trkpt lat="42.35074000" lon="1.50920000"><ele>772.9</ele></trkpt>
<trkpt lat="42.35104000" lon="1.50867000"><ele>770.8</ele></trkpt>
<trkpt lat="42.35133841" lon="1.50832496"><ele>768.5</ele></trkpt>
</trkseg></trk></gpx>