<?xml version="1.0" encoding="UTF-8"?>
<gpx version="1.1" creator="Xarxa de Corriols d'Alàs i Cerc - prova 2" xmlns="http://www.topografix.com/GPX/1/1">
  <metadata><name>Volta 2 - 6 km - prova diferent</name></metadata>
  <trk><name>Volta 2 - 6 km - prova diferent</name><trkseg>
    <trkpt lat="42.35311000" lon="1.50776000"><ele>747.6</ele></trkpt>
    <trkpt lat="42.35295000" lon="1.50759000"><ele>751.5</ele></trkpt>
    <trkpt lat="42.35275000" lon="1.50750000"><ele>754.9</ele></trkpt>
    <trkpt lat="42.35259000" lon="1.50749000"><ele>756.2</ele></trkpt>
    <trkpt lat="42.35234000" lon="1.50771000"><ele>758.3</ele></trkpt>
    <trkpt lat="42.35205000" lon="1.50791000"><ele>760.4</ele></trkpt>
    <trkpt lat="42.35200000" lon="1.50807000"><ele>761.7</ele></trkpt>
    <trkpt lat="42.35189000" lon="1.50814000"><ele>764.2</ele></trkpt>
    <trkpt lat="42.35173000" lon="1.50813000"><ele>765.6</ele></trkpt>
    <trkpt lat="42.35176000" lon="1.50812000"><ele>763.6</ele></trkpt>
    <trkpt lat="42.35154000" lon="1.50769000"><ele>765.4</ele></trkpt>
    <trkpt lat="42.35136000" lon="1.50747000"><ele>766.7</ele></trkpt>
    <trkpt lat="42.35134000" lon="1.50704000"><ele>765.8</ele></trkpt>
    <trkpt lat="42.35128000" lon="1.50661000"><ele>763.8</ele></trkpt>
    <trkpt lat="42.35112000" lon="1.50637000"><ele>760.7</ele></trkpt>
    <trkpt lat="42.35089000" lon="1.50618000"><ele>764.1</ele></trkpt>
    <trkpt lat="42.35075000" lon="1.50613000"><ele>765.2</ele></trkpt>
    <trkpt lat="42.35047000" lon="1.50574000"><ele>765.5</ele></trkpt>
    <trkpt lat="42.35040000" lon="1.50554000"><ele>766.3</ele></trkpt>
    <trkpt lat="42.35039000" lon="1.50503000"><ele>766.5</ele></trkpt>
    <trkpt lat="42.35029000" lon="1.50441000"><ele>766.9</ele></trkpt>
    <trkpt lat="42.35013000" lon="1.50387000"><ele>765.8</ele></trkpt>
    <trkpt lat="42.34989000" lon="1.50351000"><ele>765.3</ele></trkpt>
    <trkpt lat="42.34926000" lon="1.50288000"><ele>771.9</ele></trkpt>
    <trkpt lat="42.34905000" lon="1.50280000"><ele>775.4</ele></trkpt>
    <trkpt lat="42.34893000" lon="1.50267000"><ele>776.6</ele></trkpt>
    <trkpt lat="42.34872000" lon="1.50261000"><ele>779.3</ele></trkpt>
    <trkpt lat="42.34859000" lon="1.50252000"><ele>780.1</ele></trkpt>
    <trkpt lat="42.34849000" lon="1.50232000"><ele>781.0</ele></trkpt>
    <trkpt lat="42.34848000" lon="1.50220000"><ele>779.8</ele></trkpt>
    <trkpt lat="42.34858000" lon="1.50168000"><ele>779.5</ele></trkpt>
    <trkpt lat="42.34855000" lon="1.50149000"><ele>780.2</ele></trkpt>
    <trkpt lat="42.34805000" lon="1.50063000"><ele>778.6</ele></trkpt>
    <trkpt lat="42.34783000" lon="1.50039000"><ele>777.4</ele></trkpt>
    <trkpt lat="42.34724000" lon="1.50008000"><ele>776.8</ele></trkpt>
    <trkpt lat="42.34700000" lon="1.49980000"><ele>779.7</ele></trkpt>
    <trkpt lat="42.34637000" lon="1.49944000"><ele>780.5</ele></trkpt>
    <trkpt lat="42.34583000" lon="1.49927000"><ele>779.0</ele></trkpt>
    <trkpt lat="42.34541000" lon="1.49911000"><ele>778.6</ele></trkpt>
    <trkpt lat="42.34525000" lon="1.49917000"><ele>778.4</ele></trkpt>
    <trkpt lat="42.34472000" lon="1.49948000"><ele>782.3</ele></trkpt>
    <trkpt lat="42.34460000" lon="1.49957000"><ele>782.7</ele></trkpt>
    <trkpt lat="42.34449000" lon="1.49959000"><ele>782.3</ele></trkpt>
    <trkpt lat="42.34445000" lon="1.49954000"><ele>782.2</ele></trkpt>
    <trkpt lat="42.34442000" lon="1.49942000"><ele>782.3</ele></trkpt>
    <trkpt lat="42.34442000" lon="1.49935000"><ele>782.6</ele></trkpt>
    <trkpt lat="42.34446000" lon="1.49918000"><ele>783.3</ele></trkpt>
    <trkpt lat="42.34454000" lon="1.49904000"><ele>784.7</ele></trkpt>
    <trkpt lat="42.34468000" lon="1.49893000"><ele>785.9</ele></trkpt>
    <trkpt lat="42.34474000" lon="1.49883000"><ele>786.4</ele></trkpt>
    <trkpt lat="42.34478000" lon="1.49872000"><ele>786.8</ele></trkpt>
    <trkpt lat="42.34477000" lon="1.49864000"><ele>787.0</ele></trkpt>
    <trkpt lat="42.34479000" lon="1.49843000"><ele>786.7</ele></trkpt>
    <trkpt lat="42.34476000" lon="1.49780000"><ele>785.8</ele></trkpt>
    <trkpt lat="42.34468000" lon="1.49759000"><ele>785.9</ele></trkpt>
    <trkpt lat="42.34452000" lon="1.49747000"><ele>786.5</ele></trkpt>
    <trkpt lat="42.34451000" lon="1.49758000"><ele>787.4</ele></trkpt>
    <trkpt lat="42.34446000" lon="1.49777000"><ele>789.2</ele></trkpt>
    <trkpt lat="42.34410000" lon="1.49792000"><ele>794.0</ele></trkpt>
    <trkpt lat="42.34386000" lon="1.49826000"><ele>796.1</ele></trkpt>
    <trkpt lat="42.34376000" lon="1.49834000"><ele>797.5</ele></trkpt>
    <trkpt lat="42.34367000" lon="1.49829000"><ele>798.7</ele></trkpt>
    <trkpt lat="42.34340000" lon="1.49770000"><ele>802.5</ele></trkpt>
    <trkpt lat="42.34336000" lon="1.49733000"><ele>804.8</ele></trkpt>
    <trkpt lat="42.34342000" lon="1.49693000"><ele>807.1</ele></trkpt>
    <trkpt lat="42.34342000" lon="1.49689000"><ele>801.7</ele></trkpt>
    <trkpt lat="42.34304000" lon="1.49686000"><ele>812.5</ele></trkpt>
    <trkpt lat="42.34273000" lon="1.49716000"><ele>823.7</ele></trkpt>
    <trkpt lat="42.34239000" lon="1.49679000"><ele>841.0</ele></trkpt>
    <trkpt lat="42.34205000" lon="1.49695000"><ele>854.9</ele></trkpt>
    <trkpt lat="42.34174000" lon="1.49685000"><ele>868.6</ele></trkpt>
    <trkpt lat="42.34133000" lon="1.49663000"><ele>885.7</ele></trkpt>
    <trkpt lat="42.34088000" lon="1.49657000"><ele>900.4</ele></trkpt>
    <trkpt lat="42.34048000" lon="1.49615000"><ele>908.5</ele></trkpt>
    <trkpt lat="42.34052000" lon="1.49610000"><ele>908.2</ele></trkpt>
    <trkpt lat="42.34017000" lon="1.49657000"><ele>912.7</ele></trkpt>
    <trkpt lat="42.34013000" lon="1.49680000"><ele>916.0</ele></trkpt>
    <trkpt lat="42.33995000" lon="1.49693000"><ele>919.7</ele></trkpt>
    <trkpt lat="42.33992000" lon="1.49719000"><ele>924.1</ele></trkpt>
    <trkpt lat="42.33969000" lon="1.49734000"><ele>928.8</ele></trkpt>
    <trkpt lat="42.33948000" lon="1.49734000"><ele>930.2</ele></trkpt>
    <trkpt lat="42.33925000" lon="1.49745000"><ele>934.5</ele></trkpt>
    <trkpt lat="42.33924000" lon="1.49785000"><ele>946.2</ele></trkpt>
    <trkpt lat="42.33907000" lon="1.49799000"><ele>951.8</ele></trkpt>
    <trkpt lat="42.33915000" lon="1.49846000"><ele>964.7</ele></trkpt>
    <trkpt lat="42.33871000" lon="1.49860000"><ele>974.0</ele></trkpt>
    <trkpt lat="42.33863000" lon="1.49896000"><ele>982.3</ele></trkpt>
    <trkpt lat="42.33866000" lon="1.49934000"><ele>986.7</ele></trkpt>
    <trkpt lat="42.33836000" lon="1.50001000"><ele>994.7</ele></trkpt>
    <trkpt lat="42.33781000" lon="1.50061000"><ele>1004.6</ele></trkpt>
    <trkpt lat="42.33731500" lon="1.50106500"><ele>1010.1</ele></trkpt>
    <trkpt lat="42.33682000" lon="1.50152000"><ele>1014.8</ele></trkpt>
    <trkpt lat="42.33625000" lon="1.50214001"><ele>1020.2</ele></trkpt>
    <trkpt lat="42.33568000" lon="1.50276000"><ele>1018.9</ele></trkpt>
    <trkpt lat="42.33484000" lon="1.50314001"><ele>1014.1</ele></trkpt>
    <trkpt lat="42.33400000" lon="1.50352000"><ele>1026.5</ele></trkpt>
    <trkpt lat="42.33343000" lon="1.50352000"><ele>1020.9</ele></trkpt>
    <trkpt lat="42.33265000" lon="1.50389000"><ele>1004.2</ele></trkpt>
    <trkpt lat="42.33229500" lon="1.50435000"><ele>999.3</ele></trkpt>
    <trkpt lat="42.33194000" lon="1.50481000"><ele>998.2</ele></trkpt>
    <trkpt lat="42.33194000" lon="1.50488000"><ele>1000.6</ele></trkpt>
    <trkpt lat="42.33191000" lon="1.50510000"><ele>997.5</ele></trkpt>
    <trkpt lat="42.33184000" lon="1.50549000"><ele>993.0</ele></trkpt>
    <trkpt lat="42.33159000" lon="1.50643000"><ele>980.1</ele></trkpt>
    <trkpt lat="42.33147000" lon="1.50673000"><ele>976.2</ele></trkpt>
    <trkpt lat="42.33143000" lon="1.50709000"><ele>973.9</ele></trkpt>
    <trkpt lat="42.33149000" lon="1.50752000"><ele>970.2</ele></trkpt>
    <trkpt lat="42.33160000" lon="1.50786000"><ele>969.4</ele></trkpt>
    <trkpt lat="42.33163000" lon="1.50811000"><ele>968.6</ele></trkpt>
    <trkpt lat="42.33176000" lon="1.50860000"><ele>965.1</ele></trkpt>
    <trkpt lat="42.33181000" lon="1.50866000"><ele>964.6</ele></trkpt>
    <trkpt lat="42.33189000" lon="1.50865000"><ele>962.4</ele></trkpt>
    <trkpt lat="42.33195000" lon="1.50832000"><ele>961.1</ele></trkpt>
    <trkpt lat="42.33200000" lon="1.50808000"><ele>962.2</ele></trkpt>
    <trkpt lat="42.33220000" lon="1.50798000"><ele>969.5</ele></trkpt>
    <trkpt lat="42.33257000" lon="1.50761000"><ele>980.9</ele></trkpt>
    <trkpt lat="42.33293000" lon="1.50737000"><ele>989.1</ele></trkpt>
    <trkpt lat="42.33313000" lon="1.50736000"><ele>995.2</ele></trkpt>
    <trkpt lat="42.33341000" lon="1.50745000"><ele>999.1</ele></trkpt>
    <trkpt lat="42.33388000" lon="1.50768000"><ele>999.2</ele></trkpt>
    <trkpt lat="42.33396000" lon="1.50783000"><ele>999.9</ele></trkpt>
    <trkpt lat="42.33420000" lon="1.50806000"><ele>1003.1</ele></trkpt>
    <trkpt lat="42.33474000" lon="1.50792000"><ele>998.3</ele></trkpt>
    <trkpt lat="42.33528000" lon="1.50778000"><ele>991.9</ele></trkpt>
    <trkpt lat="42.33565000" lon="1.50760000"><ele>989.2</ele></trkpt>
    <trkpt lat="42.33601000" lon="1.50739000"><ele>988.1</ele></trkpt>
    <trkpt lat="42.33620000" lon="1.50725000"><ele>987.3</ele></trkpt>
    <trkpt lat="42.33634000" lon="1.50722000"><ele>986.8</ele></trkpt>
    <trkpt lat="42.33723000" lon="1.50715000"><ele>980.3</ele></trkpt>
    <trkpt lat="42.33766000" lon="1.50695000"><ele>977.5</ele></trkpt>
    <trkpt lat="42.33809000" lon="1.50675000"><ele>976.2</ele></trkpt>
    <trkpt lat="42.33815000" lon="1.50671000"><ele>976.2</ele></trkpt>
    <trkpt lat="42.33845000" lon="1.50666000"><ele>975.4</ele></trkpt>
    <trkpt lat="42.33882000" lon="1.50650000"><ele>970.4</ele></trkpt>
    <trkpt lat="42.33888000" lon="1.50646000"><ele>969.9</ele></trkpt>
    <trkpt lat="42.33927000" lon="1.50604000"><ele>964.4</ele></trkpt>
    <trkpt lat="42.33962000" lon="1.50555000"><ele>957.6</ele></trkpt>
    <trkpt lat="42.33976000" lon="1.50554000"><ele>956.0</ele></trkpt>
    <trkpt lat="42.33983000" lon="1.50557000"><ele>954.8</ele></trkpt>
    <trkpt lat="42.34044000" lon="1.50601000"><ele>944.7</ele></trkpt>
    <trkpt lat="42.34121000" lon="1.50641000"><ele>934.1</ele></trkpt>
    <trkpt lat="42.34128000" lon="1.50642000"><ele>933.1</ele></trkpt>
    <trkpt lat="42.34136000" lon="1.50640000"><ele>932.6</ele></trkpt>
    <trkpt lat="42.34157000" lon="1.50628000"><ele>930.4</ele></trkpt>
    <trkpt lat="42.34205000" lon="1.50616000"><ele>932.6</ele></trkpt>
    <trkpt lat="42.34243000" lon="1.50612000"><ele>932.9</ele></trkpt>
    <trkpt lat="42.34270000" lon="1.50619000"><ele>932.5</ele></trkpt>
    <trkpt lat="42.34310000" lon="1.50638000"><ele>932.3</ele></trkpt>
    <trkpt lat="42.34331000" lon="1.50643000"><ele>932.1</ele></trkpt>
    <trkpt lat="42.34348000" lon="1.50643000"><ele>929.6</ele></trkpt>
    <trkpt lat="42.34363000" lon="1.50649000"><ele>927.9</ele></trkpt>
    <trkpt lat="42.34377000" lon="1.50651000"><ele>926.7</ele></trkpt>
    <trkpt lat="42.34386000" lon="1.50657000"><ele>925.9</ele></trkpt>
    <trkpt lat="42.34420000" lon="1.50719000"><ele>922.6</ele></trkpt>
    <trkpt lat="42.34427000" lon="1.50739000"><ele>919.8</ele></trkpt>
    <trkpt lat="42.34440000" lon="1.50825000"><ele>913.9</ele></trkpt>
    <trkpt lat="42.34461000" lon="1.50864000"><ele>911.9</ele></trkpt>
    <trkpt lat="42.34483000" lon="1.50926000"><ele>906.7</ele></trkpt>
    <trkpt lat="42.34495000" lon="1.50951000"><ele>901.9</ele></trkpt>
    <trkpt lat="42.34513000" lon="1.50944000"><ele>894.6</ele></trkpt>
    <trkpt lat="42.34519000" lon="1.50945000"><ele>891.9</ele></trkpt>
    <trkpt lat="42.34517000" lon="1.50957000"><ele>891.9</ele></trkpt>
    <trkpt lat="42.34519000" lon="1.50969000"><ele>886.7</ele></trkpt>
    <trkpt lat="42.34532000" lon="1.50992000"><ele>881.3</ele></trkpt>
    <trkpt lat="42.34546000" lon="1.50992000"><ele>876.7</ele></trkpt>
    <trkpt lat="42.34615000" lon="1.50978000"><ele>865.6</ele></trkpt>
    <trkpt lat="42.34636000" lon="1.50983000"><ele>860.6</ele></trkpt>
    <trkpt lat="42.34635000" lon="1.50993000"><ele>860.3</ele></trkpt>
    <trkpt lat="42.34640000" lon="1.50995000"><ele>860.3</ele></trkpt>
    <trkpt lat="42.34643000" lon="1.50994000"><ele>860.3</ele></trkpt>
    <trkpt lat="42.34650000" lon="1.50983000"><ele>860.3</ele></trkpt>
    <trkpt lat="42.34658000" lon="1.50981000"><ele>852.8</ele></trkpt>
    <trkpt lat="42.34664000" lon="1.50987000"><ele>852.8</ele></trkpt>
    <trkpt lat="42.34671000" lon="1.51003000"><ele>852.8</ele></trkpt>
    <trkpt lat="42.34675000" lon="1.51006000"><ele>852.8</ele></trkpt>
    <trkpt lat="42.34682000" lon="1.50998000"><ele>847.7</ele></trkpt>
    <trkpt lat="42.34693000" lon="1.50991000"><ele>847.7</ele></trkpt>
    <trkpt lat="42.34703000" lon="1.50991000"><ele>847.7</ele></trkpt>
    <trkpt lat="42.34722000" lon="1.51001000"><ele>840.3</ele></trkpt>
    <trkpt lat="42.34736000" lon="1.51003000"><ele>838.8</ele></trkpt>
    <trkpt lat="42.34757000" lon="1.50997000"><ele>835.7</ele></trkpt>
    <trkpt lat="42.34815000" lon="1.50973000"><ele>828.0</ele></trkpt>
    <trkpt lat="42.34836000" lon="1.50963000"><ele>823.8</ele></trkpt>
    <trkpt lat="42.34867000" lon="1.50964000"><ele>821.1</ele></trkpt>
    <trkpt lat="42.34876000" lon="1.50952000"><ele>817.3</ele></trkpt>
    <trkpt lat="42.34880000" lon="1.50942000"><ele>817.3</ele></trkpt>
    <trkpt lat="42.34887000" lon="1.50914000"><ele>814.0</ele></trkpt>
    <trkpt lat="42.34891000" lon="1.50907000"><ele>813.3</ele></trkpt>
    <trkpt lat="42.34905000" lon="1.50907000"><ele>809.6</ele></trkpt>
    <trkpt lat="42.34917000" lon="1.50900000"><ele>808.3</ele></trkpt>
    <trkpt lat="42.34927000" lon="1.50890000"><ele>805.2</ele></trkpt>
    <trkpt lat="42.34939000" lon="1.50887000"><ele>805.2</ele></trkpt>
    <trkpt lat="42.34958000" lon="1.50910000"><ele>801.8</ele></trkpt>
    <trkpt lat="42.34979000" lon="1.50941000"><ele>798.6</ele></trkpt>
    <trkpt lat="42.34997000" lon="1.50959000"><ele>794.2</ele></trkpt>
    <trkpt lat="42.35027000" lon="1.50964000"><ele>791.4</ele></trkpt>
    <trkpt lat="42.35033000" lon="1.50969000"><ele>790.0</ele></trkpt>
    <trkpt lat="42.35037000" lon="1.50987000"><ele>787.6</ele></trkpt>
    <trkpt lat="42.35047000" lon="1.50981000"><ele>784.4</ele></trkpt>
    <trkpt lat="42.35063000" lon="1.50982000"><ele>781.1</ele></trkpt>
    <trkpt lat="42.35076000" lon="1.50988000"><ele>779.0</ele></trkpt>
    <trkpt lat="42.35063000" lon="1.50982000"><ele>781.1</ele></trkpt>
    <trkpt lat="42.35047000" lon="1.50981000"><ele>784.4</ele></trkpt>
    <trkpt lat="42.35037000" lon="1.50987000"><ele>787.6</ele></trkpt>
    <trkpt lat="42.35033000" lon="1.50969000"><ele>790.0</ele></trkpt>
    <trkpt lat="42.35027000" lon="1.50964000"><ele>791.4</ele></trkpt>
    <trkpt lat="42.34997000" lon="1.50959000"><ele>795.5</ele></trkpt>
    <trkpt lat="42.34990000" lon="1.50960000"><ele>795.5</ele></trkpt>
    <trkpt lat="42.34985000" lon="1.50965000"><ele>799.4</ele></trkpt>
    <trkpt lat="42.34983000" lon="1.50974000"><ele>800.4</ele></trkpt>
    <trkpt lat="42.34969000" lon="1.50982000"><ele>802.8</ele></trkpt>
    <trkpt lat="42.34966000" lon="1.50987000"><ele>803.4</ele></trkpt>
    <trkpt lat="42.34968000" lon="1.50996000"><ele>804.2</ele></trkpt>
    <trkpt lat="42.34965000" lon="1.51003000"><ele>804.4</ele></trkpt>
    <trkpt lat="42.34950000" lon="1.51009000"><ele>805.1</ele></trkpt>
    <trkpt lat="42.34943000" lon="1.51010000"><ele>805.3</ele></trkpt>
    <trkpt lat="42.34936000" lon="1.51006000"><ele>805.9</ele></trkpt>
    <trkpt lat="42.34924000" lon="1.51009000"><ele>806.8</ele></trkpt>
    <trkpt lat="42.34917000" lon="1.51009000"><ele>808.0</ele></trkpt>
    <trkpt lat="42.34911000" lon="1.51016000"><ele>808.7</ele></trkpt>
    <trkpt lat="42.34910000" lon="1.51026000"><ele>811.0</ele></trkpt>
    <trkpt lat="42.34899000" lon="1.51034000"><ele>813.2</ele></trkpt>
    <trkpt lat="42.34883000" lon="1.51037000"><ele>814.8</ele></trkpt>
    <trkpt lat="42.34859000" lon="1.51030000"><ele>823.8</ele></trkpt>
    <trkpt lat="42.34854000" lon="1.51037000"><ele>823.8</ele></trkpt>
    <trkpt lat="42.34842000" lon="1.51044000"><ele>823.8</ele></trkpt>
    <trkpt lat="42.34839000" lon="1.51056000"><ele>826.6</ele></trkpt>
  </trkseg></trk>
</gpx>