<?xml version="1.0" encoding="UTF-8"?>
<gpx version="1.1" creator="Xarxa de Corriols d'Alàs i Cerc - v0.5.10" xmlns="http://www.topografix.com/GPX/1/1">
<metadata><name>Volta 10 - 6 km - v0.5.10 - diversa</name></metadata><trk><name>Volta 10 - 6 km - v0.5.10 - diversa</name><trkseg>
<trkpt lat="42.35133841" lon="1.50832496"><ele>768.5</ele></trkpt>
<trkpt lat="42.35104000" lon="1.50867000"><ele>770.8</ele></trkpt>
<trkpt lat="42.35074000" lon="1.50920000"><ele>772.9</ele></trkpt>
<trkpt lat="42.35072000" lon="1.50928000"><ele>772.9</ele></trkpt>
<trkpt lat="42.35082000" lon="1.50960000"><ele>778.0</ele></trkpt>
<trkpt lat="42.35082000" lon="1.50975000"><ele>778.0</ele></trkpt>
<trkpt lat="42.35076000" lon="1.50988000"><ele>779.0</ele></trkpt>
<trkpt lat="42.35066000" lon="1.51010000"><ele>780.1</ele></trkpt>
<trkpt lat="42.35053000" lon="1.51064000"><ele>782.8</ele></trkpt>
<trkpt lat="42.35042000" lon="1.51087000"><ele>784.4</ele></trkpt>
<trkpt lat="42.35046000" lon="1.51087000"><ele>784.4</ele></trkpt>
<trkpt lat="42.35054000" lon="1.51093000"><ele>782.6</ele></trkpt>
<trkpt lat="42.35061000" lon="1.51095000"><ele>782.6</ele></trkpt>
<trkpt lat="42.35140000" lon="1.51070000"><ele>771.6</ele></trkpt>
<trkpt lat="42.35152000" lon="1.51068000"><ele>770.1</ele></trkpt>
<trkpt lat="42.35191000" lon="1.51068000"><ele>766.9</ele></trkpt>
<trkpt lat="42.35256000" lon="1.51075000"><ele>763.2</ele></trkpt>
<trkpt lat="42.35277000" lon="1.51082000"><ele>759.3</ele></trkpt>
<trkpt lat="42.35288000" lon="1.51092000"><ele>759.3</ele></trkpt>
<trkpt lat="42.35294000" lon="1.51108000"><ele>757.2</ele></trkpt>
<trkpt lat="42.35295000" lon="1.51118000"><ele>756.1</ele></trkpt>
<trkpt lat="42.35294000" lon="1.51136000"><ele>754.3</ele></trkpt>
<trkpt lat="42.35297000" lon="1.51146000"><ele>754.3</ele></trkpt>
<trkpt lat="42.35303000" lon="1.51148000"><ele>754.3</ele></trkpt>
<trkpt lat="42.35309000" lon="1.51146000"><ele>749.7</ele></trkpt>
<trkpt lat="42.35367999" lon="1.51111000"><ele>744.0</ele></trkpt>
<trkpt lat="42.35375000" lon="1.51104000"><ele>742.8</ele></trkpt>
<trkpt lat="42.35421500" lon="1.51170000"><ele>742.2</ele></trkpt>
<trkpt lat="42.35468000" lon="1.51236000"><ele>743.1</ele></trkpt>
<trkpt lat="42.35454000" lon="1.51270000"><ele>745.2</ele></trkpt>
<trkpt lat="42.35450000" lon="1.51283000"><ele>746.6</ele></trkpt>
<trkpt lat="42.35483000" lon="1.51283000"><ele>752.5</ele></trkpt>
<trkpt lat="42.35516000" lon="1.51328000"><ele>761.2</ele></trkpt>
<trkpt lat="42.35549500" lon="1.51416500"><ele>778.7</ele></trkpt>
<trkpt lat="42.35583000" lon="1.51505000"><ele>794.6</ele></trkpt>
<trkpt lat="42.35623000" lon="1.51579000"><ele>804.0</ele></trkpt>
<trkpt lat="42.35628000" lon="1.51615000"><ele>810.6</ele></trkpt>
<trkpt lat="42.35585000" lon="1.51567000"><ele>812.7</ele></trkpt>
<trkpt lat="42.35535000" lon="1.51519000"><ele>816.2</ele></trkpt>
<trkpt lat="42.35495000" lon="1.51474000"><ele>818.4</ele></trkpt>
<trkpt lat="42.35476000" lon="1.51462000"><ele>819.7</ele></trkpt>
<trkpt lat="42.35459000" lon="1.51458000"><ele>820.4</ele></trkpt>
<trkpt lat="42.35411500" lon="1.51456500"><ele>821.0</ele></trkpt>
<trkpt lat="42.35364000" lon="1.51455000"><ele>820.8</ele></trkpt>
<trkpt lat="42.35323000" lon="1.51457000"><ele>821.4</ele></trkpt>
<trkpt lat="42.35317000" lon="1.51453000"><ele>821.4</ele></trkpt>
<trkpt lat="42.35314000" lon="1.51439000"><ele>822.1</ele></trkpt>
<trkpt lat="42.35317000" lon="1.51419000"><ele>822.6</ele></trkpt>
<trkpt lat="42.35316000" lon="1.51407000"><ele>822.6</ele></trkpt>
<trkpt lat="42.35312000" lon="1.51397000"><ele>824.0</ele></trkpt>
<trkpt lat="42.35304000" lon="1.51388000"><ele>824.6</ele></trkpt>
<trkpt lat="42.35278000" lon="1.51376000"><ele>826.5</ele></trkpt>
<trkpt lat="42.35262000" lon="1.51346000"><ele>823.7</ele></trkpt>
<trkpt lat="42.35282000" lon="1.51386000"><ele>828.5</ele></trkpt>
<trkpt lat="42.35290000" lon="1.51394000"><ele>828.5</ele></trkpt>
<trkpt lat="42.35296000" lon="1.51405000"><ele>829.5</ele></trkpt>
<trkpt lat="42.35297000" lon="1.51417000"><ele>830.4</ele></trkpt>
<trkpt lat="42.35291000" lon="1.51423000"><ele>831.2</ele></trkpt>
<trkpt lat="42.35289000" lon="1.51426000"><ele>831.2</ele></trkpt>
<trkpt lat="42.35283000" lon="1.51427000"><ele>832.8</ele></trkpt>
<trkpt lat="42.35276000" lon="1.51424000"><ele>832.8</ele></trkpt>
<trkpt lat="42.35260000" lon="1.51404000"><ele>834.6</ele></trkpt>
<trkpt lat="42.35232000" lon="1.51385000"><ele>836.1</ele></trkpt>
<trkpt lat="42.35238988" lon="1.51364010"><ele>828.5</ele></trkpt>
<trkpt lat="42.35233000" lon="1.51369000"><ele>836.1</ele></trkpt>
<trkpt lat="42.35232000" lon="1.51385000"><ele>836.1</ele></trkpt>
<trkpt lat="42.35235000" lon="1.51410000"><ele>839.5</ele></trkpt>
<trkpt lat="42.35234000" lon="1.51415000"><ele>840.2</ele></trkpt>
<trkpt lat="42.35239000" lon="1.51431000"><ele>842.3</ele></trkpt>
<trkpt lat="42.35236000" lon="1.51442000"><ele>843.0</ele></trkpt>
<trkpt lat="42.35221000" lon="1.51464000"><ele>847.9</ele></trkpt>
<trkpt lat="42.35210000" lon="1.51471000"><ele>850.5</ele></trkpt>
<trkpt lat="42.35207000" lon="1.51478000"><ele>851.4</ele></trkpt>
<trkpt lat="42.35204000" lon="1.51480000"><ele>851.4</ele></trkpt>
<trkpt lat="42.35192000" lon="1.51496000"><ele>854.1</ele></trkpt>
<trkpt lat="42.35181000" lon="1.51504000"><ele>856.5</ele></trkpt>
<trkpt lat="42.35189000" lon="1.51473000"><ele>859.5</ele></trkpt>
<trkpt lat="42.35185000" lon="1.51465000"><ele>860.5</ele></trkpt>
<trkpt lat="42.35180000" lon="1.51464000"><ele>860.5</ele></trkpt>
<trkpt lat="42.35153000" lon="1.51516000"><ele>864.8</ele></trkpt>
<trkpt lat="42.35141000" lon="1.51526000"><ele>865.6</ele></trkpt>
<trkpt lat="42.35126000" lon="1.51550000"><ele>867.1</ele></trkpt>
<trkpt lat="42.35125989" lon="1.51550007"><ele>867.1</ele></trkpt>
<trkpt lat="42.35113000" lon="1.51558000"><ele>869.8</ele></trkpt>
<trkpt lat="42.35122000" lon="1.51622000"><ele>872.6</ele></trkpt>
<trkpt lat="42.35125000" lon="1.51674000"><ele>877.3</ele></trkpt>
<trkpt lat="42.35134000" lon="1.51679000"><ele>878.0</ele></trkpt>
<trkpt lat="42.35161000" lon="1.51671000"><ele>881.7</ele></trkpt>
<trkpt lat="42.35200000" lon="1.51703000"><ele>883.3</ele></trkpt>
<trkpt lat="42.35208000" lon="1.51730000"><ele>890.0</ele></trkpt>
<trkpt lat="42.35190000" lon="1.51784000"><ele>903.2</ele></trkpt>
<trkpt lat="42.35159000" lon="1.51791000"><ele>904.3</ele></trkpt>
<trkpt lat="42.35126000" lon="1.51815000"><ele>905.8</ele></trkpt>
<trkpt lat="42.35079000" lon="1.51817000"><ele>908.7</ele></trkpt>
<trkpt lat="42.35066000" lon="1.51778000"><ele>902.3</ele></trkpt>
<trkpt lat="42.35088000" lon="1.51719000"><ele>893.9</ele></trkpt>
<trkpt lat="42.35082000" lon="1.51637000"><ele>886.8</ele></trkpt>
<trkpt lat="42.35066000" lon="1.51555000"><ele>874.9</ele></trkpt>
<trkpt lat="42.35050000" lon="1.51473000"><ele>862.6</ele></trkpt>
<trkpt lat="42.35047000" lon="1.51431000"><ele>855.9</ele></trkpt>
<trkpt lat="42.35047000" lon="1.51430000"><ele>855.9</ele></trkpt>
<trkpt lat="42.35046000" lon="1.51407000"><ele>851.5</ele></trkpt>
<trkpt lat="42.35047000" lon="1.51405000"><ele>851.5</ele></trkpt>
<trkpt lat="42.35036000" lon="1.51406000"><ele>848.4</ele></trkpt>
<trkpt lat="42.35025000" lon="1.51400000"><ele>848.4</ele></trkpt>
<trkpt lat="42.35023000" lon="1.51397000"><ele>848.4</ele></trkpt>
<trkpt lat="42.35027000" lon="1.51385000"><ele>841.9</ele></trkpt>
<trkpt lat="42.35022000" lon="1.51389000"><ele>841.9</ele></trkpt>
<trkpt lat="42.35019000" lon="1.51387000"><ele>840.8</ele></trkpt>
<trkpt lat="42.35022000" lon="1.51363000"><ele>836.8</ele></trkpt>
<trkpt lat="42.35017000" lon="1.51352000"><ele>834.5</ele></trkpt>
<trkpt lat="42.35017000" lon="1.51345000"><ele>833.2</ele></trkpt>
<trkpt lat="42.35013000" lon="1.51343000"><ele>833.2</ele></trkpt>
<trkpt lat="42.35018000" lon="1.51331000"><ele>827.6</ele></trkpt>
<trkpt lat="42.35017000" lon="1.51329000"><ele>827.6</ele></trkpt>
<trkpt lat="42.35010000" lon="1.51330000"><ele>826.2</ele></trkpt>
<trkpt lat="42.35010000" lon="1.51328000"><ele>826.2</ele></trkpt>
<trkpt lat="42.35019000" lon="1.51313000"><ele>820.5</ele></trkpt>
<trkpt lat="42.35026000" lon="1.51313000"><ele>820.5</ele></trkpt>
<trkpt lat="42.35033000" lon="1.51306000"><ele>818.4</ele></trkpt>
<trkpt lat="42.35036000" lon="1.51306000"><ele>815.3</ele></trkpt>
<trkpt lat="42.35039000" lon="1.51303000"><ele>815.3</ele></trkpt>
<trkpt lat="42.35042000" lon="1.51297000"><ele>815.3</ele></trkpt>
<trkpt lat="42.35048000" lon="1.51298000"><ele>815.3</ele></trkpt>
<trkpt lat="42.35051000" lon="1.51297000"><ele>809.9</ele></trkpt>
<trkpt lat="42.35053000" lon="1.51287000"><ele>809.9</ele></trkpt>
<trkpt lat="42.35059000" lon="1.51291000"><ele>808.9</ele></trkpt>
<trkpt lat="42.35062000" lon="1.51290000"><ele>808.0</ele></trkpt>
<trkpt lat="42.35063000" lon="1.51285000"><ele>807.2</ele></trkpt>
<trkpt lat="42.35038000" lon="1.51300000"><ele>817.7</ele></trkpt>
<trkpt lat="42.35042000" lon="1.51261000"><ele>808.0</ele></trkpt>
<trkpt lat="42.35021000" lon="1.51266000"><ele>811.1</ele></trkpt>
<trkpt lat="42.34982000" lon="1.51298000"><ele>822.3</ele></trkpt>
<trkpt lat="42.34923000" lon="1.51322000"><ele>830.2</ele></trkpt>
<trkpt lat="42.34900000" lon="1.51345000"><ele>838.1</ele></trkpt>
<trkpt lat="42.34896000" lon="1.51382000"><ele>846.3</ele></trkpt>
<trkpt lat="42.34895000" lon="1.51416000"><ele>853.2</ele></trkpt>
<trkpt lat="42.34895000" lon="1.51450000"><ele>859.9</ele></trkpt>
<trkpt lat="42.34889000" lon="1.51471000"><ele>864.7</ele></trkpt>
<trkpt lat="42.34875000" lon="1.51489000"><ele>869.2</ele></trkpt>
<trkpt lat="42.34860000" lon="1.51512000"><ele>875.2</ele></trkpt>
<trkpt lat="42.34855000" lon="1.51534000"><ele>880.5</ele></trkpt>
<trkpt lat="42.34868000" lon="1.51552000"><ele>885.8</ele></trkpt>
<trkpt lat="42.34862000" lon="1.51574000"><ele>891.2</ele></trkpt>
<trkpt lat="42.34859000" lon="1.51609000"><ele>899.3</ele></trkpt>
<trkpt lat="42.34849000" lon="1.51644000"><ele>907.4</ele></trkpt>
<trkpt lat="42.34841000" lon="1.51683000"><ele>915.2</ele></trkpt>
<trkpt lat="42.34835000" lon="1.51708000"><ele>921.1</ele></trkpt>
<trkpt lat="42.34812000" lon="1.51714000"><ele>921.9</ele></trkpt>
<trkpt lat="42.34797000" lon="1.51718000"><ele>922.8</ele></trkpt>
<trkpt lat="42.34783000" lon="1.51734000"><ele>926.3</ele></trkpt>
<trkpt lat="42.34764000" lon="1.51724000"><ele>924.7</ele></trkpt>
<trkpt lat="42.34749000" lon="1.51710000"><ele>921.6</ele></trkpt>
<trkpt lat="42.34731000" lon="1.51720000"><ele>923.2</ele></trkpt>
<trkpt lat="42.34714000" lon="1.51715000"><ele>928.0</ele></trkpt>
<trkpt lat="42.34706000" lon="1.51717000"><ele>928.0</ele></trkpt>
<trkpt lat="42.34685000" lon="1.51727000"><ele>925.5</ele></trkpt>
<trkpt lat="42.34684996" lon="1.51727005"><ele>925.5</ele></trkpt>
<trkpt lat="42.34679000" lon="1.51734000"><ele>925.1</ele></trkpt>
<trkpt lat="42.34670000" lon="1.51746000"><ele>924.2</ele></trkpt>
<trkpt lat="42.34663000" lon="1.51749000"><ele>924.2</ele></trkpt>
<trkpt lat="42.34636000" lon="1.51734000"><ele>921.2</ele></trkpt>
<trkpt lat="42.34614000" lon="1.51730000"><ele>918.9</ele></trkpt>
<trkpt lat="42.34606000" lon="1.51726000"><ele>918.3</ele></trkpt>
<trkpt lat="42.34602000" lon="1.51721000"><ele>916.0</ele></trkpt>
<trkpt lat="42.34597000" lon="1.51709000"><ele>916.0</ele></trkpt>
<trkpt lat="42.34594000" lon="1.51693000"><ele>912.3</ele></trkpt>
<trkpt lat="42.34595000" lon="1.51674000"><ele>912.3</ele></trkpt>
<trkpt lat="42.34605000" lon="1.51659000"><ele>909.6</ele></trkpt>
<trkpt lat="42.34626000" lon="1.51640000"><ele>905.6</ele></trkpt>
<trkpt lat="42.34635000" lon="1.51629000"><ele>903.7</ele></trkpt>
<trkpt lat="42.34639000" lon="1.51562000"><ele>893.9</ele></trkpt>
<trkpt lat="42.34648000" lon="1.51536000"><ele>886.3</ele></trkpt>
<trkpt lat="42.34671000" lon="1.51487000"><ele>878.1</ele></trkpt>
<trkpt lat="42.34685000" lon="1.51469000"><ele>876.4</ele></trkpt>
<trkpt lat="42.34705000" lon="1.51449000"><ele>872.4</ele></trkpt>
<trkpt lat="42.34723000" lon="1.51397000"><ele>866.1</ele></trkpt>
<trkpt lat="42.34724000" lon="1.51344000"><ele>860.1</ele></trkpt>
<trkpt lat="42.34730000" lon="1.51315000"><ele>857.3</ele></trkpt>
<trkpt lat="42.34742000" lon="1.51282000"><ele>854.0</ele></trkpt>
<trkpt lat="42.34762000" lon="1.51217000"><ele>846.6</ele></trkpt>
<trkpt lat="42.34789000" lon="1.51147000"><ele>841.2</ele></trkpt>
<trkpt lat="42.34805000" lon="1.51121000"><ele>838.0</ele></trkpt>
<trkpt lat="42.34812000" lon="1.51105000"><ele>835.7</ele></trkpt>
<trkpt lat="42.34835000" lon="1.51082000"><ele>829.6</ele></trkpt>
<trkpt lat="42.34840000" lon="1.51075000"><ele>828.8</ele></trkpt>
<trkpt lat="42.34840001" lon="1.51074983"><ele>828.8</ele></trkpt>
<trkpt lat="42.34839000" lon="1.51056000"><ele>826.6</ele></trkpt>
<trkpt lat="42.34838000" lon="1.51052000"><ele>826.6</ele></trkpt>
<trkpt lat="42.34820000" lon="1.51041000"><ele>826.7</ele></trkpt>
<trkpt lat="42.34812000" lon="1.51034000"><ele>827.1</ele></trkpt>
<trkpt lat="42.34813000" lon="1.51025000"><ele>827.2</ele></trkpt>
<trkpt lat="42.34821000" lon="1.50999000"><ele>827.6</ele></trkpt>
<trkpt lat="42.34815000" lon="1.50973000"><ele>828.0</ele></trkpt>
<trkpt lat="42.34757000" lon="1.50997000"><ele>835.7</ele></trkpt>
<trkpt lat="42.34736000" lon="1.51003000"><ele>838.8</ele></trkpt>
<trkpt lat="42.34722000" lon="1.51001000"><ele>840.3</ele></trkpt>
<trkpt lat="42.34703000" lon="1.50991000"><ele>847.7</ele></trkpt>
<trkpt lat="42.34693000" lon="1.50991000"><ele>847.7</ele></trkpt>
<trkpt lat="42.34682000" lon="1.50998000"><ele>847.7</ele></trkpt>
<trkpt lat="42.34675000" lon="1.51006000"><ele>852.8</ele></trkpt>
<trkpt lat="42.34671000" lon="1.51003000"><ele>852.8</ele></trkpt>
<trkpt lat="42.34664000" lon="1.50987000"><ele>852.8</ele></trkpt>
<trkpt lat="42.34658000" lon="1.50981000"><ele>852.8</ele></trkpt>
<trkpt lat="42.34650000" lon="1.50983000"><ele>860.3</ele></trkpt>
<trkpt lat="42.34643000" lon="1.50994000"><ele>860.3</ele></trkpt>
<trkpt lat="42.34640000" lon="1.50995000"><ele>860.3</ele></trkpt>
<trkpt lat="42.34635000" lon="1.50993000"><ele>860.3</ele></trkpt>
<trkpt lat="42.34636000" lon="1.50983000"><ele>860.6</ele></trkpt>
<trkpt lat="42.34640000" lon="1.50957000"><ele>858.6</ele></trkpt>
<trkpt lat="42.34639000" lon="1.50926000"><ele>859.0</ele></trkpt>
<trkpt lat="42.34613000" lon="1.50872000"><ele>859.0</ele></trkpt>
<trkpt lat="42.34604000" lon="1.50847000"><ele>860.1</ele></trkpt>
<trkpt lat="42.34604000" lon="1.50827000"><ele>861.9</ele></trkpt>
<trkpt lat="42.34608000" lon="1.50818000"><ele>862.2</ele></trkpt>
<trkpt lat="42.34613000" lon="1.50816000"><ele>862.2</ele></trkpt>
<trkpt lat="42.34620000" lon="1.50792000"><ele>861.4</ele></trkpt>
<trkpt lat="42.34620000" lon="1.50778000"><ele>861.2</ele></trkpt>
<trkpt lat="42.34605000" lon="1.50679000"><ele>861.8</ele></trkpt>
<trkpt lat="42.34614000" lon="1.50649000"><ele>861.1</ele></trkpt>
<trkpt lat="42.34615000" lon="1.50622000"><ele>862.4</ele></trkpt>
<trkpt lat="42.34612000" lon="1.50607000"><ele>863.0</ele></trkpt>
<trkpt lat="42.34603000" lon="1.50595000"><ele>865.8</ele></trkpt>
<trkpt lat="42.34593000" lon="1.50592000"><ele>866.9</ele></trkpt>
<trkpt lat="42.34585000" lon="1.50582000"><ele>868.3</ele></trkpt>
<trkpt lat="42.34558000" lon="1.50508000"><ele>871.8</ele></trkpt>
<trkpt lat="42.34560000" lon="1.50499000"><ele>871.8</ele></trkpt>
<trkpt lat="42.34615000" lon="1.50481000"><ele>868.7</ele></trkpt>
<trkpt lat="42.34621000" lon="1.50473000"><ele>868.0</ele></trkpt>
<trkpt lat="42.34630000" lon="1.50443000"><ele>865.7</ele></trkpt>
<trkpt lat="42.34639000" lon="1.50396000"><ele>862.3</ele></trkpt>
<trkpt lat="42.34648000" lon="1.50374000"><ele>860.6</ele></trkpt>
<trkpt lat="42.34669000" lon="1.50342000"><ele>858.1</ele></trkpt>
<trkpt lat="42.34671000" lon="1.50331000"><ele>858.1</ele></trkpt>
<trkpt lat="42.34671000" lon="1.50307000"><ele>852.8</ele></trkpt>
<trkpt lat="42.34668000" lon="1.50297000"><ele>852.8</ele></trkpt>
<trkpt lat="42.34663000" lon="1.50291000"><ele>852.8</ele></trkpt>
<trkpt lat="42.34630000" lon="1.50291000"><ele>850.0</ele></trkpt>
<trkpt lat="42.34557000" lon="1.50278000"><ele>843.3</ele></trkpt>
<trkpt lat="42.34542000" lon="1.50271000"><ele>842.3</ele></trkpt>
<trkpt lat="42.34513000" lon="1.50249000"><ele>838.4</ele></trkpt>
<trkpt lat="42.34502000" lon="1.50237000"><ele>837.5</ele></trkpt>
<trkpt lat="42.34489000" lon="1.50230000"><ele>836.5</ele></trkpt>
<trkpt lat="42.34487000" lon="1.50222000"><ele>836.1</ele></trkpt>
<trkpt lat="42.34492000" lon="1.50216000"><ele>835.0</ele></trkpt>
<trkpt lat="42.34557000" lon="1.50230000"><ele>827.5</ele></trkpt>
<trkpt lat="42.34568000" lon="1.50229000"><ele>827.1</ele></trkpt>
<trkpt lat="42.34575000" lon="1.50219000"><ele>825.0</ele></trkpt>
<trkpt lat="42.34594000" lon="1.50212000"><ele>823.5</ele></trkpt>
<trkpt lat="42.34614000" lon="1.50211000"><ele>822.8</ele></trkpt>
<trkpt lat="42.34630000" lon="1.50214000"><ele>821.5</ele></trkpt>
<trkpt lat="42.34650000" lon="1.50224000"><ele>820.8</ele></trkpt>
<trkpt lat="42.34666000" lon="1.50229000"><ele>820.2</ele></trkpt>
<trkpt lat="42.34692000" lon="1.50216000"><ele>817.0</ele></trkpt>
<trkpt lat="42.34702000" lon="1.50209000"><ele>816.4</ele></trkpt>
<trkpt lat="42.34704000" lon="1.50202000"><ele>814.3</ele></trkpt>
<trkpt lat="42.34678000" lon="1.50128000"><ele>808.0</ele></trkpt>
<trkpt lat="42.34680000" lon="1.50107000"><ele>804.9</ele></trkpt>
<trkpt lat="42.34688000" lon="1.50102000"><ele>802.7</ele></trkpt>
<trkpt lat="42.34768000" lon="1.50115000"><ele>796.6</ele></trkpt>
<trkpt lat="42.34784000" lon="1.50126000"><ele>794.4</ele></trkpt>
<trkpt lat="42.34827000" lon="1.50202000"><ele>783.2</ele></trkpt>
<trkpt lat="42.34842000" lon="1.50221000"><ele>782.3</ele></trkpt>
<trkpt lat="42.34849000" lon="1.50232000"><ele>781.0</ele></trkpt>
<trkpt lat="42.34848000" lon="1.50222000"><ele>780.4</ele></trkpt>
<trkpt lat="42.34859000" lon="1.50252000"></trkpt>
<trkpt lat="42.34859000" lon="1.50252000"><ele>780.1</ele></trkpt>
<trkpt lat="42.34872000" lon="1.50261000"><ele>779.3</ele></trkpt>
<trkpt lat="42.34893000" lon="1.50267000"><ele>776.6</ele></trkpt>
<trkpt lat="42.34905000" lon="1.50280000"><ele>775.4</ele></trkpt>
<trkpt lat="42.34926000" lon="1.50288000"><ele>771.9</ele></trkpt>
<trkpt lat="42.34989000" lon="1.50351000"><ele>765.3</ele></trkpt>
<trkpt lat="42.35013000" lon="1.50387000"><ele>765.8</ele></trkpt>
<trkpt lat="42.35029000" lon="1.50441000"><ele>766.9</ele></trkpt>
<trkpt lat="42.35039000" lon="1.50503000"><ele>766.5</ele></trkpt>
<trkpt lat="42.35040000" lon="1.50554000"><ele>766.3</ele></trkpt>
<trkpt lat="42.35047000" lon="1.50574000"><ele>765.5</ele></trkpt>
<trkpt lat="42.35075000" lon="1.50613000"><ele>765.2</ele></trkpt>
<trkpt lat="42.35075016" lon="1.50613006"><ele>765.2</ele></trkpt>
<trkpt lat="42.35071000" lon="1.50608000"><ele>765.2</ele></trkpt>
<trkpt lat="42.35075000" lon="1.50613000"><ele>765.2</ele></trkpt>
<trkpt lat="42.35089000" lon="1.50618000"><ele>764.1</ele></trkpt>
<trkpt lat="42.35112000" lon="1.50637000"><ele>761.2</ele></trkpt>
<trkpt lat="42.35128000" lon="1.50661000"><ele>759.4</ele></trkpt>
<trkpt lat="42.35134000" lon="1.50704000"><ele>765.8</ele></trkpt>
<trkpt lat="42.35136000" lon="1.50747000"><ele>766.7</ele></trkpt>
<trkpt lat="42.35154000" lon="1.50769000"><ele>765.4</ele></trkpt>
<trkpt lat="42.35176000" lon="1.50812000"><ele>763.6</ele></trkpt>
<trkpt lat="42.35172996" lon="1.50813002"><ele>765.6</ele></trkpt>
<trkpt lat="42.35142000" lon="1.50826000"><ele>768.3</ele></trkpt>
</trkseg></trk></gpx>