<?xml version="1.0" encoding="UTF-8"?>
<gpx version="1.1" creator="Xarxa de Corriols d'Alàs i Cerc - v0.5.10" xmlns="http://www.topografix.com/GPX/1/1">
<metadata><name>Volta 6 - 6 km - v0.5.10 - diversa</name></metadata><trk><name>Volta 6 - 6 km - v0.5.10 - diversa</name><trkseg>
<trkpt lat="42.35142000" lon="1.50826000"><ele>768.3</ele></trkpt>
<trkpt lat="42.35173000" lon="1.50813000"><ele>765.6</ele></trkpt>
<trkpt lat="42.35173000" lon="1.50813000"><ele>765.6</ele></trkpt>
<trkpt lat="42.35189000" lon="1.50814000"><ele>764.2</ele></trkpt>
<trkpt lat="42.35199945" lon="1.50807035"><ele>761.7</ele></trkpt>
<trkpt lat="42.35205000" lon="1.50791000"><ele>760.4</ele></trkpt>
<trkpt lat="42.35233996" lon="1.50771003"><ele>758.3</ele></trkpt>
<trkpt lat="42.35232000" lon="1.50742000"><ele>756.2</ele></trkpt>
<trkpt lat="42.35223000" lon="1.50677000"><ele>753.7</ele></trkpt>
<trkpt lat="42.35219000" lon="1.50659000"><ele>753.3</ele></trkpt>
<trkpt lat="42.35219000" lon="1.50660000"><ele>753.3</ele></trkpt>
<trkpt lat="42.35194000" lon="1.50595000"><ele>750.6</ele></trkpt>
<trkpt lat="42.35158000" lon="1.50516000"><ele>749.0</ele></trkpt>
<trkpt lat="42.35158000" lon="1.50482009"><ele>748.7</ele></trkpt>
<trkpt lat="42.35156000" lon="1.50452001"><ele>748.7</ele></trkpt>
<trkpt lat="42.35156000" lon="1.50452000"><ele>748.7</ele></trkpt>
<trkpt lat="42.35147000" lon="1.50449000"><ele>749.0</ele></trkpt>
<trkpt lat="42.35098000" lon="1.50468000"><ele>752.4</ele></trkpt>
<trkpt lat="42.35059000" lon="1.50482000"><ele>761.6</ele></trkpt>
<trkpt lat="42.35075000" lon="1.50561000"><ele>762.7</ele></trkpt>
<trkpt lat="42.35071000" lon="1.50608000"><ele>765.2</ele></trkpt>
<trkpt lat="42.35075016" lon="1.50613006"><ele>765.2</ele></trkpt>
<trkpt lat="42.35075000" lon="1.50613000"><ele>765.2</ele></trkpt>
<trkpt lat="42.35047000" lon="1.50574000"><ele>765.5</ele></trkpt>
<trkpt lat="42.35040000" lon="1.50554000"><ele>766.3</ele></trkpt>
<trkpt lat="42.35039000" lon="1.50503000"><ele>766.5</ele></trkpt>
<trkpt lat="42.35029000" lon="1.50441000"><ele>766.9</ele></trkpt>
<trkpt lat="42.35013000" lon="1.50387000"><ele>765.8</ele></trkpt>
<trkpt lat="42.34989000" lon="1.50351000"><ele>765.3</ele></trkpt>
<trkpt lat="42.34926000" lon="1.50288000"><ele>771.9</ele></trkpt>
<trkpt lat="42.34905000" lon="1.50280000"><ele>775.4</ele></trkpt>
<trkpt lat="42.34893000" lon="1.50267000"><ele>776.6</ele></trkpt>
<trkpt lat="42.34872000" lon="1.50261000"><ele>779.3</ele></trkpt>
<trkpt lat="42.34859000" lon="1.50252000"><ele>780.1</ele></trkpt>
<trkpt lat="42.34858990" lon="1.50251981"><ele>780.1</ele></trkpt>
<trkpt lat="42.34848500" lon="1.50227000"></trkpt>
<trkpt lat="42.34848000" lon="1.50222000"><ele>780.4</ele></trkpt>
<trkpt lat="42.34849000" lon="1.50232000"><ele>781.0</ele></trkpt>
<trkpt lat="42.34842000" lon="1.50221000"><ele>782.3</ele></trkpt>
<trkpt lat="42.34827000" lon="1.50202000"><ele>783.2</ele></trkpt>
<trkpt lat="42.34784000" lon="1.50126000"><ele>794.4</ele></trkpt>
<trkpt lat="42.34768000" lon="1.50115000"><ele>796.6</ele></trkpt>
<trkpt lat="42.34688000" lon="1.50102000"><ele>802.7</ele></trkpt>
<trkpt lat="42.34680000" lon="1.50107000"><ele>804.9</ele></trkpt>
<trkpt lat="42.34678000" lon="1.50128000"><ele>808.0</ele></trkpt>
<trkpt lat="42.34704000" lon="1.50202000"><ele>814.3</ele></trkpt>
<trkpt lat="42.34702000" lon="1.50209000"><ele>816.4</ele></trkpt>
<trkpt lat="42.34692000" lon="1.50216000"><ele>817.0</ele></trkpt>
<trkpt lat="42.34666000" lon="1.50229000"><ele>820.2</ele></trkpt>
<trkpt lat="42.34650000" lon="1.50224000"><ele>820.8</ele></trkpt>
<trkpt lat="42.34630000" lon="1.50214000"><ele>821.5</ele></trkpt>
<trkpt lat="42.34614000" lon="1.50211000"><ele>822.8</ele></trkpt>
<trkpt lat="42.34594000" lon="1.50212000"><ele>823.5</ele></trkpt>
<trkpt lat="42.34575000" lon="1.50219000"><ele>825.0</ele></trkpt>
<trkpt lat="42.34568000" lon="1.50229000"><ele>827.1</ele></trkpt>
<trkpt lat="42.34557000" lon="1.50230000"><ele>827.5</ele></trkpt>
<trkpt lat="42.34492000" lon="1.50216000"><ele>835.0</ele></trkpt>
<trkpt lat="42.34487000" lon="1.50222000"><ele>836.1</ele></trkpt>
<trkpt lat="42.34489000" lon="1.50230000"><ele>836.5</ele></trkpt>
<trkpt lat="42.34502000" lon="1.50237000"><ele>837.5</ele></trkpt>
<trkpt lat="42.34513000" lon="1.50249000"><ele>838.4</ele></trkpt>
<trkpt lat="42.34542000" lon="1.50271000"><ele>842.3</ele></trkpt>
<trkpt lat="42.34557000" lon="1.50278000"><ele>843.3</ele></trkpt>
<trkpt lat="42.34630000" lon="1.50291000"><ele>850.0</ele></trkpt>
<trkpt lat="42.34663000" lon="1.50291000"><ele>852.8</ele></trkpt>
<trkpt lat="42.34668000" lon="1.50297000"><ele>852.8</ele></trkpt>
<trkpt lat="42.34671000" lon="1.50307000"><ele>852.8</ele></trkpt>
<trkpt lat="42.34671000" lon="1.50331000"><ele>858.1</ele></trkpt>
<trkpt lat="42.34669000" lon="1.50342000"><ele>858.1</ele></trkpt>
<trkpt lat="42.34648000" lon="1.50374000"><ele>860.6</ele></trkpt>
<trkpt lat="42.34639000" lon="1.50396000"><ele>862.3</ele></trkpt>
<trkpt lat="42.34630000" lon="1.50443000"><ele>865.7</ele></trkpt>
<trkpt lat="42.34621000" lon="1.50473000"><ele>868.0</ele></trkpt>
<trkpt lat="42.34615000" lon="1.50481000"><ele>868.7</ele></trkpt>
<trkpt lat="42.34560000" lon="1.50499000"><ele>871.8</ele></trkpt>
<trkpt lat="42.34558000" lon="1.50508000"><ele>871.8</ele></trkpt>
<trkpt lat="42.34585000" lon="1.50582000"><ele>868.3</ele></trkpt>
<trkpt lat="42.34593000" lon="1.50592000"><ele>866.9</ele></trkpt>
<trkpt lat="42.34603000" lon="1.50595000"><ele>865.8</ele></trkpt>
<trkpt lat="42.34612000" lon="1.50607000"><ele>863.0</ele></trkpt>
<trkpt lat="42.34615000" lon="1.50622000"><ele>862.4</ele></trkpt>
<trkpt lat="42.34614000" lon="1.50649000"><ele>861.1</ele></trkpt>
<trkpt lat="42.34605000" lon="1.50679000"><ele>861.8</ele></trkpt>
<trkpt lat="42.34620000" lon="1.50778000"><ele>861.2</ele></trkpt>
<trkpt lat="42.34620000" lon="1.50792000"><ele>861.4</ele></trkpt>
<trkpt lat="42.34613000" lon="1.50816000"><ele>862.2</ele></trkpt>
<trkpt lat="42.34608000" lon="1.50818000"><ele>862.2</ele></trkpt>
<trkpt lat="42.34604000" lon="1.50827000"><ele>861.9</ele></trkpt>
<trkpt lat="42.34604000" lon="1.50847000"><ele>860.1</ele></trkpt>
<trkpt lat="42.34613000" lon="1.50872000"><ele>859.0</ele></trkpt>
<trkpt lat="42.34639000" lon="1.50926000"><ele>859.0</ele></trkpt>
<trkpt lat="42.34640000" lon="1.50957000"><ele>858.6</ele></trkpt>
<trkpt lat="42.34636000" lon="1.50983000"><ele>860.6</ele></trkpt>
<trkpt lat="42.34635000" lon="1.50993000"><ele>860.3</ele></trkpt>
<trkpt lat="42.34640000" lon="1.50995000"><ele>860.3</ele></trkpt>
<trkpt lat="42.34643000" lon="1.50994000"><ele>860.3</ele></trkpt>
<trkpt lat="42.34650000" lon="1.50983000"><ele>860.3</ele></trkpt>
<trkpt lat="42.34658000" lon="1.50981000"><ele>852.8</ele></trkpt>
<trkpt lat="42.34664000" lon="1.50987000"><ele>852.8</ele></trkpt>
<trkpt lat="42.34671000" lon="1.51003000"><ele>852.8</ele></trkpt>
<trkpt lat="42.34675000" lon="1.51006000"><ele>852.8</ele></trkpt>
<trkpt lat="42.34682000" lon="1.50998000"><ele>847.7</ele></trkpt>
<trkpt lat="42.34693000" lon="1.50991000"><ele>847.7</ele></trkpt>
<trkpt lat="42.34703000" lon="1.50991000"><ele>847.7</ele></trkpt>
<trkpt lat="42.34722000" lon="1.51001000"><ele>840.3</ele></trkpt>
<trkpt lat="42.34736000" lon="1.51003000"><ele>838.8</ele></trkpt>
<trkpt lat="42.34757000" lon="1.50997000"><ele>835.7</ele></trkpt>
<trkpt lat="42.34815000" lon="1.50973000"><ele>828.0</ele></trkpt>
<trkpt lat="42.34836000" lon="1.50963000"><ele>823.8</ele></trkpt>
<trkpt lat="42.34867000" lon="1.50964000"><ele>821.1</ele></trkpt>
<trkpt lat="42.34876000" lon="1.50952000"><ele>817.3</ele></trkpt>
<trkpt lat="42.34880000" lon="1.50942000"><ele>817.3</ele></trkpt>
<trkpt lat="42.34887000" lon="1.50914000"><ele>814.0</ele></trkpt>
<trkpt lat="42.34891000" lon="1.50907000"><ele>813.3</ele></trkpt>
<trkpt lat="42.34905000" lon="1.50907000"><ele>809.6</ele></trkpt>
<trkpt lat="42.34917000" lon="1.50900000"><ele>808.3</ele></trkpt>
<trkpt lat="42.34927000" lon="1.50890000"><ele>805.2</ele></trkpt>
<trkpt lat="42.34939000" lon="1.50887000"><ele>805.2</ele></trkpt>
<trkpt lat="42.34958000" lon="1.50910000"><ele>801.8</ele></trkpt>
<trkpt lat="42.34979000" lon="1.50941000"><ele>798.6</ele></trkpt>
<trkpt lat="42.34997000" lon="1.50959000"><ele>794.2</ele></trkpt>
<trkpt lat="42.35027000" lon="1.50964000"><ele>791.4</ele></trkpt>
<trkpt lat="42.35033000" lon="1.50969000"><ele>790.0</ele></trkpt>
<trkpt lat="42.35033003" lon="1.50969016"><ele>790.0</ele></trkpt>
<trkpt lat="42.35037000" lon="1.50987000"><ele>787.6</ele></trkpt>
<trkpt lat="42.35031000" lon="1.51023000"><ele>788.6</ele></trkpt>
<trkpt lat="42.35002000" lon="1.51082000"><ele>792.7</ele></trkpt>
<trkpt lat="42.34982000" lon="1.51138000"><ele>791.4</ele></trkpt>
<trkpt lat="42.34983000" lon="1.51146000"><ele>791.2</ele></trkpt>
<trkpt lat="42.34987000" lon="1.51151000"><ele>790.5</ele></trkpt>
<trkpt lat="42.34999000" lon="1.51147000"><ele>789.3</ele></trkpt>
<trkpt lat="42.35009000" lon="1.51138000"><ele>788.5</ele></trkpt>
<trkpt lat="42.35010005" lon="1.51121986"><ele>788.5</ele></trkpt>
<trkpt lat="42.35010000" lon="1.51122000"><ele>788.5</ele></trkpt>
<trkpt lat="42.35010000" lon="1.51144000"><ele>788.5</ele></trkpt>
<trkpt lat="42.35021000" lon="1.51161000"><ele>789.9</ele></trkpt>
<trkpt lat="42.35033000" lon="1.51169000"><ele>791.7</ele></trkpt>
<trkpt lat="42.35094000" lon="1.51170000"><ele>795.5</ele></trkpt>
<trkpt lat="42.35108000" lon="1.51182000"><ele>796.5</ele></trkpt>
<trkpt lat="42.35119000" lon="1.51196000"><ele>797.1</ele></trkpt>
<trkpt lat="42.35121000" lon="1.51202000"><ele>797.4</ele></trkpt>
<trkpt lat="42.35120000" lon="1.51210000"><ele>798.2</ele></trkpt>
<trkpt lat="42.35111000" lon="1.51224000"><ele>799.1</ele></trkpt>
<trkpt lat="42.35078000" lon="1.51249000"><ele>803.7</ele></trkpt>
<trkpt lat="42.35065009" lon="1.51264989"><ele>804.6</ele></trkpt>
<trkpt lat="42.35063000" lon="1.51285000"><ele>806.4</ele></trkpt>
<trkpt lat="42.35063000" lon="1.51290000"><ele>806.4</ele></trkpt>
<trkpt lat="42.35069000" lon="1.51297000"><ele>807.8</ele></trkpt>
<trkpt lat="42.35154000" lon="1.51314000"><ele>814.4</ele></trkpt>
<trkpt lat="42.35211000" lon="1.51312000"><ele>818.9</ele></trkpt>
<trkpt lat="42.35225000" lon="1.51315000"><ele>819.6</ele></trkpt>
<trkpt lat="42.35248000" lon="1.51330000"><ele>821.8</ele></trkpt>
<trkpt lat="42.35262000" lon="1.51346000"><ele>823.7</ele></trkpt>
<trkpt lat="42.35278000" lon="1.51376000"><ele>826.5</ele></trkpt>
<trkpt lat="42.35304000" lon="1.51388000"><ele>824.6</ele></trkpt>
<trkpt lat="42.35312000" lon="1.51397000"><ele>824.0</ele></trkpt>
<trkpt lat="42.35316000" lon="1.51407000"><ele>822.6</ele></trkpt>
<trkpt lat="42.35317000" lon="1.51419000"><ele>822.6</ele></trkpt>
<trkpt lat="42.35314000" lon="1.51439000"><ele>822.1</ele></trkpt>
<trkpt lat="42.35317000" lon="1.51453000"><ele>821.4</ele></trkpt>
<trkpt lat="42.35323000" lon="1.51457000"><ele>821.4</ele></trkpt>
<trkpt lat="42.35364000" lon="1.51455000"><ele>820.8</ele></trkpt>
<trkpt lat="42.35411500" lon="1.51456500"><ele>821.0</ele></trkpt>
<trkpt lat="42.35459000" lon="1.51458000"><ele>820.4</ele></trkpt>
<trkpt lat="42.35476000" lon="1.51462000"><ele>819.7</ele></trkpt>
<trkpt lat="42.35495000" lon="1.51474000"><ele>818.4</ele></trkpt>
<trkpt lat="42.35535000" lon="1.51519000"><ele>816.2</ele></trkpt>
<trkpt lat="42.35585000" lon="1.51567000"><ele>812.7</ele></trkpt>
<trkpt lat="42.35628000" lon="1.51615000"><ele>810.6</ele></trkpt>
<trkpt lat="42.35623000" lon="1.51579000"><ele>804.0</ele></trkpt>
<trkpt lat="42.35583000" lon="1.51505000"><ele>794.6</ele></trkpt>
<trkpt lat="42.35549500" lon="1.51416500"><ele>778.7</ele></trkpt>
<trkpt lat="42.35516000" lon="1.51328000"><ele>761.2</ele></trkpt>
<trkpt lat="42.35483000" lon="1.51283000"><ele>752.5</ele></trkpt>
<trkpt lat="42.35450000" lon="1.51283000"><ele>746.6</ele></trkpt>
<trkpt lat="42.35455000" lon="1.51268000"><ele>745.1</ele></trkpt>
<trkpt lat="42.35468000" lon="1.51236000"><ele>743.1</ele></trkpt>
<trkpt lat="42.35421500" lon="1.51170000"><ele>742.2</ele></trkpt>
<trkpt lat="42.35375000" lon="1.51104000"><ele>742.8</ele></trkpt>
<trkpt lat="42.35367999" lon="1.51111000"><ele>744.0</ele></trkpt>
<trkpt lat="42.35309000" lon="1.51146000"><ele>749.7</ele></trkpt>
<trkpt lat="42.35303000" lon="1.51148000"><ele>754.3</ele></trkpt>
<trkpt lat="42.35297000" lon="1.51146000"><ele>754.3</ele></trkpt>
<trkpt lat="42.35294000" lon="1.51136000"><ele>754.3</ele></trkpt>
<trkpt lat="42.35295000" lon="1.51118000"><ele>756.1</ele></trkpt>
<trkpt lat="42.35294000" lon="1.51108000"><ele>757.2</ele></trkpt>
<trkpt lat="42.35288000" lon="1.51092000"><ele>759.3</ele></trkpt>
<trkpt lat="42.35277000" lon="1.51082000"><ele>759.3</ele></trkpt>
<trkpt lat="42.35256000" lon="1.51075000"><ele>763.2</ele></trkpt>
<trkpt lat="42.35191000" lon="1.51068000"><ele>766.9</ele></trkpt>
<trkpt lat="42.35152000" lon="1.51068000"><ele>770.1</ele></trkpt>
<trkpt lat="42.35140000" lon="1.51070000"><ele>771.6</ele></trkpt>
<trkpt lat="42.35061000" lon="1.51095000"><ele>782.6</ele></trkpt>
<trkpt lat="42.35054000" lon="1.51093000"><ele>782.6</ele></trkpt>
<trkpt lat="42.35046000" lon="1.51087000"><ele>784.4</ele></trkpt>
<trkpt lat="42.35042000" lon="1.51087000"><ele>784.4</ele></trkpt>
<trkpt lat="42.35053000" lon="1.51064000"><ele>782.8</ele></trkpt>
<trkpt lat="42.35066000" lon="1.51010000"><ele>780.1</ele></trkpt>
<trkpt lat="42.35076000" lon="1.50988000"><ele>779.0</ele></trkpt>
<trkpt lat="42.35082000" lon="1.50975000"><ele>778.0</ele></trkpt>
<trkpt lat="42.35082000" lon="1.50960000"><ele>778.0</ele></trkpt>
<trkpt lat="42.35072000" lon="1.50928000"><ele>772.9</ele></trkpt>
<trkpt lat="42.35074000" lon="1.50920000"><ele>772.9</ele></trkpt>
<trkpt lat="42.35104000" lon="1.50867000"><ele>770.8</ele></trkpt>
<trkpt lat="42.35133841" lon="1.50832496"><ele>768.5</ele></trkpt>
</trkseg></trk></gpx>