<?xml version="1.0" encoding="UTF-8"?>
<gpx version="1.1" creator="Xarxa de Corriols d'Alàs i Cerc - Punt 4" xmlns="http://www.topografix.com/GPX/1/1">
<metadata><name>Volta 3 - 20 km - Punt 4 - S</name></metadata><trk><name>Volta 3 - 20 km - Punt 4 - S</name><trkseg>
<trkpt lat="42.35133841" lon="1.50832496"><ele>768.5</ele></trkpt>
<trkpt lat="42.35104000" lon="1.50867000"><ele>770.8</ele></trkpt>
<trkpt lat="42.35074000" lon="1.50920000"><ele>772.9</ele></trkpt>
<trkpt lat="42.35072000" lon="1.50928000"><ele>772.9</ele></trkpt>
<trkpt lat="42.35082000" lon="1.50960000"><ele>778.0</ele></trkpt>
<trkpt lat="42.35082000" lon="1.50975000"><ele>778.0</ele></trkpt>
<trkpt lat="42.35076000" lon="1.50988000"><ele>779.0</ele></trkpt>
<trkpt lat="42.35063011" lon="1.50982005"><ele>781.1</ele></trkpt>
<trkpt lat="42.35063000" lon="1.50982000"><ele>781.1</ele></trkpt>
<trkpt lat="42.35047000" lon="1.50981000"><ele>784.4</ele></trkpt>
<trkpt lat="42.35037000" lon="1.50987000"><ele>787.6</ele></trkpt>
<trkpt lat="42.35033003" lon="1.50969016"><ele>790.0</ele></trkpt>
<trkpt lat="42.35033000" lon="1.50969000"><ele>790.0</ele></trkpt>
<trkpt lat="42.35027000" lon="1.50964000"><ele>791.4</ele></trkpt>
<trkpt lat="42.34997000" lon="1.50959000"><ele>795.5</ele></trkpt>
<trkpt lat="42.34990000" lon="1.50960000"><ele>795.5</ele></trkpt>
<trkpt lat="42.34985000" lon="1.50965000"><ele>799.4</ele></trkpt>
<trkpt lat="42.34983000" lon="1.50974000"><ele>800.4</ele></trkpt>
<trkpt lat="42.34969000" lon="1.50982000"><ele>802.8</ele></trkpt>
<trkpt lat="42.34966000" lon="1.50987000"><ele>803.4</ele></trkpt>
<trkpt lat="42.34968000" lon="1.50996000"><ele>804.2</ele></trkpt>
<trkpt lat="42.34965000" lon="1.51003000"><ele>804.4</ele></trkpt>
<trkpt lat="42.34950000" lon="1.51009000"><ele>805.1</ele></trkpt>
<trkpt lat="42.34943000" lon="1.51010000"><ele>805.3</ele></trkpt>
<trkpt lat="42.34936000" lon="1.51006000"><ele>805.9</ele></trkpt>
<trkpt lat="42.34924000" lon="1.51009000"><ele>806.8</ele></trkpt>
<trkpt lat="42.34917000" lon="1.51009000"><ele>808.0</ele></trkpt>
<trkpt lat="42.34911000" lon="1.51016000"><ele>808.7</ele></trkpt>
<trkpt lat="42.34910000" lon="1.51026000"><ele>811.0</ele></trkpt>
<trkpt lat="42.34899000" lon="1.51034000"><ele>813.2</ele></trkpt>
<trkpt lat="42.34883000" lon="1.51037000"><ele>814.8</ele></trkpt>
<trkpt lat="42.34859000" lon="1.51030000"><ele>823.8</ele></trkpt>
<trkpt lat="42.34854000" lon="1.51037000"><ele>823.8</ele></trkpt>
<trkpt lat="42.34842000" lon="1.51044000"><ele>823.8</ele></trkpt>
<trkpt lat="42.34839000" lon="1.51056000"><ele>826.6</ele></trkpt>
<trkpt lat="42.34840001" lon="1.51074983"><ele>828.8</ele></trkpt>
<trkpt lat="42.34840000" lon="1.51075000"><ele>828.8</ele></trkpt>
<trkpt lat="42.34835000" lon="1.51082000"><ele>829.6</ele></trkpt>
<trkpt lat="42.34812000" lon="1.51105000"><ele>835.7</ele></trkpt>
<trkpt lat="42.34805000" lon="1.51121000"><ele>838.0</ele></trkpt>
<trkpt lat="42.34789000" lon="1.51147000"><ele>841.2</ele></trkpt>
<trkpt lat="42.34762000" lon="1.51217000"><ele>846.6</ele></trkpt>
<trkpt lat="42.34742000" lon="1.51282000"><ele>854.0</ele></trkpt>
<trkpt lat="42.34730000" lon="1.51315000"><ele>857.3</ele></trkpt>
<trkpt lat="42.34724000" lon="1.51344000"><ele>860.1</ele></trkpt>
<trkpt lat="42.34723000" lon="1.51397000"><ele>866.1</ele></trkpt>
<trkpt lat="42.34705000" lon="1.51449000"><ele>872.4</ele></trkpt>
<trkpt lat="42.34685000" lon="1.51469000"><ele>876.4</ele></trkpt>
<trkpt lat="42.34671000" lon="1.51487000"><ele>878.1</ele></trkpt>
<trkpt lat="42.34648000" lon="1.51536000"><ele>886.3</ele></trkpt>
<trkpt lat="42.34639000" lon="1.51562000"><ele>893.9</ele></trkpt>
<trkpt lat="42.34635000" lon="1.51629000"><ele>903.7</ele></trkpt>
<trkpt lat="42.34626000" lon="1.51640000"><ele>905.6</ele></trkpt>
<trkpt lat="42.34605000" lon="1.51659000"><ele>909.6</ele></trkpt>
<trkpt lat="42.34595000" lon="1.51674000"><ele>912.3</ele></trkpt>
<trkpt lat="42.34594000" lon="1.51693000"><ele>912.3</ele></trkpt>
<trkpt lat="42.34597000" lon="1.51709000"><ele>916.0</ele></trkpt>
<trkpt lat="42.34602000" lon="1.51721000"><ele>916.0</ele></trkpt>
<trkpt lat="42.34606000" lon="1.51726000"><ele>918.3</ele></trkpt>
<trkpt lat="42.34614000" lon="1.51730000"><ele>918.9</ele></trkpt>
<trkpt lat="42.34636000" lon="1.51734000"><ele>921.2</ele></trkpt>
<trkpt lat="42.34663000" lon="1.51749000"><ele>924.2</ele></trkpt>
<trkpt lat="42.34670000" lon="1.51746000"><ele>924.2</ele></trkpt>
<trkpt lat="42.34679000" lon="1.51734000"><ele>925.1</ele></trkpt>
<trkpt lat="42.34687000" lon="1.51763000"><ele>927.9</ele></trkpt>
<trkpt lat="42.34695000" lon="1.51792000"><ele>932.8</ele></trkpt>
<trkpt lat="42.34693000" lon="1.51817000"><ele>936.6</ele></trkpt>
<trkpt lat="42.34684000" lon="1.51843000"><ele>940.7</ele></trkpt>
<trkpt lat="42.34677000" lon="1.51874000"><ele>945.1</ele></trkpt>
<trkpt lat="42.34677000" lon="1.51895000"><ele>948.5</ele></trkpt>
<trkpt lat="42.34680000" lon="1.51908000"><ele>950.3</ele></trkpt>
<trkpt lat="42.34671003" lon="1.51925006"><ele>948.0</ele></trkpt>
<trkpt lat="42.34681000" lon="1.51944000"><ele>949.9</ele></trkpt>
<trkpt lat="42.34716000" lon="1.51938000"><ele>953.9</ele></trkpt>
<trkpt lat="42.34764000" lon="1.51920000"><ele>958.8</ele></trkpt>
<trkpt lat="42.34789000" lon="1.51935000"><ele>961.7</ele></trkpt>
<trkpt lat="42.34800000" lon="1.51945000"><ele>965.2</ele></trkpt>
<trkpt lat="42.34812000" lon="1.51951000"><ele>965.2</ele></trkpt>
<trkpt lat="42.34812000" lon="1.51956000"><ele>965.9</ele></trkpt>
<trkpt lat="42.34799998" lon="1.51965003"><ele>966.9</ele></trkpt>
<trkpt lat="42.34767000" lon="1.52017000"><ele>975.0</ele></trkpt>
<trkpt lat="42.34740000" lon="1.52045000"><ele>976.9</ele></trkpt>
<trkpt lat="42.34734000" lon="1.52048000"><ele>976.9</ele></trkpt>
<trkpt lat="42.34665000" lon="1.52097000"><ele>983.3</ele></trkpt>
<trkpt lat="42.34640000" lon="1.52085000"><ele>985.6</ele></trkpt>
<trkpt lat="42.34582000" lon="1.52116000"><ele>988.2</ele></trkpt>
<trkpt lat="42.34541000" lon="1.52148000"><ele>993.1</ele></trkpt>
<trkpt lat="42.34530000" lon="1.52104000"><ele>996.6</ele></trkpt>
<trkpt lat="42.34460000" lon="1.52080000"><ele>1004.7</ele></trkpt>
<trkpt lat="42.34399000" lon="1.52168000"><ele>1014.5</ele></trkpt>
<trkpt lat="42.34405000" lon="1.52214000"><ele>1017.0</ele></trkpt>
<trkpt lat="42.34391000" lon="1.52307000"><ele>1025.1</ele></trkpt>
<trkpt lat="42.34412000" lon="1.52328000"><ele>1026.9</ele></trkpt>
<trkpt lat="42.34435000" lon="1.52324000"><ele>1027.8</ele></trkpt>
<trkpt lat="42.34465000" lon="1.52335000"><ele>1028.4</ele></trkpt>
<trkpt lat="42.34509000" lon="1.52332000"><ele>1031.3</ele></trkpt>
<trkpt lat="42.34517000" lon="1.52336000"><ele>1031.8</ele></trkpt>
<trkpt lat="42.34518000" lon="1.52336000"><ele>1031.8</ele></trkpt>
<trkpt lat="42.34537000" lon="1.52345000"><ele>1033.6</ele></trkpt>
<trkpt lat="42.34550000" lon="1.52363000"><ele>1034.2</ele></trkpt>
<trkpt lat="42.34580000" lon="1.52382000"><ele>1036.1</ele></trkpt>
<trkpt lat="42.34595000" lon="1.52398000"><ele>1037.4</ele></trkpt>
<trkpt lat="42.34641000" lon="1.52404000"><ele>1040.6</ele></trkpt>
<trkpt lat="42.34688000" lon="1.52429000"><ele>1044.4</ele></trkpt>
<trkpt lat="42.34699000" lon="1.52442000"><ele>1046.0</ele></trkpt>
<trkpt lat="42.34695000" lon="1.52451000"><ele>1046.0</ele></trkpt>
<trkpt lat="42.34650000" lon="1.52437000"><ele>1051.2</ele></trkpt>
<trkpt lat="42.34575000" lon="1.52475500"><ele>1056.2</ele></trkpt>
<trkpt lat="42.34500000" lon="1.52514000"><ele>1060.5</ele></trkpt>
<trkpt lat="42.34453000" lon="1.52514000"><ele>1062.5</ele></trkpt>
<trkpt lat="42.34438000" lon="1.52511000"><ele>1063.5</ele></trkpt>
<trkpt lat="42.34414000" lon="1.52516000"><ele>1064.6</ele></trkpt>
<trkpt lat="42.34402000" lon="1.52514000"><ele>1065.7</ele></trkpt>
<trkpt lat="42.34399000" lon="1.52521000"><ele>1066.6</ele></trkpt>
<trkpt lat="42.34403000" lon="1.52532000"><ele>1066.6</ele></trkpt>
<trkpt lat="42.34448000" lon="1.52545000"><ele>1073.2</ele></trkpt>
<trkpt lat="42.34499000" lon="1.52579000"><ele>1076.5</ele></trkpt>
<trkpt lat="42.34543000" lon="1.52570000"><ele>1082.4</ele></trkpt>
<trkpt lat="42.34588000" lon="1.52570000"><ele>1086.8</ele></trkpt>
<trkpt lat="42.34600000" lon="1.52577000"><ele>1087.9</ele></trkpt>
<trkpt lat="42.34600000" lon="1.52585000"><ele>1088.3</ele></trkpt>
<trkpt lat="42.34587000" lon="1.52600000"><ele>1091.3</ele></trkpt>
<trkpt lat="42.34576000" lon="1.52601000"><ele>1091.3</ele></trkpt>
<trkpt lat="42.34562000" lon="1.52611000"><ele>1093.0</ele></trkpt>
<trkpt lat="42.34544000" lon="1.52609000"><ele>1093.9</ele></trkpt>
<trkpt lat="42.34481000" lon="1.52659000"><ele>1104.5</ele></trkpt>
<trkpt lat="42.34493000" lon="1.52700000"><ele>1107.3</ele></trkpt>
<trkpt lat="42.34490000" lon="1.52710000"><ele>1107.3</ele></trkpt>
<trkpt lat="42.34474000" lon="1.52727000"><ele>1110.8</ele></trkpt>
<trkpt lat="42.34466000" lon="1.52743000"><ele>1111.9</ele></trkpt>
<trkpt lat="42.34453000" lon="1.52803000"><ele>1111.4</ele></trkpt>
<trkpt lat="42.34454000" lon="1.52814000"><ele>1112.0</ele></trkpt>
<trkpt lat="42.34470000" lon="1.52848000"><ele>1116.0</ele></trkpt>
<trkpt lat="42.34472000" lon="1.52860000"><ele>1116.6</ele></trkpt>
<trkpt lat="42.34475000" lon="1.52911000"><ele>1120.2</ele></trkpt>
<trkpt lat="42.34479000" lon="1.52924000"><ele>1120.8</ele></trkpt>
<trkpt lat="42.34485000" lon="1.52932000"><ele>1121.1</ele></trkpt>
<trkpt lat="42.34496000" lon="1.52940000"><ele>1121.4</ele></trkpt>
<trkpt lat="42.34526000" lon="1.52952000"><ele>1125.6</ele></trkpt>
<trkpt lat="42.34536000" lon="1.52959000"><ele>1125.6</ele></trkpt>
<trkpt lat="42.34552000" lon="1.52981000"><ele>1128.3</ele></trkpt>
<trkpt lat="42.34570000" lon="1.53012000"><ele>1133.6</ele></trkpt>
<trkpt lat="42.34573000" lon="1.53021000"><ele>1133.6</ele></trkpt>
<trkpt lat="42.34582000" lon="1.53074000"><ele>1138.0</ele></trkpt>
<trkpt lat="42.34587000" lon="1.53132000"><ele>1140.6</ele></trkpt>
<trkpt lat="42.34587000" lon="1.53169000"><ele>1141.4</ele></trkpt>
<trkpt lat="42.34574000" lon="1.53216000"><ele>1143.1</ele></trkpt>
<trkpt lat="42.34565000" lon="1.53259000"><ele>1144.9</ele></trkpt>
<trkpt lat="42.34564998" lon="1.53259009"><ele>1144.9</ele></trkpt>
<trkpt lat="42.34561000" lon="1.53273000"><ele>1145.8</ele></trkpt>
<trkpt lat="42.34580000" lon="1.53251000"><ele>1142.3</ele></trkpt>
<trkpt lat="42.34591000" lon="1.53219000"><ele>1140.1</ele></trkpt>
<trkpt lat="42.34616000" lon="1.53183000"><ele>1135.1</ele></trkpt>
<trkpt lat="42.34628000" lon="1.53144000"><ele>1132.4</ele></trkpt>
<trkpt lat="42.34653000" lon="1.53108000"><ele>1126.7</ele></trkpt>
<trkpt lat="42.34684000" lon="1.53082000"><ele>1120.3</ele></trkpt>
<trkpt lat="42.34716000" lon="1.53060000"><ele>1112.7</ele></trkpt>
<trkpt lat="42.34743000" lon="1.53036000"><ele>1105.0</ele></trkpt>
<trkpt lat="42.34752000" lon="1.53065000"><ele>1100.9</ele></trkpt>
<trkpt lat="42.34776000" lon="1.53063000"><ele>1092.3</ele></trkpt>
<trkpt lat="42.34799000" lon="1.53062000"><ele>1084.7</ele></trkpt>
<trkpt lat="42.34817000" lon="1.53053000"><ele>1078.4</ele></trkpt>
<trkpt lat="42.34832000" lon="1.53059000"><ele>1073.8</ele></trkpt>
<trkpt lat="42.34846000" lon="1.53072000"><ele>1067.8</ele></trkpt>
<trkpt lat="42.34859000" lon="1.53073000"><ele>1063.6</ele></trkpt>
<trkpt lat="42.34849999" lon="1.53086010"><ele>1065.8</ele></trkpt>
<trkpt lat="42.34850000" lon="1.53086000"><ele>1065.8</ele></trkpt>
<trkpt lat="42.34897000" lon="1.53025000"><ele>1051.4</ele></trkpt>
<trkpt lat="42.34915000" lon="1.53064000"><ele>1044.8</ele></trkpt>
<trkpt lat="42.34913000" lon="1.53068000"><ele>1043.4</ele></trkpt>
<trkpt lat="42.34898000" lon="1.53125000"><ele>1038.2</ele></trkpt>
<trkpt lat="42.34910000" lon="1.53210000"><ele>1033.0</ele></trkpt>
<trkpt lat="42.34910000" lon="1.53211000"><ele>1032.9</ele></trkpt>
<trkpt lat="42.34948000" lon="1.53241000"><ele>1023.2</ele></trkpt>
<trkpt lat="42.34920000" lon="1.53279000"><ele>1017.8</ele></trkpt>
<trkpt lat="42.34961000" lon="1.53296000"><ele>1014.0</ele></trkpt>
<trkpt lat="42.34978000" lon="1.53320000"><ele>1011.5</ele></trkpt>
<trkpt lat="42.34978000" lon="1.53319000"><ele>1011.7</ele></trkpt>
<trkpt lat="42.35012000" lon="1.53367000"><ele>1004.6</ele></trkpt>
<trkpt lat="42.35016000" lon="1.53385000"><ele>1002.7</ele></trkpt>
<trkpt lat="42.35008000" lon="1.53416000"><ele>998.9</ele></trkpt>
<trkpt lat="42.35039000" lon="1.53389000"><ele>993.5</ele></trkpt>
<trkpt lat="42.35037000" lon="1.53338000"><ele>985.6</ele></trkpt>
<trkpt lat="42.35037000" lon="1.53337000"><ele>985.7</ele></trkpt>
<trkpt lat="42.35043000" lon="1.53340000"><ele>983.8</ele></trkpt>
<trkpt lat="42.35069000" lon="1.53363000"><ele>978.4</ele></trkpt>
<trkpt lat="42.35078000" lon="1.53385000"><ele>975.3</ele></trkpt>
<trkpt lat="42.35076000" lon="1.53388000"><ele>974.2</ele></trkpt>
<trkpt lat="42.35077000" lon="1.53385000"><ele>974.8</ele></trkpt>
<trkpt lat="42.35046000" lon="1.53459000"><ele>965.9</ele></trkpt>
<trkpt lat="42.35005000" lon="1.53528500"><ele>958.1</ele></trkpt>
<trkpt lat="42.34964000" lon="1.53598000"><ele>951.5</ele></trkpt>
<trkpt lat="42.34980000" lon="1.53686000"><ele>940.9</ele></trkpt>
<trkpt lat="42.34975000" lon="1.53716000"><ele>940.9</ele></trkpt>
<trkpt lat="42.34952000" lon="1.53730000"><ele>944.7</ele></trkpt>
<trkpt lat="42.34918000" lon="1.53743000"><ele>948.1</ele></trkpt>
<trkpt lat="42.34901000" lon="1.53790000"><ele>936.1</ele></trkpt>
<trkpt lat="42.34922000" lon="1.53790000"><ele>938.5</ele></trkpt>
<trkpt lat="42.34969000" lon="1.53804000"><ele>944.8</ele></trkpt>
<trkpt lat="42.34993000" lon="1.53798000"><ele>946.8</ele></trkpt>
<trkpt lat="42.35036000" lon="1.53818000"><ele>950.3</ele></trkpt>
<trkpt lat="42.35070000" lon="1.53823000"><ele>952.3</ele></trkpt>
<trkpt lat="42.35083000" lon="1.53844000"><ele>957.3</ele></trkpt>
<trkpt lat="42.35081000" lon="1.53844000"><ele>958.4</ele></trkpt>
<trkpt lat="42.35050000" lon="1.53872000"><ele>965.4</ele></trkpt>
<trkpt lat="42.35022000" lon="1.53858000"><ele>970.2</ele></trkpt>
<trkpt lat="42.34983000" lon="1.53846000"><ele>970.1</ele></trkpt>
<trkpt lat="42.34950000" lon="1.53880000"><ele>982.5</ele></trkpt>
<trkpt lat="42.34921000" lon="1.53899000"><ele>995.0</ele></trkpt>
<trkpt lat="42.34897000" lon="1.53886000"><ele>995.4</ele></trkpt>
<trkpt lat="42.34865000" lon="1.53897000"><ele>1010.2</ele></trkpt>
<trkpt lat="42.34824000" lon="1.53886000"><ele>1025.3</ele></trkpt>
<trkpt lat="42.34796000" lon="1.53884000"><ele>1038.6</ele></trkpt>
<trkpt lat="42.34777000" lon="1.53856000"><ele>1041.4</ele></trkpt>
<trkpt lat="42.34763000" lon="1.53827000"><ele>1040.5</ele></trkpt>
<trkpt lat="42.34743000" lon="1.53809000"><ele>1046.8</ele></trkpt>
<trkpt lat="42.34752000" lon="1.53796000"><ele>1039.0</ele></trkpt>
<trkpt lat="42.34759000" lon="1.53766000"><ele>1033.4</ele></trkpt>
<trkpt lat="42.34743000" lon="1.53745000"><ele>1042.5</ele></trkpt>
<trkpt lat="42.34716000" lon="1.53718000"><ele>1059.1</ele></trkpt>
<trkpt lat="42.34697000" lon="1.53714000"><ele>1064.6</ele></trkpt>
<trkpt lat="42.34669000" lon="1.53713000"><ele>1072.3</ele></trkpt>
<trkpt lat="42.34675000" lon="1.53692000"><ele>1075.7</ele></trkpt>
<trkpt lat="42.34685000" lon="1.53685000"><ele>1077.0</ele></trkpt>
<trkpt lat="42.34676000" lon="1.53670000"><ele>1084.4</ele></trkpt>
<trkpt lat="42.34688000" lon="1.53650000"><ele>1089.3</ele></trkpt>
<trkpt lat="42.34699000" lon="1.53635000"><ele>1094.5</ele></trkpt>
<trkpt lat="42.34690000" lon="1.53619000"><ele>1101.4</ele></trkpt>
<trkpt lat="42.34679000" lon="1.53608000"><ele>1105.0</ele></trkpt>
<trkpt lat="42.34695000" lon="1.53605000"><ele>1104.7</ele></trkpt>
<trkpt lat="42.34741996" lon="1.53597001"><ele>1102.5</ele></trkpt>
<trkpt lat="42.34754000" lon="1.53582000"><ele>1093.7</ele></trkpt>
<trkpt lat="42.34735000" lon="1.53554000"><ele>1107.8</ele></trkpt>
<trkpt lat="42.34715000" lon="1.53553000"><ele>1113.9</ele></trkpt>
<trkpt lat="42.34703000" lon="1.53526000"><ele>1118.5</ele></trkpt>
<trkpt lat="42.34678000" lon="1.53503000"><ele>1122.7</ele></trkpt>
<trkpt lat="42.34656000" lon="1.53502000"><ele>1124.5</ele></trkpt>
<trkpt lat="42.34638000" lon="1.53520000"><ele>1125.1</ele></trkpt>
<trkpt lat="42.34622000" lon="1.53522000"><ele>1126.6</ele></trkpt>
<trkpt lat="42.34602000" lon="1.53516000"><ele>1130.8</ele></trkpt>
<trkpt lat="42.34586992" lon="1.53510999"><ele>1141.1</ele></trkpt>
<trkpt lat="42.34570000" lon="1.53509000"><ele>1142.4</ele></trkpt>
<trkpt lat="42.34531000" lon="1.53461000"><ele>1146.9</ele></trkpt>
<trkpt lat="42.34523000" lon="1.53443000"><ele>1147.3</ele></trkpt>
<trkpt lat="42.34523000" lon="1.53442000"><ele>1147.3</ele></trkpt>
<trkpt lat="42.34509000" lon="1.53408000"><ele>1147.0</ele></trkpt>
<trkpt lat="42.34508000" lon="1.53374000"><ele>1147.1</ele></trkpt>
<trkpt lat="42.34516000" lon="1.53332000"><ele>1148.1</ele></trkpt>
<trkpt lat="42.34502982" lon="1.53342037"><ele>1148.5</ele></trkpt>
<trkpt lat="42.34498000" lon="1.53352000"><ele>1148.5</ele></trkpt>
<trkpt lat="42.34492000" lon="1.53380000"><ele>1149.4</ele></trkpt>
<trkpt lat="42.34490000" lon="1.53424000"><ele>1151.0</ele></trkpt>
<trkpt lat="42.34487000" lon="1.53433000"><ele>1151.7</ele></trkpt>
<trkpt lat="42.34465000" lon="1.53463000"><ele>1154.7</ele></trkpt>
<trkpt lat="42.34451000" lon="1.53467000"><ele>1155.8</ele></trkpt>
<trkpt lat="42.34423000" lon="1.53456000"><ele>1160.6</ele></trkpt>
<trkpt lat="42.34412000" lon="1.53455000"><ele>1162.1</ele></trkpt>
<trkpt lat="42.34372000" lon="1.53458000"><ele>1166.2</ele></trkpt>
<trkpt lat="42.34347000" lon="1.53462000"><ele>1171.6</ele></trkpt>
<trkpt lat="42.34341000" lon="1.53456000"><ele>1172.3</ele></trkpt>
<trkpt lat="42.34335000" lon="1.53446000"><ele>1173.6</ele></trkpt>
<trkpt lat="42.34332000" lon="1.53439000"><ele>1174.2</ele></trkpt>
<trkpt lat="42.34327000" lon="1.53414000"><ele>1175.2</ele></trkpt>
<trkpt lat="42.34321000" lon="1.53398000"><ele>1175.8</ele></trkpt>
<trkpt lat="42.34314000" lon="1.53391000"><ele>1176.2</ele></trkpt>
<trkpt lat="42.34303000" lon="1.53390000"><ele>1176.8</ele></trkpt>
<trkpt lat="42.34282000" lon="1.53398000"><ele>1178.5</ele></trkpt>
<trkpt lat="42.34274000" lon="1.53397000"><ele>1178.5</ele></trkpt>
<trkpt lat="42.34258000" lon="1.53390000"><ele>1183.4</ele></trkpt>
<trkpt lat="42.34250000" lon="1.53392000"><ele>1183.4</ele></trkpt>
<trkpt lat="42.34250000" lon="1.53400000"><ele>1183.9</ele></trkpt>
<trkpt lat="42.34256000" lon="1.53420000"><ele>1185.2</ele></trkpt>
<trkpt lat="42.34257000" lon="1.53431000"><ele>1185.9</ele></trkpt>
<trkpt lat="42.34254000" lon="1.53447000"><ele>1186.8</ele></trkpt>
<trkpt lat="42.34247000" lon="1.53467000"><ele>1187.6</ele></trkpt>
<trkpt lat="42.34242000" lon="1.53470000"><ele>1188.3</ele></trkpt>
<trkpt lat="42.34236000" lon="1.53463000"><ele>1188.7</ele></trkpt>
<trkpt lat="42.34228000" lon="1.53436000"><ele>1191.0</ele></trkpt>
<trkpt lat="42.34222000" lon="1.53430000"><ele>1192.0</ele></trkpt>
<trkpt lat="42.34215000" lon="1.53428000"><ele>1193.1</ele></trkpt>
<trkpt lat="42.34194000" lon="1.53435000"><ele>1195.9</ele></trkpt>
<trkpt lat="42.34174000" lon="1.53455000"><ele>1198.3</ele></trkpt>
<trkpt lat="42.34160000" lon="1.53462000"><ele>1199.1</ele></trkpt>
<trkpt lat="42.34121000" lon="1.53474000"><ele>1201.9</ele></trkpt>
<trkpt lat="42.34112000" lon="1.53481000"><ele>1202.1</ele></trkpt>
<trkpt lat="42.34101000" lon="1.53493000"><ele>1202.3</ele></trkpt>
<trkpt lat="42.34085000" lon="1.53518000"><ele>1203.5</ele></trkpt>
<trkpt lat="42.34077000" lon="1.53525000"><ele>1204.6</ele></trkpt>
<trkpt lat="42.33998000" lon="1.53534000"><ele>1210.6</ele></trkpt>
<trkpt lat="42.33955000" lon="1.53545000"><ele>1214.5</ele></trkpt>
<trkpt lat="42.33940000" lon="1.53541000"><ele>1215.6</ele></trkpt>
<trkpt lat="42.33946000" lon="1.53529000"><ele>1216.2</ele></trkpt>
<trkpt lat="42.33948000" lon="1.53516000"><ele>1216.5</ele></trkpt>
<trkpt lat="42.33938000" lon="1.53441000"><ele>1216.7</ele></trkpt>
<trkpt lat="42.33938000" lon="1.53389000"><ele>1216.6</ele></trkpt>
<trkpt lat="42.33941000" lon="1.53356000"><ele>1216.3</ele></trkpt>
<trkpt lat="42.33935000" lon="1.53309000"><ele>1215.2</ele></trkpt>
<trkpt lat="42.33935000" lon="1.53280000"><ele>1215.1</ele></trkpt>
<trkpt lat="42.33949000" lon="1.53204000"><ele>1217.4</ele></trkpt>
<trkpt lat="42.33953000" lon="1.53187000"><ele>1218.0</ele></trkpt>
<trkpt lat="42.33955000" lon="1.53163000"><ele>1218.3</ele></trkpt>
<trkpt lat="42.33952000" lon="1.53137000"><ele>1218.4</ele></trkpt>
<trkpt lat="42.33948000" lon="1.53122000"><ele>1218.2</ele></trkpt>
<trkpt lat="42.33937000" lon="1.53102000"><ele>1217.8</ele></trkpt>
<trkpt lat="42.33888000" lon="1.53033000"><ele>1213.4</ele></trkpt>
<trkpt lat="42.33880000" lon="1.53017000"><ele>1212.8</ele></trkpt>
<trkpt lat="42.33873000" lon="1.52991000"><ele>1211.8</ele></trkpt>
<trkpt lat="42.33872000" lon="1.52930000"><ele>1209.2</ele></trkpt>
<trkpt lat="42.33868000" lon="1.52855000"><ele>1208.3</ele></trkpt>
<trkpt lat="42.33870000" lon="1.52831000"><ele>1208.5</ele></trkpt>
<trkpt lat="42.33877000" lon="1.52790000"><ele>1207.9</ele></trkpt>
<trkpt lat="42.33876000" lon="1.52775000"><ele>1207.4</ele></trkpt>
<trkpt lat="42.33873000" lon="1.52763000"><ele>1206.4</ele></trkpt>
<trkpt lat="42.33868014" lon="1.52753028"><ele>1206.4</ele></trkpt>
<trkpt lat="42.33858000" lon="1.52745000"><ele>1204.8</ele></trkpt>
<trkpt lat="42.33845000" lon="1.52747000"><ele>1204.5</ele></trkpt>
<trkpt lat="42.33825000" lon="1.52737000"><ele>1204.5</ele></trkpt>
<trkpt lat="42.33812000" lon="1.52728000"><ele>1205.1</ele></trkpt>
<trkpt lat="42.33792000" lon="1.52698000"><ele>1207.3</ele></trkpt>
<trkpt lat="42.33781000" lon="1.52686000"><ele>1208.8</ele></trkpt>
<trkpt lat="42.33777000" lon="1.52677000"><ele>1208.8</ele></trkpt>
<trkpt lat="42.33774000" lon="1.52632000"><ele>1214.1</ele></trkpt>
<trkpt lat="42.33768000" lon="1.52611000"><ele>1215.6</ele></trkpt>
<trkpt lat="42.33759000" lon="1.52588000"><ele>1216.6</ele></trkpt>
<trkpt lat="42.33744000" lon="1.52566000"><ele>1218.5</ele></trkpt>
<trkpt lat="42.33686000" lon="1.52511000"><ele>1222.4</ele></trkpt>
<trkpt lat="42.33674000" lon="1.52504000"><ele>1224.8</ele></trkpt>
<trkpt lat="42.33657000" lon="1.52500000"><ele>1225.1</ele></trkpt>
<trkpt lat="42.33614000" lon="1.52503000"><ele>1228.7</ele></trkpt>
<trkpt lat="42.33534000" lon="1.52473000"><ele>1234.4</ele></trkpt>
<trkpt lat="42.33510000" lon="1.52461000"><ele>1238.5</ele></trkpt>
<trkpt lat="42.33491000" lon="1.52456000"><ele>1240.0</ele></trkpt>
<trkpt lat="42.33481000" lon="1.52457000"><ele>1241.7</ele></trkpt>
<trkpt lat="42.33471000" lon="1.52461000"><ele>1242.7</ele></trkpt>
<trkpt lat="42.33448000" lon="1.52484000"><ele>1244.4</ele></trkpt>
<trkpt lat="42.33447999" lon="1.52484003"><ele>1244.4</ele></trkpt>
<trkpt lat="42.33446999" lon="1.52488998"><ele>1238.3</ele></trkpt>
<trkpt lat="42.33447000" lon="1.52489000"><ele>1238.3</ele></trkpt>
<trkpt lat="42.33440000" lon="1.52522000"><ele>1246.1</ele></trkpt>
<trkpt lat="42.33435000" lon="1.52500000"><ele>1240.1</ele></trkpt>
<trkpt lat="42.33465500" lon="1.52562500"><ele>1256.4</ele></trkpt>
<trkpt lat="42.33496000" lon="1.52625000"><ele>1268.7</ele></trkpt>
<trkpt lat="42.33482500" lon="1.52720000"><ele>1283.3</ele></trkpt>
<trkpt lat="42.33469000" lon="1.52815000"><ele>1299.3</ele></trkpt>
<trkpt lat="42.33442000" lon="1.52905500"><ele>1305.5</ele></trkpt>
<trkpt lat="42.33415000" lon="1.52996000"><ele>1316.6</ele></trkpt>
<trkpt lat="42.33365000" lon="1.53047500"><ele>1330.0</ele></trkpt>
<trkpt lat="42.33315000" lon="1.53099000"><ele>1343.2</ele></trkpt>
<trkpt lat="42.33245500" lon="1.53125000"><ele>1358.3</ele></trkpt>
<trkpt lat="42.33176000" lon="1.53151000"><ele>1376.5</ele></trkpt>
<trkpt lat="42.33120000" lon="1.53185000"><ele>1394.0</ele></trkpt>
<trkpt lat="42.33064000" lon="1.53219000"><ele>1407.8</ele></trkpt>
<trkpt lat="42.33016500" lon="1.53212500"><ele>1417.1</ele></trkpt>
<trkpt lat="42.32969000" lon="1.53206000"><ele>1426.8</ele></trkpt>
<trkpt lat="42.32912500" lon="1.53218500"><ele>1435.5</ele></trkpt>
<trkpt lat="42.32856000" lon="1.53231000"><ele>1440.9</ele></trkpt>
<trkpt lat="42.32811000" lon="1.53310501"><ele>1448.5</ele></trkpt>
<trkpt lat="42.32766000" lon="1.53390000"><ele>1452.6</ele></trkpt>
<trkpt lat="42.32713500" lon="1.53408000"><ele>1462.0</ele></trkpt>
<trkpt lat="42.32661000" lon="1.53426000"><ele>1471.6</ele></trkpt>
<trkpt lat="42.32607000" lon="1.53388000"><ele>1476.1</ele></trkpt>
<trkpt lat="42.32553000" lon="1.53350000"><ele>1479.4</ele></trkpt>
<trkpt lat="42.32513000" lon="1.53320500"><ele>1483.5</ele></trkpt>
<trkpt lat="42.32473000" lon="1.53291000"><ele>1488.2</ele></trkpt>
<trkpt lat="42.32426000" lon="1.53292500"><ele>1503.8</ele></trkpt>
<trkpt lat="42.32379000" lon="1.53294000"><ele>1516.5</ele></trkpt>
<trkpt lat="42.32340000" lon="1.53268000"><ele>1522.0</ele></trkpt>
<trkpt lat="42.32288000" lon="1.53261000"><ele>1520.5</ele></trkpt>
<trkpt lat="42.32251000" lon="1.53282000"><ele>1521.1</ele></trkpt>
<trkpt lat="42.32205000" lon="1.53330000"><ele>1524.7</ele></trkpt>
<trkpt lat="42.32154000" lon="1.53323000"><ele>1514.5</ele></trkpt>
<trkpt lat="42.32080000" lon="1.53339000"><ele>1511.7</ele></trkpt>
<trkpt lat="42.32042000" lon="1.53353000"><ele>1508.1</ele></trkpt>
<trkpt lat="42.32008000" lon="1.53362000"><ele>1503.8</ele></trkpt>
<trkpt lat="42.32000984" lon="1.53367040"><ele>1503.0</ele></trkpt>
<trkpt lat="42.32001000" lon="1.53367000"><ele>1503.0</ele></trkpt>
<trkpt lat="42.32036000" lon="1.53315000"><ele>1499.5</ele></trkpt>
<trkpt lat="42.32066000" lon="1.53274000"><ele>1497.4</ele></trkpt>
<trkpt lat="42.32092000" lon="1.53256000"><ele>1494.5</ele></trkpt>
<trkpt lat="42.32165000" lon="1.53235000"><ele>1486.6</ele></trkpt>
<trkpt lat="42.32208000" lon="1.53215000"><ele>1481.6</ele></trkpt>
<trkpt lat="42.32220000" lon="1.53199000"><ele>1480.5</ele></trkpt>
<trkpt lat="42.32248000" lon="1.53092000"><ele>1469.7</ele></trkpt>
<trkpt lat="42.32248000" lon="1.53067000"><ele>1467.1</ele></trkpt>
<trkpt lat="42.32260000" lon="1.53021000"><ele>1462.5</ele></trkpt>
<trkpt lat="42.32263000" lon="1.52925000"><ele>1454.7</ele></trkpt>
<trkpt lat="42.32278000" lon="1.52886000"><ele>1451.1</ele></trkpt>
<trkpt lat="42.32320000" lon="1.52837000"><ele>1445.5</ele></trkpt>
<trkpt lat="42.32330000" lon="1.52819000"><ele>1444.6</ele></trkpt>
<trkpt lat="42.32347000" lon="1.52741000"><ele>1439.9</ele></trkpt>
<trkpt lat="42.32358000" lon="1.52714000"><ele>1437.7</ele></trkpt>
<trkpt lat="42.32370000" lon="1.52708000"><ele>1436.2</ele></trkpt>
<trkpt lat="42.32396000" lon="1.52714000"><ele>1433.5</ele></trkpt>
<trkpt lat="42.32408000" lon="1.52729000"><ele>1431.1</ele></trkpt>
<trkpt lat="42.32418000" lon="1.52730000"><ele>1430.0</ele></trkpt>
<trkpt lat="42.32430000" lon="1.52718000"><ele>1429.0</ele></trkpt>
<trkpt lat="42.32491000" lon="1.52713000"><ele>1421.6</ele></trkpt>
<trkpt lat="42.32549000" lon="1.52709000"><ele>1415.7</ele></trkpt>
<trkpt lat="42.32590000" lon="1.52718000"><ele>1412.3</ele></trkpt>
<trkpt lat="42.32598000" lon="1.52724000"><ele>1410.4</ele></trkpt>
<trkpt lat="42.32607000" lon="1.52738000"><ele>1410.4</ele></trkpt>
<trkpt lat="42.32608000" lon="1.52767000"><ele>1407.8</ele></trkpt>
<trkpt lat="42.32630000" lon="1.52778000"><ele>1405.5</ele></trkpt>
<trkpt lat="42.32638000" lon="1.52791000"><ele>1403.1</ele></trkpt>
<trkpt lat="42.32651000" lon="1.52824000"><ele>1400.8</ele></trkpt>
<trkpt lat="42.32645000" lon="1.52838000"><ele>1400.8</ele></trkpt>
<trkpt lat="42.32663000" lon="1.52864000"><ele>1397.3</ele></trkpt>
<trkpt lat="42.32693000" lon="1.52871000"><ele>1394.5</ele></trkpt>
<trkpt lat="42.32731000" lon="1.52940000"><ele>1388.5</ele></trkpt>
<trkpt lat="42.32750000" lon="1.52945000"><ele>1386.5</ele></trkpt>
<trkpt lat="42.32756000" lon="1.52935000"><ele>1384.0</ele></trkpt>
<trkpt lat="42.32745000" lon="1.52918000"><ele>1382.8</ele></trkpt>
<trkpt lat="42.32742000" lon="1.52904000"><ele>1381.7</ele></trkpt>
<trkpt lat="42.32771000" lon="1.52810000"><ele>1372.2</ele></trkpt>
<trkpt lat="42.32798000" lon="1.52784000"><ele>1369.3</ele></trkpt>
<trkpt lat="42.32809000" lon="1.52740000"><ele>1365.1</ele></trkpt>
<trkpt lat="42.32832000" lon="1.52686000"><ele>1360.9</ele></trkpt>
<trkpt lat="42.32844000" lon="1.52614000"><ele>1353.8</ele></trkpt>
<trkpt lat="42.32845000" lon="1.52587000"><ele>1350.7</ele></trkpt>
<trkpt lat="42.32823000" lon="1.52514000"><ele>1346.7</ele></trkpt>
<trkpt lat="42.32828000" lon="1.52495000"><ele>1345.1</ele></trkpt>
<trkpt lat="42.32875000" lon="1.52452000"><ele>1338.4</ele></trkpt>
<trkpt lat="42.32912000" lon="1.52437000"><ele>1333.5</ele></trkpt>
<trkpt lat="42.32926000" lon="1.52443000"><ele>1332.5</ele></trkpt>
<trkpt lat="42.32992000" lon="1.52511000"><ele>1323.9</ele></trkpt>
<trkpt lat="42.33027000" lon="1.52537000"><ele>1318.0</ele></trkpt>
<trkpt lat="42.33052000" lon="1.52601000"><ele>1313.3</ele></trkpt>
<trkpt lat="42.33061000" lon="1.52607000"><ele>1312.1</ele></trkpt>
<trkpt lat="42.33085000" lon="1.52564000"><ele>1307.7</ele></trkpt>
<trkpt lat="42.33074000" lon="1.52449000"><ele>1294.7</ele></trkpt>
<trkpt lat="42.33062000" lon="1.52404000"><ele>1289.1</ele></trkpt>
<trkpt lat="42.33041000" lon="1.52370000"><ele>1284.5</ele></trkpt>
<trkpt lat="42.33006000" lon="1.52308000"><ele>1278.9</ele></trkpt>
<trkpt lat="42.32985000" lon="1.52279000"><ele>1276.7</ele></trkpt>
<trkpt lat="42.32986000" lon="1.52240000"><ele>1272.9</ele></trkpt>
<trkpt lat="42.32971000" lon="1.52165000"><ele>1266.9</ele></trkpt>
<trkpt lat="42.32955000" lon="1.52137000"><ele>1264.5</ele></trkpt>
<trkpt lat="42.32936000" lon="1.52111000"><ele>1262.3</ele></trkpt>
<trkpt lat="42.32919000" lon="1.52069000"><ele>1258.5</ele></trkpt>
<trkpt lat="42.32921000" lon="1.52008000"><ele>1254.0</ele></trkpt>
<trkpt lat="42.32941000" lon="1.51891000"><ele>1246.0</ele></trkpt>
<trkpt lat="42.32946000" lon="1.51894000"><ele>1246.0</ele></trkpt>
<trkpt lat="42.32948000" lon="1.51976000"><ele>1239.4</ele></trkpt>
<trkpt lat="42.32959000" lon="1.52008000"><ele>1235.4</ele></trkpt>
<trkpt lat="42.32978000" lon="1.52040000"><ele>1233.5</ele></trkpt>
<trkpt lat="42.33009000" lon="1.52041000"><ele>1229.7</ele></trkpt>
<trkpt lat="42.33093000" lon="1.52079000"><ele>1220.7</ele></trkpt>
<trkpt lat="42.33106000" lon="1.52114000"><ele>1217.8</ele></trkpt>
<trkpt lat="42.33156000" lon="1.52112000"><ele>1213.5</ele></trkpt>
<trkpt lat="42.33203000" lon="1.52090000"><ele>1210.0</ele></trkpt>
<trkpt lat="42.33237000" lon="1.52094000"><ele>1208.9</ele></trkpt>
<trkpt lat="42.33266000" lon="1.52081000"><ele>1207.6</ele></trkpt>
<trkpt lat="42.33330000" lon="1.52072000"><ele>1205.4</ele></trkpt>
<trkpt lat="42.33345000" lon="1.52082000"><ele>1204.4</ele></trkpt>
<trkpt lat="42.33345086" lon="1.52082000"><ele>1204.4</ele></trkpt>
<trkpt lat="42.33350000" lon="1.52082000"><ele>1203.8</ele></trkpt>
<trkpt lat="42.33352000" lon="1.52083000"><ele>1203.8</ele></trkpt>
<trkpt lat="42.33367000" lon="1.52060000"><ele>1201.2</ele></trkpt>
<trkpt lat="42.33390000" lon="1.52017000"><ele>1198.8</ele></trkpt>
<trkpt lat="42.33396000" lon="1.51995000"><ele>1197.0</ele></trkpt>
<trkpt lat="42.33417000" lon="1.51953000"><ele>1193.8</ele></trkpt>
<trkpt lat="42.33454000" lon="1.51903000"><ele>1186.7</ele></trkpt>
<trkpt lat="42.33471000" lon="1.51887000"><ele>1183.5</ele></trkpt>
<trkpt lat="42.33512000" lon="1.51803000"><ele>1174.3</ele></trkpt>
<trkpt lat="42.33518000" lon="1.51791000"><ele>1173.0</ele></trkpt>
<trkpt lat="42.33517000" lon="1.51711000"><ele>1166.8</ele></trkpt>
<trkpt lat="42.33533000" lon="1.51652000"><ele>1162.4</ele></trkpt>
<trkpt lat="42.33543000" lon="1.51597000"><ele>1156.5</ele></trkpt>
<trkpt lat="42.33543000" lon="1.51578000"><ele>1155.2</ele></trkpt>
<trkpt lat="42.33548000" lon="1.51538000"><ele>1153.8</ele></trkpt>
<trkpt lat="42.33552000" lon="1.51524000"><ele>1153.6</ele></trkpt>
<trkpt lat="42.33560000" lon="1.51528000"><ele>1152.5</ele></trkpt>
<trkpt lat="42.33597000" lon="1.51566000"><ele>1149.1</ele></trkpt>
<trkpt lat="42.33607000" lon="1.51574000"><ele>1148.0</ele></trkpt>
<trkpt lat="42.33621000" lon="1.51569000"><ele>1147.3</ele></trkpt>
<trkpt lat="42.33631000" lon="1.51555000"><ele>1146.2</ele></trkpt>
<trkpt lat="42.33648985" lon="1.51537015"><ele>1144.9</ele></trkpt>
<trkpt lat="42.33649000" lon="1.51531000"><ele>1144.9</ele></trkpt>
<trkpt lat="42.33687000" lon="1.51508000"><ele>1146.8</ele></trkpt>
<trkpt lat="42.33695000" lon="1.51507000"><ele>1147.5</ele></trkpt>
<trkpt lat="42.33705000" lon="1.51509000"><ele>1148.1</ele></trkpt>
<trkpt lat="42.33717000" lon="1.51515000"><ele>1150.0</ele></trkpt>
<trkpt lat="42.33729000" lon="1.51526000"><ele>1150.0</ele></trkpt>
<trkpt lat="42.33739000" lon="1.51539000"><ele>1151.0</ele></trkpt>
<trkpt lat="42.33749000" lon="1.51557000"><ele>1151.5</ele></trkpt>
<trkpt lat="42.33758000" lon="1.51594000"><ele>1150.7</ele></trkpt>
<trkpt lat="42.33761000" lon="1.51622000"><ele>1150.0</ele></trkpt>
<trkpt lat="42.33760000" lon="1.51641000"><ele>1148.9</ele></trkpt>
<trkpt lat="42.33755000" lon="1.51655000"><ele>1148.2</ele></trkpt>
<trkpt lat="42.33757982" lon="1.51661959"><ele>1147.5</ele></trkpt>
<trkpt lat="42.33758000" lon="1.51662000"><ele>1147.5</ele></trkpt>
<trkpt lat="42.33738000" lon="1.51721000"><ele>1140.0</ele></trkpt>
<trkpt lat="42.33729000" lon="1.51768000"><ele>1133.0</ele></trkpt>
<trkpt lat="42.33713000" lon="1.51812000"><ele>1127.2</ele></trkpt>
<trkpt lat="42.33707000" lon="1.51839000"><ele>1123.7</ele></trkpt>
<trkpt lat="42.33694000" lon="1.51874000"><ele>1120.9</ele></trkpt>
<trkpt lat="42.33671000" lon="1.51908000"><ele>1117.0</ele></trkpt>
<trkpt lat="42.33669000" lon="1.51916000"><ele>1115.5</ele></trkpt>
<trkpt lat="42.33662000" lon="1.51931000"><ele>1113.7</ele></trkpt>
<trkpt lat="42.33659000" lon="1.51956000"><ele>1109.4</ele></trkpt>
<trkpt lat="42.33661000" lon="1.51975000"><ele>1108.3</ele></trkpt>
<trkpt lat="42.33660000" lon="1.51974000"><ele>1108.3</ele></trkpt>
<trkpt lat="42.33680000" lon="1.51981000"><ele>1108.4</ele></trkpt>
<trkpt lat="42.33715000" lon="1.51986000"><ele>1110.3</ele></trkpt>
<trkpt lat="42.33789000" lon="1.51983000"><ele>1114.4</ele></trkpt>
<trkpt lat="42.33823000" lon="1.51979000"><ele>1116.5</ele></trkpt>
<trkpt lat="42.33851000" lon="1.51972000"><ele>1118.6</ele></trkpt>
<trkpt lat="42.33872000" lon="1.51975000"><ele>1120.7</ele></trkpt>
<trkpt lat="42.33896000" lon="1.51992000"><ele>1123.1</ele></trkpt>
<trkpt lat="42.33929000" lon="1.52030000"><ele>1124.7</ele></trkpt>
<trkpt lat="42.33948000" lon="1.52055000"><ele>1123.3</ele></trkpt>
<trkpt lat="42.33967000" lon="1.52057000"><ele>1122.5</ele></trkpt>
<trkpt lat="42.33967037" lon="1.52057040"><ele>1122.5</ele></trkpt>
<trkpt lat="42.33960000" lon="1.52035000"><ele>1121.9</ele></trkpt>
<trkpt lat="42.33992000" lon="1.52013000"><ele>1114.5</ele></trkpt>
<trkpt lat="42.34022000" lon="1.51970000"><ele>1096.9</ele></trkpt>
<trkpt lat="42.34045000" lon="1.51944000"><ele>1083.2</ele></trkpt>
<trkpt lat="42.34067000" lon="1.51951000"><ele>1077.0</ele></trkpt>
<trkpt lat="42.34083000" lon="1.51978000"><ele>1076.2</ele></trkpt>
<trkpt lat="42.34091000" lon="1.51952000"><ele>1068.1</ele></trkpt>
<trkpt lat="42.34095000" lon="1.51922000"><ele>1062.0</ele></trkpt>
<trkpt lat="42.34094000" lon="1.51882000"><ele>1053.6</ele></trkpt>
<trkpt lat="42.34126000" lon="1.51883000"><ele>1048.4</ele></trkpt>
<trkpt lat="42.34138000" lon="1.51907000"><ele>1051.5</ele></trkpt>
<trkpt lat="42.34153000" lon="1.51894000"><ele>1047.7</ele></trkpt>
<trkpt lat="42.34179000" lon="1.51876000"><ele>1041.8</ele></trkpt>
<trkpt lat="42.34204000" lon="1.51878000"><ele>1039.2</ele></trkpt>
<trkpt lat="42.34228000" lon="1.51894000"><ele>1035.6</ele></trkpt>
<trkpt lat="42.34248000" lon="1.51882000"><ele>1028.2</ele></trkpt>
<trkpt lat="42.34257000" lon="1.51822000"><ele>1015.8</ele></trkpt>
<trkpt lat="42.34254000" lon="1.51780000"><ele>1008.0</ele></trkpt>
<trkpt lat="42.34246000" lon="1.51746000"><ele>1001.3</ele></trkpt>
<trkpt lat="42.34236000" lon="1.51715000"><ele>994.4</ele></trkpt>
<trkpt lat="42.34255000" lon="1.51692000"><ele>984.5</ele></trkpt>
<trkpt lat="42.34297000" lon="1.51705000"><ele>981.2</ele></trkpt>
<trkpt lat="42.34322000" lon="1.51720000"><ele>980.4</ele></trkpt>
<trkpt lat="42.34350000" lon="1.51732000"><ele>976.7</ele></trkpt>
<trkpt lat="42.34338000" lon="1.51698000"><ele>972.5</ele></trkpt>
<trkpt lat="42.34318000" lon="1.51670000"><ele>969.6</ele></trkpt>
<trkpt lat="42.34286000" lon="1.51651000"><ele>970.3</ele></trkpt>
<trkpt lat="42.34270000" lon="1.51612000"><ele>962.8</ele></trkpt>
<trkpt lat="42.34257000" lon="1.51580000"><ele>956.4</ele></trkpt>
<trkpt lat="42.34283000" lon="1.51577000"><ele>953.2</ele></trkpt>
<trkpt lat="42.34322000" lon="1.51564000"><ele>949.2</ele></trkpt>
<trkpt lat="42.34349000" lon="1.51519000"><ele>944.6</ele></trkpt>
<trkpt lat="42.34369000" lon="1.51484000"><ele>941.7</ele></trkpt>
<trkpt lat="42.34395000" lon="1.51471000"><ele>938.2</ele></trkpt>
<trkpt lat="42.34418000" lon="1.51467000"><ele>933.9</ele></trkpt>
<trkpt lat="42.34441000" lon="1.51438000"><ele>928.6</ele></trkpt>
<trkpt lat="42.34470000" lon="1.51428000"><ele>922.0</ele></trkpt>
<trkpt lat="42.34492000" lon="1.51395000"><ele>915.3</ele></trkpt>
<trkpt lat="42.34547000" lon="1.51368000"><ele>897.6</ele></trkpt>
<trkpt lat="42.34570000" lon="1.51339000"><ele>890.0</ele></trkpt>
<trkpt lat="42.34595000" lon="1.51351000"><ele>884.1</ele></trkpt>
<trkpt lat="42.34616000" lon="1.51341000"><ele>879.2</ele></trkpt>
<trkpt lat="42.34629000" lon="1.51331000"><ele>875.6</ele></trkpt>
<trkpt lat="42.34638000" lon="1.51318000"><ele>872.5</ele></trkpt>
<trkpt lat="42.34643000" lon="1.51308000"><ele>870.6</ele></trkpt>
<trkpt lat="42.34632000" lon="1.51287000"><ele>871.6</ele></trkpt>
<trkpt lat="42.34614000" lon="1.51233000"><ele>870.7</ele></trkpt>
<trkpt lat="42.34598000" lon="1.51197000"><ele>873.1</ele></trkpt>
<trkpt lat="42.34590000" lon="1.51164000"><ele>873.3</ele></trkpt>
<trkpt lat="42.34605000" lon="1.51110000"><ele>867.7</ele></trkpt>
<trkpt lat="42.34623000" lon="1.51067000"><ele>862.5</ele></trkpt>
<trkpt lat="42.34636000" lon="1.51018000"><ele>859.6</ele></trkpt>
<trkpt lat="42.34643000" lon="1.50995000"><ele>858.6</ele></trkpt>
<trkpt lat="42.34636000" lon="1.50983000"><ele>860.6</ele></trkpt>
<trkpt lat="42.34640000" lon="1.50957000"><ele>858.6</ele></trkpt>
<trkpt lat="42.34639000" lon="1.50926000"><ele>859.0</ele></trkpt>
<trkpt lat="42.34613000" lon="1.50872000"><ele>859.0</ele></trkpt>
<trkpt lat="42.34604000" lon="1.50847000"><ele>860.1</ele></trkpt>
<trkpt lat="42.34604000" lon="1.50827000"><ele>861.9</ele></trkpt>
<trkpt lat="42.34608000" lon="1.50818000"><ele>862.2</ele></trkpt>
<trkpt lat="42.34613000" lon="1.50816000"><ele>862.2</ele></trkpt>
<trkpt lat="42.34620000" lon="1.50792000"><ele>861.4</ele></trkpt>
<trkpt lat="42.34620000" lon="1.50778000"><ele>861.2</ele></trkpt>
<trkpt lat="42.34605000" lon="1.50679000"><ele>861.8</ele></trkpt>
<trkpt lat="42.34614000" lon="1.50649000"><ele>861.1</ele></trkpt>
<trkpt lat="42.34615000" lon="1.50622000"><ele>862.4</ele></trkpt>
<trkpt lat="42.34612000" lon="1.50607000"><ele>863.0</ele></trkpt>
<trkpt lat="42.34603000" lon="1.50595000"><ele>865.8</ele></trkpt>
<trkpt lat="42.34593000" lon="1.50592000"><ele>866.9</ele></trkpt>
<trkpt lat="42.34585000" lon="1.50582000"><ele>868.3</ele></trkpt>
<trkpt lat="42.34558000" lon="1.50508000"><ele>871.8</ele></trkpt>
<trkpt lat="42.34560000" lon="1.50499000"><ele>871.8</ele></trkpt>
<trkpt lat="42.34615000" lon="1.50481000"><ele>868.7</ele></trkpt>
<trkpt lat="42.34621000" lon="1.50473000"><ele>868.0</ele></trkpt>
<trkpt lat="42.34630000" lon="1.50443000"><ele>865.7</ele></trkpt>
<trkpt lat="42.34639000" lon="1.50396000"><ele>862.3</ele></trkpt>
<trkpt lat="42.34648000" lon="1.50374000"><ele>860.6</ele></trkpt>
<trkpt lat="42.34669000" lon="1.50342000"><ele>858.1</ele></trkpt>
<trkpt lat="42.34671000" lon="1.50331000"><ele>858.1</ele></trkpt>
<trkpt lat="42.34671000" lon="1.50307000"><ele>852.8</ele></trkpt>
<trkpt lat="42.34668000" lon="1.50297000"><ele>852.8</ele></trkpt>
<trkpt lat="42.34663000" lon="1.50291000"><ele>852.8</ele></trkpt>
<trkpt lat="42.34630000" lon="1.50291000"><ele>850.0</ele></trkpt>
<trkpt lat="42.34557000" lon="1.50278000"><ele>843.3</ele></trkpt>
<trkpt lat="42.34542000" lon="1.50271000"><ele>842.3</ele></trkpt>
<trkpt lat="42.34513000" lon="1.50249000"><ele>838.4</ele></trkpt>
<trkpt lat="42.34502000" lon="1.50237000"><ele>837.5</ele></trkpt>
<trkpt lat="42.34489000" lon="1.50230000"><ele>836.5</ele></trkpt>
<trkpt lat="42.34487000" lon="1.50222000"><ele>836.1</ele></trkpt>
<trkpt lat="42.34492000" lon="1.50216000"><ele>835.0</ele></trkpt>
<trkpt lat="42.34557000" lon="1.50230000"><ele>827.5</ele></trkpt>
<trkpt lat="42.34568000" lon="1.50229000"><ele>827.1</ele></trkpt>
<trkpt lat="42.34575000" lon="1.50219000"><ele>825.0</ele></trkpt>
<trkpt lat="42.34594000" lon="1.50212000"><ele>823.5</ele></trkpt>
<trkpt lat="42.34614000" lon="1.50211000"><ele>822.8</ele></trkpt>
<trkpt lat="42.34630000" lon="1.50214000"><ele>821.5</ele></trkpt>
<trkpt lat="42.34650000" lon="1.50224000"><ele>820.8</ele></trkpt>
<trkpt lat="42.34666000" lon="1.50229000"><ele>820.2</ele></trkpt>
<trkpt lat="42.34692000" lon="1.50216000"><ele>817.0</ele></trkpt>
<trkpt lat="42.34702000" lon="1.50209000"><ele>816.4</ele></trkpt>
<trkpt lat="42.34704000" lon="1.50202000"><ele>814.3</ele></trkpt>
<trkpt lat="42.34678000" lon="1.50128000"><ele>808.0</ele></trkpt>
<trkpt lat="42.34680000" lon="1.50107000"><ele>804.9</ele></trkpt>
<trkpt lat="42.34688000" lon="1.50102000"><ele>802.7</ele></trkpt>
<trkpt lat="42.34768000" lon="1.50115000"><ele>796.6</ele></trkpt>
<trkpt lat="42.34784000" lon="1.50126000"><ele>794.4</ele></trkpt>
<trkpt lat="42.34827000" lon="1.50202000"><ele>783.2</ele></trkpt>
<trkpt lat="42.34842000" lon="1.50221000"><ele>782.3</ele></trkpt>
<trkpt lat="42.34849000" lon="1.50232000"><ele>781.0</ele></trkpt>
<trkpt lat="42.34848000" lon="1.50222000"><ele>780.4</ele></trkpt>
<trkpt lat="42.34859000" lon="1.50252000"></trkpt>
<trkpt lat="42.34859000" lon="1.50252000"><ele>780.1</ele></trkpt>
<trkpt lat="42.34872000" lon="1.50261000"><ele>779.3</ele></trkpt>
<trkpt lat="42.34893000" lon="1.50267000"><ele>776.6</ele></trkpt>
<trkpt lat="42.34905000" lon="1.50280000"><ele>775.4</ele></trkpt>
<trkpt lat="42.34926000" lon="1.50288000"><ele>771.9</ele></trkpt>
<trkpt lat="42.34989000" lon="1.50351000"><ele>765.3</ele></trkpt>
<trkpt lat="42.35013000" lon="1.50387000"><ele>765.8</ele></trkpt>
<trkpt lat="42.35029000" lon="1.50441000"><ele>766.9</ele></trkpt>
<trkpt lat="42.35039000" lon="1.50503000"><ele>766.5</ele></trkpt>
<trkpt lat="42.35040000" lon="1.50554000"><ele>766.3</ele></trkpt>
<trkpt lat="42.35047000" lon="1.50574000"><ele>765.5</ele></trkpt>
<trkpt lat="42.35075000" lon="1.50613000"><ele>765.2</ele></trkpt>
<trkpt lat="42.35075016" lon="1.50613006"><ele>765.2</ele></trkpt>
<trkpt lat="42.35071000" lon="1.50608000"><ele>765.2</ele></trkpt>
<trkpt lat="42.35075000" lon="1.50613000"><ele>765.2</ele></trkpt>
<trkpt lat="42.35089000" lon="1.50618000"><ele>764.1</ele></trkpt>
<trkpt lat="42.35112000" lon="1.50637000"><ele>761.2</ele></trkpt>
<trkpt lat="42.35128000" lon="1.50661000"><ele>759.4</ele></trkpt>
<trkpt lat="42.35128000" lon="1.50645000"><ele>758.9</ele></trkpt>
<trkpt lat="42.35149000" lon="1.50572000"><ele>754.5</ele></trkpt>
<trkpt lat="42.35155000" lon="1.50526000"><ele>749.3</ele></trkpt>
<trkpt lat="42.35158000" lon="1.50516000"><ele>749.0</ele></trkpt>
<trkpt lat="42.35158000" lon="1.50482000"><ele>748.7</ele></trkpt>
<trkpt lat="42.35158002" lon="1.50481991"><ele>748.7</ele></trkpt>
<trkpt lat="42.35158000" lon="1.50516000"><ele>749.0</ele></trkpt>
<trkpt lat="42.35194000" lon="1.50595000"><ele>750.6</ele></trkpt>
<trkpt lat="42.35219000" lon="1.50660000"><ele>753.3</ele></trkpt>
<trkpt lat="42.35219000" lon="1.50659000"><ele>753.3</ele></trkpt>
<trkpt lat="42.35223000" lon="1.50677000"><ele>753.7</ele></trkpt>
<trkpt lat="42.35232000" lon="1.50742000"><ele>756.2</ele></trkpt>
<trkpt lat="42.35234000" lon="1.50771000"><ele>758.3</ele></trkpt>
<trkpt lat="42.35234000" lon="1.50771000"><ele>758.3</ele></trkpt>
<trkpt lat="42.35205000" lon="1.50791000"><ele>760.4</ele></trkpt>
<trkpt lat="42.35200000" lon="1.50807000"><ele>761.7</ele></trkpt>
<trkpt lat="42.35199945" lon="1.50807035"><ele>761.7</ele></trkpt>
<trkpt lat="42.35200000" lon="1.50807000"><ele>761.7</ele></trkpt>
<trkpt lat="42.35189000" lon="1.50814000"><ele>764.2</ele></trkpt>
<trkpt lat="42.35173000" lon="1.50813000"><ele>765.6</ele></trkpt>
<trkpt lat="42.35142000" lon="1.50826000"><ele>768.3</ele></trkpt>
</trkseg></trk></gpx>